{
"type": "FeatureCollection",
"name": "top30_streets",
"crs": { "type": "name", "properties": { "name": "urn:ogc:def:crs:OGC:1.3:CRS84" } },
"features": [
{ "type": "Feature", "properties": { "street_label": "1400 HOMER ST", "street_type": "Public", "total_trees": 53, "total_length": 192.68582278881993, "density": 27.505915709266795, "rank": 1, "rank_label": "1" }, "geometry": { "type": "Point", "coordinates": [ -123.126194561958172, 49.272267683350016 ] } },
{ "type": "Feature", "properties": { "street_label": "600 CHILCO ST", "street_type": "Public", "total_trees": 16, "total_length": 64.910088247971558, "density": 24.649481200636021, "rank": 2, "rank_label": "2" }, "geometry": { "type": "Point", "coordinates": [ -123.137006659920004, 49.294297048297025 ] } },
{ "type": "Feature", "properties": { "street_label": "2400 W 41ST AV", "street_type": "Public", "total_trees": 25, "total_length": 102.3139852079795, "density": 24.434587265055768, "rank": 3, "rank_label": "3" }, "geometry": { "type": "Point", "coordinates": [ -123.162041723577815, 49.23467579406698 ] } },
{ "type": "Feature", "properties": { "street_label": "4500 BALACLAVA ST", "street_type": "Public", "total_trees": 12, "total_length": 52.766478434887979, "density": 22.741710942123202, "rank": 4, "rank_label": "4" }, "geometry": { "type": "Point", "coordinates": [ -123.175725256799979, 49.245420716667567 ] } },
{ "type": "Feature", "properties": { "street_label": "600 GILFORD ST", "street_type": "Public", "total_trees": 13, "total_length": 58.103348798586033, "density": 22.373925546123356, "rank": 5, "rank_label": "5" }, "geometry": { "type": "Point", "coordinates": [ -123.135036693920057, 49.293801709869079 ] } },
{ "type": "Feature", "properties": { "street_label": "100 DRAKE ST", "street_type": "Public", "total_trees": 25, "total_length": 113.4922036412036, "density": 22.02794482609173, "rank": 6, "rank_label": "6" }, "geometry": { "type": "Point", "coordinates": [ -123.12313748079319, 49.273080177478718 ] } },
{ "type": "Feature", "properties": { "street_label": "800 SALSBURY DRIVE", "street_type": "Public", "total_trees": 11, "total_length": 50.059202070098536, "density": 21.973981895669372, "rank": 7, "rank_label": "7" }, "geometry": { "type": "Point", "coordinates": [ -123.068361746261672, 49.277314999953859 ] } },
{ "type": "Feature", "properties": { "street_label": "200 W 37TH AV", "street_type": "Public", "total_trees": 21, "total_length": 97.151187919775538, "density": 21.615793331668939, "rank": 8, "rank_label": "8" }, "geometry": { "type": "Point", "coordinates": [ -123.111229362629189, 49.237113008189631 ] } },
{ "type": "Feature", "properties": { "street_label": "400 W 33RD AV", "street_type": "Public", "total_trees": 18, "total_length": 87.883230245084221, "density": 20.481723247771537, "rank": 9, "rank_label": "9" }, "geometry": { "type": "Point", "coordinates": [ -123.116345562501778, 49.241014348104784 ] } },
{ "type": "Feature", "properties": { "street_label": "3100 RUPERT ST", "street_type": "Public", "total_trees": 18, "total_length": 93.207814952553463, "density": 19.311685408742523, "rank": 10, "rank_label": "10" }, "geometry": { "type": "Point", "coordinates": [ -123.033783991524061, 49.25599025834412 ] } },
{ "type": "Feature", "properties": { "street_label": "3900 RUPERT ST", "street_type": "Public", "total_trees": 19, "total_length": 99.042914826396114, "density": 19.183603424135367, "rank": 11, "rank_label": "11" }, "geometry": { "type": "Point", "coordinates": [ -123.033806763314331, 49.249217033456247 ] } },
{ "type": "Feature", "properties": { "street_label": "4100 RUPERT ST", "street_type": "Public", "total_trees": 16, "total_length": 86.087022472504813, "density": 18.585844347340753, "rank": 12, "rank_label": "12" }, "geometry": { "type": "Point", "coordinates": [ -123.033815888656093, 49.247489101498694 ] } },
{ "type": "Feature", "properties": { "street_label": "3200 RUPERT ST", "street_type": "Public", "total_trees": 16, "total_length": 87.259517627777598, "density": 18.336108696189569, "rank": 13, "rank_label": "13" }, "geometry": { "type": "Point", "coordinates": [ -123.033791877176029, 49.255178796465415 ] } },
{ "type": "Feature", "properties": { "street_label": "1000 MELVILLE ST", "street_type": "Public", "total_trees": 26, "total_length": 146.83100506203155, "density": 17.707431743735462, "rank": 14, "rank_label": "14" }, "geometry": { "type": "Point", "coordinates": [ -123.120709463548224, 49.285624119084318 ] } },
{ "type": "Feature", "properties": { "street_label": "3600 CROWLEY DRIVE", "street_type": "Public", "total_trees": 14, "total_length": 80.923711313503134, "density": 17.30024460415958, "rank": 15, "rank_label": "15" }, "geometry": { "type": "Point", "coordinates": [ -123.027435277381429, 49.235193719378991 ] } },
{ "type": "Feature", "properties": { "street_label": "2200 W 41ST AV", "street_type": "Public", "total_trees": 17, "total_length": 102.23953427067052, "density": 16.627618779046799, "rank": 16, "rank_label": "16" }, "geometry": { "type": "Point", "coordinates": [ -123.159224653092181, 49.234631982356817 ] } },
{ "type": "Feature", "properties": { "street_label": "3300 RUPERT ST", "street_type": "Public", "total_trees": 13, "total_length": 81.625966274744016, "density": 15.926304573526801, "rank": 17, "rank_label": "17" }, "geometry": { "type": "Point", "coordinates": [ -123.033796852607281, 49.254364664837517 ] } },
{ "type": "Feature", "properties": { "street_label": "2600 E 22ND AV", "street_type": "Public", "total_trees": 30, "total_length": 190.34459426046089, "density": 15.760888885002453, "rank": 18, "rank_label": "18" }, "geometry": { "type": "Point", "coordinates": [ -123.050926984668436, 49.250661450732309 ] } },
{ "type": "Feature", "properties": { "street_label": "4000 RUPERT ST", "street_type": "Public", "total_trees": 15, "total_length": 99.573887566224855, "density": 15.064190388292072, "rank": 19, "rank_label": "19" }, "geometry": { "type": "Point", "coordinates": [ -123.033810701592131, 49.248323936677593 ] } },
{ "type": "Feature", "properties": { "street_label": "4200 RUPERT ST", "street_type": "Public", "total_trees": 14, "total_length": 93.146322847616574, "density": 15.030115598769697, "rank": 20, "rank_label": "20" }, "geometry": { "type": "Point", "coordinates": [ -123.033823520394805, 49.246683176146611 ] } },
{ "type": "Feature", "properties": { "street_label": "3000 E 2ND AV", "street_type": "Public", "total_trees": 27, "total_length": 183.38795254295192, "density": 14.722886441341471, "rank": 21, "rank_label": "21" }, "geometry": { "type": "Point", "coordinates": [ -123.040234815684002, 49.268485855977524 ] } },
{ "type": "Feature", "properties": { "street_label": "2500 OXFORD ST", "street_type": "Public", "total_trees": 28, "total_length": 190.45625895139108, "density": 14.701538376402878, "rank": 22, "rank_label": "22" }, "geometry": { "type": "Point", "coordinates": [ -123.053264820225465, 49.285692520658259 ] } },
{ "type": "Feature", "properties": { "street_label": "800-900 E 64TH AV", "street_type": "Public", "total_trees": 26, "total_length": 177.66781104809806, "density": 14.634052081027388, "rank": 23, "rank_label": "23" }, "geometry": { "type": "Point", "coordinates": [ -123.086968583671322, 49.212000020673059 ] } },
{ "type": "Feature", "properties": { "street_label": "2900 W 30TH AV", "street_type": "Public", "total_trees": 29, "total_length": 200.2565690190188, "density": 14.481422578075732, "rank": 24, "rank_label": "24" }, "geometry": { "type": "Point", "coordinates": [ -123.171589858025001, 49.245167406646097 ] } },
{ "type": "Feature", "properties": { "street_label": "4000 W 36TH AV", "street_type": "Public", "total_trees": 33, "total_length": 228.65053932869355, "density": 14.432504772079845, "rank": 25, "rank_label": "25" }, "geometry": { "type": "Point", "coordinates": [ -123.195283942528263, 49.239562511365072 ] } },
{ "type": "Feature", "properties": { "street_label": "7700 PRINCE EDWARD ST", "street_type": "Public", "total_trees": 11, "total_length": 76.440777086910458, "density": 14.390225242599758, "rank": 26, "rank_label": "26" }, "geometry": { "type": "Point", "coordinates": [ -123.097882855107216, 49.214629469486553 ] } },
{ "type": "Feature", "properties": { "street_label": "0-100 E 61ST AV", "street_type": "Public", "total_trees": 45, "total_length": 314.92497818710797, "density": 14.289117446017229, "rank": 27, "rank_label": "27" }, "geometry": { "type": "Point", "coordinates": [ -123.104197602225213, 49.215048630772323 ] } },
{ "type": "Feature", "properties": { "street_label": "7500-7700 YUKON ST", "street_type": "Public", "total_trees": 45, "total_length": 315.5229636183135, "density": 14.262036424846805, "rank": 28, "rank_label": "28" }, "geometry": { "type": "Point", "coordinates": [ -123.115405690297919, 49.215505115278305 ] } },
{ "type": "Feature", "properties": { "street_label": "2700-2800 E 54TH AV", "street_type": "Public", "total_trees": 10, "total_length": 70.368392698937157, "density": 14.210925696120155, "rank": 29, "rank_label": "29" }, "geometry": { "type": "Point", "coordinates": [ -123.048531134304497, 49.220200501538059 ] } },
{ "type": "Feature", "properties": { "street_label": "3000 E 7TH AV", "street_type": "Public", "total_trees": 26, "total_length": 183.39394154296551, "density": 14.177131360639153, "rank": 30, "rank_label": "30" }, "geometry": { "type": "Point", "coordinates": [ -123.040288748719291, 49.263844170045125 ] } }
]
}
