<?xml version="1.0" encoding="UTF-8"?>
<gpx xmlns="http://www.topografix.com/GPX/1/1" xmlns:xsi="http://www.w3.org/2001/XMLSchema-instance" version="1.1" creator="yvr-cherry-blossoms" xsi:schemaLocation="http://www.topografix.com/GPX/1/1 http://www.topografix.com/GPX/1/1/gpx.xsd">
  <metadata>
    <name>Vancouver Cherry Blossom Marathon — Run (Top 10)</name>
    <desc>Top 10 cherry blossom streets by density. Foot-routing via OSRM.</desc>
    <time>2026-04-01T00:45:15Z</time>
  </metadata>
  <wpt lat="49.272268" lon="-123.126195">
    <name>Stop 1 — 1400 HOMER ST</name>
    <desc>27.5 trees/100m · 53 total trees</desc>
  </wpt>
  <wpt lat="49.273080" lon="-123.123137">
    <name>Stop 2 — 100 DRAKE ST</name>
    <desc>22.0 trees/100m · 25 total trees</desc>
  </wpt>
  <wpt lat="49.293802" lon="-123.135037">
    <name>Stop 3 — 600 GILFORD ST</name>
    <desc>22.4 trees/100m · 13 total trees</desc>
  </wpt>
  <wpt lat="49.294297" lon="-123.137007">
    <name>Stop 4 — 600 CHILCO ST</name>
    <desc>24.6 trees/100m · 16 total trees</desc>
  </wpt>
  <wpt lat="49.245421" lon="-123.175725">
    <name>Stop 5 — 4500 BALACLAVA ST</name>
    <desc>22.7 trees/100m · 12 total trees</desc>
  </wpt>
  <wpt lat="49.234676" lon="-123.162042">
    <name>Stop 6 — 2400 W 41ST AV</name>
    <desc>24.4 trees/100m · 25 total trees</desc>
  </wpt>
  <wpt lat="49.241014" lon="-123.116346">
    <name>Stop 7 — 400 W 33RD AV</name>
    <desc>20.5 trees/100m · 18 total trees</desc>
  </wpt>
  <wpt lat="49.237113" lon="-123.111229">
    <name>Stop 8 — 200 W 37TH AV</name>
    <desc>21.6 trees/100m · 21 total trees</desc>
  </wpt>
  <wpt lat="49.277315" lon="-123.068362">
    <name>Stop 9 — 800 SALSBURY DRIVE</name>
    <desc>22.0 trees/100m · 11 total trees</desc>
  </wpt>
  <wpt lat="49.255990" lon="-123.033784">
    <name>Stop 10 — 3100 RUPERT ST</name>
    <desc>19.3 trees/100m · 18 total trees</desc>
  </wpt>
</gpx>
