<?xml version="1.0" encoding="UTF-8"?>
<gpx xmlns="http://www.topografix.com/GPX/1/1" xmlns:xsi="http://www.w3.org/2001/XMLSchema-instance" version="1.1" creator="yvr-cherry-blossoms" xsi:schemaLocation="http://www.topografix.com/GPX/1/1 http://www.topografix.com/GPX/1/1/gpx.xsd">
  <metadata>
    <name>Vancouver Cherry Blossom Grand Tour — Bike</name>
    <desc>Top 30 cherry blossom streets in Vancouver by density. Road-following route via OSRM.</desc>
    <time>2026-03-30T01:05:33Z</time>
  </metadata>
  <wpt lat="49.272268" lon="-123.126195">
    <name>Stop 1 — 1400 HOMER ST</name>
    <desc>27.5 trees/100m · 53 total trees</desc>
  </wpt>
  <wpt lat="49.273080" lon="-123.123137">
    <name>Stop 2 — 100 DRAKE ST</name>
    <desc>22.0 trees/100m · 25 total trees</desc>
  </wpt>
  <wpt lat="49.294297" lon="-123.137007">
    <name>Stop 3 — 600 CHILCO ST</name>
    <desc>24.6 trees/100m · 16 total trees</desc>
  </wpt>
  <wpt lat="49.293802" lon="-123.135037">
    <name>Stop 4 — 600 GILFORD ST</name>
    <desc>22.4 trees/100m · 13 total trees</desc>
  </wpt>
  <wpt lat="49.285624" lon="-123.120709">
    <name>Stop 5 — 1000 MELVILLE ST</name>
    <desc>17.7 trees/100m · 26 total trees</desc>
  </wpt>
  <wpt lat="49.277315" lon="-123.068362">
    <name>Stop 6 — 800 SALSBURY DRIVE</name>
    <desc>22.0 trees/100m · 11 total trees</desc>
  </wpt>
  <wpt lat="49.285693" lon="-123.053265">
    <name>Stop 7 — 2500 OXFORD ST</name>
    <desc>14.7 trees/100m · 28 total trees</desc>
  </wpt>
  <wpt lat="49.268486" lon="-123.040235">
    <name>Stop 8 — 3000 E 2ND AV</name>
    <desc>14.7 trees/100m · 27 total trees</desc>
  </wpt>
  <wpt lat="49.263844" lon="-123.040289">
    <name>Stop 9 — 3000 E 7TH AV</name>
    <desc>14.2 trees/100m · 26 total trees</desc>
  </wpt>
  <wpt lat="49.250661" lon="-123.050927">
    <name>Stop 10 — 2600 E 22ND AV</name>
    <desc>15.8 trees/100m · 30 total trees</desc>
  </wpt>
  <wpt lat="49.255990" lon="-123.033784">
    <name>Stop 11 — 3100 RUPERT ST</name>
    <desc>19.3 trees/100m · 18 total trees</desc>
  </wpt>
  <wpt lat="49.255179" lon="-123.033792">
    <name>Stop 12 — 3200 RUPERT ST</name>
    <desc>18.3 trees/100m · 16 total trees</desc>
  </wpt>
  <wpt lat="49.254365" lon="-123.033797">
    <name>Stop 13 — 3300 RUPERT ST</name>
    <desc>15.9 trees/100m · 13 total trees</desc>
  </wpt>
  <wpt lat="49.249217" lon="-123.033807">
    <name>Stop 14 — 3900 RUPERT ST</name>
    <desc>19.2 trees/100m · 19 total trees</desc>
  </wpt>
  <wpt lat="49.248324" lon="-123.033811">
    <name>Stop 15 — 4000 RUPERT ST</name>
    <desc>15.1 trees/100m · 15 total trees</desc>
  </wpt>
  <wpt lat="49.247489" lon="-123.033816">
    <name>Stop 16 — 4100 RUPERT ST</name>
    <desc>18.6 trees/100m · 16 total trees</desc>
  </wpt>
  <wpt lat="49.246683" lon="-123.033824">
    <name>Stop 17 — 4200 RUPERT ST</name>
    <desc>15.0 trees/100m · 14 total trees</desc>
  </wpt>
  <wpt lat="49.235194" lon="-123.027435">
    <name>Stop 18 — 3600 CROWLEY DRIVE</name>
    <desc>17.3 trees/100m · 14 total trees</desc>
  </wpt>
  <wpt lat="49.220201" lon="-123.048531">
    <name>Stop 19 — 2700-2800 E 54TH AV</name>
    <desc>14.2 trees/100m · 10 total trees</desc>
  </wpt>
  <wpt lat="49.212000" lon="-123.086969">
    <name>Stop 20 — 800-900 E 64TH AV</name>
    <desc>14.6 trees/100m · 26 total trees</desc>
  </wpt>
  <wpt lat="49.214629" lon="-123.097883">
    <name>Stop 21 — 7700 PRINCE EDWARD ST</name>
    <desc>14.4 trees/100m · 11 total trees</desc>
  </wpt>
  <wpt lat="49.215049" lon="-123.104198">
    <name>Stop 22 — 0-100 E 61ST AV</name>
    <desc>14.3 trees/100m · 45 total trees</desc>
  </wpt>
  <wpt lat="49.215505" lon="-123.115406">
    <name>Stop 23 — 7500-7700 YUKON ST</name>
    <desc>14.3 trees/100m · 45 total trees</desc>
  </wpt>
  <wpt lat="49.237113" lon="-123.111229">
    <name>Stop 24 — 200 W 37TH AV</name>
    <desc>21.6 trees/100m · 21 total trees</desc>
  </wpt>
  <wpt lat="49.241014" lon="-123.116346">
    <name>Stop 25 — 400 W 33RD AV</name>
    <desc>20.5 trees/100m · 18 total trees</desc>
  </wpt>
  <wpt lat="49.234632" lon="-123.159225">
    <name>Stop 26 — 2200 W 41ST AV</name>
    <desc>16.6 trees/100m · 17 total trees</desc>
  </wpt>
  <wpt lat="49.234676" lon="-123.162042">
    <name>Stop 27 — 2400 W 41ST AV</name>
    <desc>24.4 trees/100m · 25 total trees</desc>
  </wpt>
  <wpt lat="49.245167" lon="-123.171590">
    <name>Stop 28 — 2900 W 30TH AV</name>
    <desc>14.5 trees/100m · 29 total trees</desc>
  </wpt>
  <wpt lat="49.245421" lon="-123.175725">
    <name>Stop 29 — 4500 BALACLAVA ST</name>
    <desc>22.7 trees/100m · 12 total trees</desc>
  </wpt>
  <wpt lat="49.239563" lon="-123.195284">
    <name>Stop 30 — 4000 W 36TH AV</name>
    <desc>14.4 trees/100m · 33 total trees</desc>
  </wpt>
  <trk>
    <name>Vancouver Cherry Blossom Grand Tour — Bike</name>
    <trkseg>
      <trkpt lat="49.272235" lon="-123.126068"/>
      <trkpt lat="49.272268" lon="-123.126048"/>
      <trkpt lat="49.272355" lon="-123.126006"/>
      <trkpt lat="49.272425" lon="-123.125980"/>
      <trkpt lat="49.272503" lon="-123.125957"/>
      <trkpt lat="49.272574" lon="-123.125944"/>
      <trkpt lat="49.272666" lon="-123.125939"/>
      <trkpt lat="49.272911" lon="-123.125942"/>
      <trkpt lat="49.272935" lon="-123.125940"/>
      <trkpt lat="49.273033" lon="-123.125930"/>
      <trkpt lat="49.273010" lon="-123.125803"/>
      <trkpt lat="49.273002" lon="-123.125632"/>
      <trkpt lat="49.273004" lon="-123.125371"/>
      <trkpt lat="49.273022" lon="-123.125143"/>
      <trkpt lat="49.273050" lon="-123.124944"/>
      <trkpt lat="49.273084" lon="-123.124763"/>
      <trkpt lat="49.273164" lon="-123.124462"/>
      <trkpt lat="49.273198" lon="-123.124325"/>
      <trkpt lat="49.273247" lon="-123.124125"/>
      <trkpt lat="49.273338" lon="-123.123759"/>
      <trkpt lat="49.273345" lon="-123.123731"/>
      <trkpt lat="49.273379" lon="-123.123601"/>
      <trkpt lat="49.273317" lon="-123.123505"/>
      <trkpt lat="49.273301" lon="-123.123482"/>
      <trkpt lat="49.273162" lon="-123.123273"/>
      <trkpt lat="49.273077" lon="-123.123141"/>
      <trkpt lat="49.272787" lon="-123.122687"/>
      <trkpt lat="49.272741" lon="-123.122613"/>
      <trkpt lat="49.272780" lon="-123.122552"/>
      <trkpt lat="49.272795" lon="-123.122528"/>
      <trkpt lat="49.272959" lon="-123.122272"/>
      <trkpt lat="49.273278" lon="-123.122457"/>
      <trkpt lat="49.273554" lon="-123.122624"/>
      <trkpt lat="49.273580" lon="-123.122638"/>
      <trkpt lat="49.273633" lon="-123.122667"/>
      <trkpt lat="49.273938" lon="-123.121510"/>
      <trkpt lat="49.273948" lon="-123.121469"/>
      <trkpt lat="49.273973" lon="-123.121379"/>
      <trkpt lat="49.274007" lon="-123.121252"/>
      <trkpt lat="49.274035" lon="-123.121152"/>
      <trkpt lat="49.274296" lon="-123.120167"/>
      <trkpt lat="49.274334" lon="-123.120021"/>
      <trkpt lat="49.274360" lon="-123.119914"/>
      <trkpt lat="49.274386" lon="-123.119798"/>
      <trkpt lat="49.274401" lon="-123.119718"/>
      <trkpt lat="49.274424" lon="-123.119581"/>
      <trkpt lat="49.274444" lon="-123.119439"/>
      <trkpt lat="49.274448" lon="-123.119390"/>
      <trkpt lat="49.274456" lon="-123.119283"/>
      <trkpt lat="49.274460" lon="-123.119138"/>
      <trkpt lat="49.274588" lon="-123.119155"/>
      <trkpt lat="49.274688" lon="-123.119166"/>
      <trkpt lat="49.274724" lon="-123.119158"/>
      <trkpt lat="49.274798" lon="-123.119117"/>
      <trkpt lat="49.274864" lon="-123.119066"/>
      <trkpt lat="49.275630" lon="-123.118460"/>
      <trkpt lat="49.275778" lon="-123.118337"/>
      <trkpt lat="49.275909" lon="-123.118229"/>
      <trkpt lat="49.275962" lon="-123.118178"/>
      <trkpt lat="49.275988" lon="-123.118152"/>
      <trkpt lat="49.276019" lon="-123.118124"/>
      <trkpt lat="49.276110" lon="-123.118113"/>
      <trkpt lat="49.276158" lon="-123.118040"/>
      <trkpt lat="49.276180" lon="-123.118007"/>
      <trkpt lat="49.276391" lon="-123.117690"/>
      <trkpt lat="49.276687" lon="-123.117247"/>
      <trkpt lat="49.277073" lon="-123.116667"/>
      <trkpt lat="49.277094" lon="-123.116635"/>
      <trkpt lat="49.277150" lon="-123.116551"/>
      <trkpt lat="49.277201" lon="-123.116631"/>
      <trkpt lat="49.277221" lon="-123.116662"/>
      <trkpt lat="49.277481" lon="-123.117052"/>
      <trkpt lat="49.277665" lon="-123.117324"/>
      <trkpt lat="49.277700" lon="-123.117376"/>
      <trkpt lat="49.277764" lon="-123.117485"/>
      <trkpt lat="49.277822" lon="-123.117570"/>
      <trkpt lat="49.278104" lon="-123.118020"/>
      <trkpt lat="49.278182" lon="-123.118146"/>
      <trkpt lat="49.278325" lon="-123.118375"/>
      <trkpt lat="49.278359" lon="-123.118429"/>
      <trkpt lat="49.278418" lon="-123.118518"/>
      <trkpt lat="49.278466" lon="-123.118594"/>
      <trkpt lat="49.278722" lon="-123.119000"/>
      <trkpt lat="49.278967" lon="-123.119387"/>
      <trkpt lat="49.278979" lon="-123.119406"/>
      <trkpt lat="49.279012" lon="-123.119457"/>
      <trkpt lat="49.279058" lon="-123.119527"/>
      <trkpt lat="49.279091" lon="-123.119575"/>
      <trkpt lat="49.279345" lon="-123.119961"/>
      <trkpt lat="49.279586" lon="-123.120338"/>
      <trkpt lat="49.279611" lon="-123.120378"/>
      <trkpt lat="49.279655" lon="-123.120447"/>
      <trkpt lat="49.279720" lon="-123.120546"/>
      <trkpt lat="49.279976" lon="-123.120942"/>
      <trkpt lat="49.280227" lon="-123.121328"/>
      <trkpt lat="49.280247" lon="-123.121358"/>
      <trkpt lat="49.280303" lon="-123.121445"/>
      <trkpt lat="49.280367" lon="-123.121543"/>
      <trkpt lat="49.280633" lon="-123.121955"/>
      <trkpt lat="49.280706" lon="-123.122068"/>
      <trkpt lat="49.280876" lon="-123.122331"/>
      <trkpt lat="49.280896" lon="-123.122362"/>
      <trkpt lat="49.280948" lon="-123.122442"/>
      <trkpt lat="49.281002" lon="-123.122526"/>
      <trkpt lat="49.281085" lon="-123.122660"/>
      <trkpt lat="49.281139" lon="-123.122749"/>
      <trkpt lat="49.281394" lon="-123.123143"/>
      <trkpt lat="49.281492" lon="-123.123294"/>
      <trkpt lat="49.281513" lon="-123.123323"/>
      <trkpt lat="49.281539" lon="-123.123357"/>
      <trkpt lat="49.281586" lon="-123.123412"/>
      <trkpt lat="49.281640" lon="-123.123496"/>
      <trkpt lat="49.281894" lon="-123.123885"/>
      <trkpt lat="49.281971" lon="-123.124006"/>
      <trkpt lat="49.282132" lon="-123.124261"/>
      <trkpt lat="49.282160" lon="-123.124302"/>
      <trkpt lat="49.282231" lon="-123.124411"/>
      <trkpt lat="49.282266" lon="-123.124359"/>
      <trkpt lat="49.282297" lon="-123.124311"/>
      <trkpt lat="49.282312" lon="-123.124289"/>
      <trkpt lat="49.282548" lon="-123.123932"/>
      <trkpt lat="49.282596" lon="-123.123860"/>
      <trkpt lat="49.282715" lon="-123.123680"/>
      <trkpt lat="49.282945" lon="-123.123342"/>
      <trkpt lat="49.283240" lon="-123.122898"/>
      <trkpt lat="49.283294" lon="-123.122807"/>
      <trkpt lat="49.283357" lon="-123.122713"/>
      <trkpt lat="49.283659" lon="-123.122264"/>
      <trkpt lat="49.283788" lon="-123.122063"/>
      <trkpt lat="49.284004" lon="-123.121737"/>
      <trkpt lat="49.284089" lon="-123.121870"/>
      <trkpt lat="49.284653" lon="-123.122739"/>
      <trkpt lat="49.284797" lon="-123.122960"/>
      <trkpt lat="49.284902" lon="-123.123126"/>
      <trkpt lat="49.285243" lon="-123.123660"/>
      <trkpt lat="49.285260" lon="-123.123685"/>
      <trkpt lat="49.285311" lon="-123.123767"/>
      <trkpt lat="49.285367" lon="-123.123853"/>
      <trkpt lat="49.285386" lon="-123.123883"/>
      <trkpt lat="49.286102" lon="-123.124983"/>
      <trkpt lat="49.286661" lon="-123.125837"/>
      <trkpt lat="49.286714" lon="-123.125918"/>
      <trkpt lat="49.286776" lon="-123.126013"/>
      <trkpt lat="49.287605" lon="-123.127297"/>
      <trkpt lat="49.287701" lon="-123.127446"/>
      <trkpt lat="49.287740" lon="-123.127505"/>
      <trkpt lat="49.287779" lon="-123.127565"/>
      <trkpt lat="49.288108" lon="-123.128070"/>
      <trkpt lat="49.288231" lon="-123.128260"/>
      <trkpt lat="49.288592" lon="-123.128816"/>
      <trkpt lat="49.288628" lon="-123.128877"/>
      <trkpt lat="49.288671" lon="-123.128944"/>
      <trkpt lat="49.289024" lon="-123.129488"/>
      <trkpt lat="49.289224" lon="-123.129796"/>
      <trkpt lat="49.289342" lon="-123.129978"/>
      <trkpt lat="49.289390" lon="-123.130052"/>
      <trkpt lat="49.289446" lon="-123.130137"/>
      <trkpt lat="49.289725" lon="-123.130574"/>
      <trkpt lat="49.290110" lon="-123.131177"/>
      <trkpt lat="49.290157" lon="-123.131249"/>
      <trkpt lat="49.290200" lon="-123.131315"/>
      <trkpt lat="49.291119" lon="-123.132728"/>
      <trkpt lat="49.291170" lon="-123.132805"/>
      <trkpt lat="49.291220" lon="-123.132878"/>
      <trkpt lat="49.291832" lon="-123.133817"/>
      <trkpt lat="49.291853" lon="-123.133850"/>
      <trkpt lat="49.291934" lon="-123.133975"/>
      <trkpt lat="49.291959" lon="-123.134014"/>
      <trkpt lat="49.292133" lon="-123.134285"/>
      <trkpt lat="49.292192" lon="-123.134379"/>
      <trkpt lat="49.292251" lon="-123.134466"/>
      <trkpt lat="49.292403" lon="-123.134701"/>
      <trkpt lat="49.292452" lon="-123.134777"/>
      <trkpt lat="49.292801" lon="-123.135319"/>
      <trkpt lat="49.292863" lon="-123.135414"/>
      <trkpt lat="49.292872" lon="-123.135429"/>
      <trkpt lat="49.293170" lon="-123.135892"/>
      <trkpt lat="49.293207" lon="-123.135950"/>
      <trkpt lat="49.293249" lon="-123.136020"/>
      <trkpt lat="49.293512" lon="-123.136421"/>
      <trkpt lat="49.293540" lon="-123.136464"/>
      <trkpt lat="49.293665" lon="-123.136655"/>
      <trkpt lat="49.293863" lon="-123.136958"/>
      <trkpt lat="49.293940" lon="-123.137077"/>
      <trkpt lat="49.293950" lon="-123.137092"/>
      <trkpt lat="49.293990" lon="-123.137153"/>
      <trkpt lat="49.294035" lon="-123.137086"/>
      <trkpt lat="49.294072" lon="-123.137031"/>
      <trkpt lat="49.294072" lon="-123.137031"/>
      <trkpt lat="49.294035" lon="-123.137086"/>
      <trkpt lat="49.293990" lon="-123.137153"/>
      <trkpt lat="49.293950" lon="-123.137092"/>
      <trkpt lat="49.293940" lon="-123.137077"/>
      <trkpt lat="49.293863" lon="-123.136958"/>
      <trkpt lat="49.293665" lon="-123.136655"/>
      <trkpt lat="49.293540" lon="-123.136464"/>
      <trkpt lat="49.293512" lon="-123.136421"/>
      <trkpt lat="49.293249" lon="-123.136020"/>
      <trkpt lat="49.293207" lon="-123.135950"/>
      <trkpt lat="49.293170" lon="-123.135892"/>
      <trkpt lat="49.292872" lon="-123.135429"/>
      <trkpt lat="49.292863" lon="-123.135414"/>
      <trkpt lat="49.292801" lon="-123.135319"/>
      <trkpt lat="49.292452" lon="-123.134777"/>
      <trkpt lat="49.292403" lon="-123.134701"/>
      <trkpt lat="49.292251" lon="-123.134466"/>
      <trkpt lat="49.292192" lon="-123.134379"/>
      <trkpt lat="49.292251" lon="-123.134291"/>
      <trkpt lat="49.292476" lon="-123.133926"/>
      <trkpt lat="49.292495" lon="-123.133895"/>
      <trkpt lat="49.292604" lon="-123.133737"/>
      <trkpt lat="49.292687" lon="-123.133864"/>
      <trkpt lat="49.292709" lon="-123.133899"/>
      <trkpt lat="49.293498" lon="-123.135135"/>
      <trkpt lat="49.293549" lon="-123.135216"/>
      <trkpt lat="49.293565" lon="-123.135240"/>
      <trkpt lat="49.293614" lon="-123.135317"/>
      <trkpt lat="49.293631" lon="-123.135344"/>
      <trkpt lat="49.293656" lon="-123.135382"/>
      <trkpt lat="49.293698" lon="-123.135449"/>
      <trkpt lat="49.293875" lon="-123.135726"/>
      <trkpt lat="49.293982" lon="-123.135761"/>
      <trkpt lat="49.294047" lon="-123.135852"/>
      <trkpt lat="49.294138" lon="-123.135919"/>
      <trkpt lat="49.294225" lon="-123.136038"/>
      <trkpt lat="49.294309" lon="-123.136157"/>
      <trkpt lat="49.294400" lon="-123.136286"/>
      <trkpt lat="49.294436" lon="-123.136338"/>
      <trkpt lat="49.294475" lon="-123.136393"/>
      <trkpt lat="49.294507" lon="-123.136436"/>
      <trkpt lat="49.294540" lon="-123.136475"/>
      <trkpt lat="49.294578" lon="-123.136515"/>
      <trkpt lat="49.294619" lon="-123.136552"/>
      <trkpt lat="49.294654" lon="-123.136578"/>
      <trkpt lat="49.294698" lon="-123.136606"/>
      <trkpt lat="49.294728" lon="-123.136622"/>
      <trkpt lat="49.294758" lon="-123.136636"/>
      <trkpt lat="49.294791" lon="-123.136648"/>
      <trkpt lat="49.294826" lon="-123.136659"/>
      <trkpt lat="49.294859" lon="-123.136666"/>
      <trkpt lat="49.294892" lon="-123.136671"/>
      <trkpt lat="49.294932" lon="-123.136674"/>
      <trkpt lat="49.294968" lon="-123.136674"/>
      <trkpt lat="49.295005" lon="-123.136672"/>
      <trkpt lat="49.295040" lon="-123.136667"/>
      <trkpt lat="49.295075" lon="-123.136659"/>
      <trkpt lat="49.295110" lon="-123.136649"/>
      <trkpt lat="49.295171" lon="-123.136626"/>
      <trkpt lat="49.295233" lon="-123.136595"/>
      <trkpt lat="49.295283" lon="-123.136566"/>
      <trkpt lat="49.295909" lon="-123.136201"/>
      <trkpt lat="49.295997" lon="-123.136151"/>
      <trkpt lat="49.296053" lon="-123.136123"/>
      <trkpt lat="49.296113" lon="-123.136098"/>
      <trkpt lat="49.296165" lon="-123.136083"/>
      <trkpt lat="49.296218" lon="-123.136070"/>
      <trkpt lat="49.296275" lon="-123.136061"/>
      <trkpt lat="49.296326" lon="-123.136055"/>
      <trkpt lat="49.296388" lon="-123.136051"/>
      <trkpt lat="49.296458" lon="-123.136053"/>
      <trkpt lat="49.296539" lon="-123.136063"/>
      <trkpt lat="49.296602" lon="-123.136077"/>
      <trkpt lat="49.296682" lon="-123.136101"/>
      <trkpt lat="49.296952" lon="-123.136179"/>
      <trkpt lat="49.297020" lon="-123.136192"/>
      <trkpt lat="49.297069" lon="-123.136200"/>
      <trkpt lat="49.297136" lon="-123.136202"/>
      <trkpt lat="49.297187" lon="-123.136194"/>
      <trkpt lat="49.297235" lon="-123.136180"/>
      <trkpt lat="49.297273" lon="-123.136156"/>
      <trkpt lat="49.297300" lon="-123.136128"/>
      <trkpt lat="49.297331" lon="-123.136085"/>
      <trkpt lat="49.297359" lon="-123.136036"/>
      <trkpt lat="49.297366" lon="-123.136001"/>
      <trkpt lat="49.297377" lon="-123.135971"/>
      <trkpt lat="49.297392" lon="-123.135944"/>
      <trkpt lat="49.297411" lon="-123.135922"/>
      <trkpt lat="49.297432" lon="-123.135907"/>
      <trkpt lat="49.297454" lon="-123.135898"/>
      <trkpt lat="49.297477" lon="-123.135896"/>
      <trkpt lat="49.297500" lon="-123.135902"/>
      <trkpt lat="49.297522" lon="-123.135915"/>
      <trkpt lat="49.297542" lon="-123.135934"/>
      <trkpt lat="49.297555" lon="-123.135954"/>
      <trkpt lat="49.297567" lon="-123.135977"/>
      <trkpt lat="49.297575" lon="-123.136002"/>
      <trkpt lat="49.297582" lon="-123.136031"/>
      <trkpt lat="49.297584" lon="-123.136060"/>
      <trkpt lat="49.297584" lon="-123.136089"/>
      <trkpt lat="49.297581" lon="-123.136116"/>
      <trkpt lat="49.297574" lon="-123.136144"/>
      <trkpt lat="49.297563" lon="-123.136173"/>
      <trkpt lat="49.297549" lon="-123.136197"/>
      <trkpt lat="49.297531" lon="-123.136218"/>
      <trkpt lat="49.297512" lon="-123.136233"/>
      <trkpt lat="49.297476" lon="-123.136326"/>
      <trkpt lat="49.297430" lon="-123.136420"/>
      <trkpt lat="49.297339" lon="-123.136547"/>
      <trkpt lat="49.297261" lon="-123.136729"/>
      <trkpt lat="49.297199" lon="-123.136841"/>
      <trkpt lat="49.297180" lon="-123.136875"/>
      <trkpt lat="49.297146" lon="-123.136946"/>
      <trkpt lat="49.297054" lon="-123.136959"/>
      <trkpt lat="49.296983" lon="-123.136950"/>
      <trkpt lat="49.296932" lon="-123.136927"/>
      <trkpt lat="49.296885" lon="-123.136887"/>
      <trkpt lat="49.296705" lon="-123.136708"/>
      <trkpt lat="49.296656" lon="-123.136662"/>
      <trkpt lat="49.296608" lon="-123.136621"/>
      <trkpt lat="49.296553" lon="-123.136580"/>
      <trkpt lat="49.296489" lon="-123.136538"/>
      <trkpt lat="49.296432" lon="-123.136503"/>
      <trkpt lat="49.296378" lon="-123.136476"/>
      <trkpt lat="49.296327" lon="-123.136456"/>
      <trkpt lat="49.296254" lon="-123.136438"/>
      <trkpt lat="49.296184" lon="-123.136433"/>
      <trkpt lat="49.296104" lon="-123.136437"/>
      <trkpt lat="49.295873" lon="-123.136475"/>
      <trkpt lat="49.295317" lon="-123.136802"/>
      <trkpt lat="49.295278" lon="-123.136823"/>
      <trkpt lat="49.295240" lon="-123.136843"/>
      <trkpt lat="49.295202" lon="-123.136861"/>
      <trkpt lat="49.295163" lon="-123.136875"/>
      <trkpt lat="49.295125" lon="-123.136885"/>
      <trkpt lat="49.295087" lon="-123.136895"/>
      <trkpt lat="49.295046" lon="-123.136902"/>
      <trkpt lat="49.295006" lon="-123.136908"/>
      <trkpt lat="49.294965" lon="-123.136908"/>
      <trkpt lat="49.294927" lon="-123.136909"/>
      <trkpt lat="49.294888" lon="-123.136906"/>
      <trkpt lat="49.294850" lon="-123.136901"/>
      <trkpt lat="49.294811" lon="-123.136893"/>
      <trkpt lat="49.294770" lon="-123.136882"/>
      <trkpt lat="49.294732" lon="-123.136869"/>
      <trkpt lat="49.294694" lon="-123.136854"/>
      <trkpt lat="49.294657" lon="-123.136837"/>
      <trkpt lat="49.294619" lon="-123.136816"/>
      <trkpt lat="49.294582" lon="-123.136791"/>
      <trkpt lat="49.294566" lon="-123.136780"/>
      <trkpt lat="49.294532" lon="-123.136753"/>
      <trkpt lat="49.294497" lon="-123.136722"/>
      <trkpt lat="49.294463" lon="-123.136690"/>
      <trkpt lat="49.294430" lon="-123.136655"/>
      <trkpt lat="49.294399" lon="-123.136619"/>
      <trkpt lat="49.294366" lon="-123.136576"/>
      <trkpt lat="49.294338" lon="-123.136537"/>
      <trkpt lat="49.294311" lon="-123.136496"/>
      <trkpt lat="49.293925" lon="-123.135904"/>
      <trkpt lat="49.293875" lon="-123.135726"/>
      <trkpt lat="49.293698" lon="-123.135449"/>
      <trkpt lat="49.293656" lon="-123.135382"/>
      <trkpt lat="49.293631" lon="-123.135344"/>
      <trkpt lat="49.293565" lon="-123.135240"/>
      <trkpt lat="49.293549" lon="-123.135216"/>
      <trkpt lat="49.293498" lon="-123.135135"/>
      <trkpt lat="49.292709" lon="-123.133899"/>
      <trkpt lat="49.292687" lon="-123.133864"/>
      <trkpt lat="49.292604" lon="-123.133737"/>
      <trkpt lat="49.292539" lon="-123.133635"/>
      <trkpt lat="49.292526" lon="-123.133616"/>
      <trkpt lat="49.291595" lon="-123.132175"/>
      <trkpt lat="49.290644" lon="-123.130720"/>
      <trkpt lat="49.290625" lon="-123.130690"/>
      <trkpt lat="49.290571" lon="-123.130603"/>
      <trkpt lat="49.290522" lon="-123.130524"/>
      <trkpt lat="49.290499" lon="-123.130491"/>
      <trkpt lat="49.290430" lon="-123.130389"/>
      <trkpt lat="49.290266" lon="-123.130144"/>
      <trkpt lat="49.290187" lon="-123.129702"/>
      <trkpt lat="49.290157" lon="-123.129555"/>
      <trkpt lat="49.290170" lon="-123.129453"/>
      <trkpt lat="49.290075" lon="-123.129134"/>
      <trkpt lat="49.290049" lon="-123.129045"/>
      <trkpt lat="49.290027" lon="-123.128970"/>
      <trkpt lat="49.289633" lon="-123.127615"/>
      <trkpt lat="49.289617" lon="-123.127558"/>
      <trkpt lat="49.289580" lon="-123.127435"/>
      <trkpt lat="49.289545" lon="-123.127318"/>
      <trkpt lat="49.289525" lon="-123.127250"/>
      <trkpt lat="49.289301" lon="-123.126493"/>
      <trkpt lat="49.289233" lon="-123.126266"/>
      <trkpt lat="49.289058" lon="-123.125674"/>
      <trkpt lat="49.289024" lon="-123.125558"/>
      <trkpt lat="49.288986" lon="-123.125427"/>
      <trkpt lat="49.288438" lon="-123.123524"/>
      <trkpt lat="49.288402" lon="-123.123399"/>
      <trkpt lat="49.288364" lon="-123.123267"/>
      <trkpt lat="49.287562" lon="-123.120538"/>
      <trkpt lat="49.287530" lon="-123.120418"/>
      <trkpt lat="49.287500" lon="-123.120301"/>
      <trkpt lat="49.287412" lon="-123.120021"/>
      <trkpt lat="49.287321" lon="-123.119713"/>
      <trkpt lat="49.287226" lon="-123.119393"/>
      <trkpt lat="49.287124" lon="-123.119056"/>
      <trkpt lat="49.287035" lon="-123.118760"/>
      <trkpt lat="49.286986" lon="-123.118580"/>
      <trkpt lat="49.286887" lon="-123.118281"/>
      <trkpt lat="49.286675" lon="-123.117969"/>
      <trkpt lat="49.286589" lon="-123.117839"/>
      <trkpt lat="49.286527" lon="-123.117931"/>
      <trkpt lat="49.286270" lon="-123.118319"/>
      <trkpt lat="49.285640" lon="-123.119278"/>
      <trkpt lat="49.285611" lon="-123.119323"/>
      <trkpt lat="49.285556" lon="-123.119413"/>
      <trkpt lat="49.285640" lon="-123.119541"/>
      <trkpt lat="49.285759" lon="-123.119735"/>
      <trkpt lat="49.285807" lon="-123.119823"/>
      <trkpt lat="49.285861" lon="-123.119931"/>
      <trkpt lat="49.285900" lon="-123.120039"/>
      <trkpt lat="49.285931" lon="-123.120156"/>
      <trkpt lat="49.285954" lon="-123.120277"/>
      <trkpt lat="49.285976" lon="-123.120396"/>
      <trkpt lat="49.286010" lon="-123.120637"/>
      <trkpt lat="49.286075" lon="-123.121157"/>
      <trkpt lat="49.286000" lon="-123.121188"/>
      <trkpt lat="49.285982" lon="-123.121190"/>
      <trkpt lat="49.285952" lon="-123.121190"/>
      <trkpt lat="49.285921" lon="-123.121179"/>
      <trkpt lat="49.285893" lon="-123.121159"/>
      <trkpt lat="49.285872" lon="-123.121140"/>
      <trkpt lat="49.285838" lon="-123.121099"/>
      <trkpt lat="49.285703" lon="-123.120890"/>
      <trkpt lat="49.285605" lon="-123.120738"/>
      <trkpt lat="49.285557" lon="-123.120665"/>
      <trkpt lat="49.285245" lon="-123.120183"/>
      <trkpt lat="49.285229" lon="-123.120158"/>
      <trkpt lat="49.285147" lon="-123.120026"/>
      <trkpt lat="49.284812" lon="-123.120526"/>
      <trkpt lat="49.284503" lon="-123.120990"/>
      <trkpt lat="49.284425" lon="-123.121103"/>
      <trkpt lat="49.284342" lon="-123.120975"/>
      <trkpt lat="49.284079" lon="-123.120573"/>
      <trkpt lat="49.283843" lon="-123.120211"/>
      <trkpt lat="49.283828" lon="-123.120188"/>
      <trkpt lat="49.283778" lon="-123.120110"/>
      <trkpt lat="49.283738" lon="-123.120049"/>
      <trkpt lat="49.283715" lon="-123.120014"/>
      <trkpt lat="49.283696" lon="-123.119985"/>
      <trkpt lat="49.283446" lon="-123.119601"/>
      <trkpt lat="49.283222" lon="-123.119257"/>
      <trkpt lat="49.283195" lon="-123.119217"/>
      <trkpt lat="49.283139" lon="-123.119131"/>
      <trkpt lat="49.283087" lon="-123.119049"/>
      <trkpt lat="49.283069" lon="-123.119022"/>
      <trkpt lat="49.282540" lon="-123.118209"/>
      <trkpt lat="49.282493" lon="-123.118136"/>
      <trkpt lat="49.282439" lon="-123.118055"/>
      <trkpt lat="49.281937" lon="-123.117262"/>
      <trkpt lat="49.281915" lon="-123.117227"/>
      <trkpt lat="49.281856" lon="-123.117134"/>
      <trkpt lat="49.281802" lon="-123.117051"/>
      <trkpt lat="49.281775" lon="-123.117010"/>
      <trkpt lat="49.281543" lon="-123.116652"/>
      <trkpt lat="49.281315" lon="-123.116299"/>
      <trkpt lat="49.281291" lon="-123.116262"/>
      <trkpt lat="49.281253" lon="-123.116206"/>
      <trkpt lat="49.281198" lon="-123.116117"/>
      <trkpt lat="49.281171" lon="-123.116076"/>
      <trkpt lat="49.281146" lon="-123.116039"/>
      <trkpt lat="49.280986" lon="-123.115801"/>
      <trkpt lat="49.280916" lon="-123.115695"/>
      <trkpt lat="49.280666" lon="-123.115323"/>
      <trkpt lat="49.280650" lon="-123.115300"/>
      <trkpt lat="49.280580" lon="-123.115198"/>
      <trkpt lat="49.280542" lon="-123.115135"/>
      <trkpt lat="49.280526" lon="-123.115111"/>
      <trkpt lat="49.280030" lon="-123.114311"/>
      <trkpt lat="49.279973" lon="-123.114218"/>
      <trkpt lat="49.279921" lon="-123.114138"/>
      <trkpt lat="49.279525" lon="-123.113534"/>
      <trkpt lat="49.279424" lon="-123.113380"/>
      <trkpt lat="49.279408" lon="-123.113355"/>
      <trkpt lat="49.279342" lon="-123.113248"/>
      <trkpt lat="49.279294" lon="-123.113175"/>
      <trkpt lat="49.279067" lon="-123.112813"/>
      <trkpt lat="49.278809" lon="-123.112399"/>
      <trkpt lat="49.278790" lon="-123.112369"/>
      <trkpt lat="49.278765" lon="-123.112328"/>
      <trkpt lat="49.278736" lon="-123.112282"/>
      <trkpt lat="49.278694" lon="-123.112212"/>
      <trkpt lat="49.278669" lon="-123.112172"/>
      <trkpt lat="49.278611" lon="-123.112075"/>
      <trkpt lat="49.278553" lon="-123.111978"/>
      <trkpt lat="49.278451" lon="-123.111806"/>
      <trkpt lat="49.278429" lon="-123.111770"/>
      <trkpt lat="49.278385" lon="-123.111698"/>
      <trkpt lat="49.278339" lon="-123.111627"/>
      <trkpt lat="49.277983" lon="-123.110998"/>
      <trkpt lat="49.277812" lon="-123.110664"/>
      <trkpt lat="49.277729" lon="-123.110490"/>
      <trkpt lat="49.277586" lon="-123.110156"/>
      <trkpt lat="49.277548" lon="-123.110043"/>
      <trkpt lat="49.277495" lon="-123.109885"/>
      <trkpt lat="49.277477" lon="-123.109831"/>
      <trkpt lat="49.277415" lon="-123.109566"/>
      <trkpt lat="49.277317" lon="-123.109028"/>
      <trkpt lat="49.277270" lon="-123.108631"/>
      <trkpt lat="49.277243" lon="-123.108166"/>
      <trkpt lat="49.277216" lon="-123.107039"/>
      <trkpt lat="49.277167" lon="-123.104213"/>
      <trkpt lat="49.277151" lon="-123.103594"/>
      <trkpt lat="49.277170" lon="-123.103431"/>
      <trkpt lat="49.277093" lon="-123.099174"/>
      <trkpt lat="49.277078" lon="-123.098841"/>
      <trkpt lat="49.277056" lon="-123.098605"/>
      <trkpt lat="49.277021" lon="-123.098364"/>
      <trkpt lat="49.276971" lon="-123.098105"/>
      <trkpt lat="49.276803" lon="-123.097384"/>
      <trkpt lat="49.276726" lon="-123.096996"/>
      <trkpt lat="49.276700" lon="-123.096849"/>
      <trkpt lat="49.276694" lon="-123.096760"/>
      <trkpt lat="49.276680" lon="-123.096559"/>
      <trkpt lat="49.276677" lon="-123.096308"/>
      <trkpt lat="49.276671" lon="-123.096041"/>
      <trkpt lat="49.276667" lon="-123.095833"/>
      <trkpt lat="49.276693" lon="-123.095699"/>
      <trkpt lat="49.276690" lon="-123.095571"/>
      <trkpt lat="49.276662" lon="-123.093818"/>
      <trkpt lat="49.276662" lon="-123.093758"/>
      <trkpt lat="49.276660" lon="-123.093637"/>
      <trkpt lat="49.276658" lon="-123.093519"/>
      <trkpt lat="49.276658" lon="-123.093483"/>
      <trkpt lat="49.276626" lon="-123.091817"/>
      <trkpt lat="49.276624" lon="-123.091687"/>
      <trkpt lat="49.276622" lon="-123.091577"/>
      <trkpt lat="49.276588" lon="-123.089872"/>
      <trkpt lat="49.276588" lon="-123.089857"/>
      <trkpt lat="49.276586" lon="-123.089741"/>
      <trkpt lat="49.276584" lon="-123.089636"/>
      <trkpt lat="49.276584" lon="-123.089621"/>
      <trkpt lat="49.276570" lon="-123.088719"/>
      <trkpt lat="49.276544" lon="-123.087522"/>
      <trkpt lat="49.276543" lon="-123.087486"/>
      <trkpt lat="49.276540" lon="-123.087351"/>
      <trkpt lat="49.276538" lon="-123.087243"/>
      <trkpt lat="49.276538" lon="-123.087208"/>
      <trkpt lat="49.276503" lon="-123.085124"/>
      <trkpt lat="49.276500" lon="-123.084998"/>
      <trkpt lat="49.276499" lon="-123.084877"/>
      <trkpt lat="49.276496" lon="-123.084721"/>
      <trkpt lat="49.276514" lon="-123.084468"/>
      <trkpt lat="49.276538" lon="-123.084293"/>
      <trkpt lat="49.276571" lon="-123.084128"/>
      <trkpt lat="49.276610" lon="-123.083982"/>
      <trkpt lat="49.276656" lon="-123.083836"/>
      <trkpt lat="49.276708" lon="-123.083672"/>
      <trkpt lat="49.276743" lon="-123.083554"/>
      <trkpt lat="49.276773" lon="-123.083424"/>
      <trkpt lat="49.276796" lon="-123.083295"/>
      <trkpt lat="49.276823" lon="-123.083118"/>
      <trkpt lat="49.276835" lon="-123.082929"/>
      <trkpt lat="49.276836" lon="-123.082781"/>
      <trkpt lat="49.276836" lon="-123.082741"/>
      <trkpt lat="49.276835" lon="-123.082596"/>
      <trkpt lat="49.276834" lon="-123.082488"/>
      <trkpt lat="49.276834" lon="-123.082447"/>
      <trkpt lat="49.276821" lon="-123.081677"/>
      <trkpt lat="49.276817" lon="-123.081486"/>
      <trkpt lat="49.276816" lon="-123.081384"/>
      <trkpt lat="49.276815" lon="-123.081285"/>
      <trkpt lat="49.276807" lon="-123.080722"/>
      <trkpt lat="49.276813" lon="-123.080193"/>
      <trkpt lat="49.276812" lon="-123.079999"/>
      <trkpt lat="49.276802" lon="-123.079430"/>
      <trkpt lat="49.276801" lon="-123.079300"/>
      <trkpt lat="49.276789" lon="-123.078612"/>
      <trkpt lat="49.276778" lon="-123.078028"/>
      <trkpt lat="49.276767" lon="-123.077462"/>
      <trkpt lat="49.276766" lon="-123.077387"/>
      <trkpt lat="49.276765" lon="-123.077231"/>
      <trkpt lat="49.276762" lon="-123.077065"/>
      <trkpt lat="49.276761" lon="-123.077011"/>
      <trkpt lat="49.276743" lon="-123.075823"/>
      <trkpt lat="49.276726" lon="-123.074590"/>
      <trkpt lat="49.276724" lon="-123.074426"/>
      <trkpt lat="49.276723" lon="-123.074321"/>
      <trkpt lat="49.276722" lon="-123.074211"/>
      <trkpt lat="49.276721" lon="-123.074126"/>
      <trkpt lat="49.276711" lon="-123.073371"/>
      <trkpt lat="49.276705" lon="-123.072780"/>
      <trkpt lat="49.276704" lon="-123.072676"/>
      <trkpt lat="49.276689" lon="-123.071447"/>
      <trkpt lat="49.276678" lon="-123.070502"/>
      <trkpt lat="49.276671" lon="-123.069929"/>
      <trkpt lat="49.276669" lon="-123.069687"/>
      <trkpt lat="49.276668" lon="-123.069640"/>
      <trkpt lat="49.276666" lon="-123.069504"/>
      <trkpt lat="49.276665" lon="-123.069373"/>
      <trkpt lat="49.276665" lon="-123.069335"/>
      <trkpt lat="49.276658" lon="-123.068873"/>
      <trkpt lat="49.276647" lon="-123.068372"/>
      <trkpt lat="49.276729" lon="-123.068371"/>
      <trkpt lat="49.276751" lon="-123.068371"/>
      <trkpt lat="49.277096" lon="-123.068366"/>
      <trkpt lat="49.277096" lon="-123.068366"/>
      <trkpt lat="49.277096" lon="-123.068427"/>
      <trkpt lat="49.277109" lon="-123.069455"/>
      <trkpt lat="49.277109" lon="-123.069597"/>
      <trkpt lat="49.277196" lon="-123.069605"/>
      <trkpt lat="49.277260" lon="-123.069646"/>
      <trkpt lat="49.277371" lon="-123.069754"/>
      <trkpt lat="49.277471" lon="-123.069884"/>
      <trkpt lat="49.277509" lon="-123.069936"/>
      <trkpt lat="49.277572" lon="-123.070020"/>
      <trkpt lat="49.277632" lon="-123.070105"/>
      <trkpt lat="49.277753" lon="-123.070220"/>
      <trkpt lat="49.277869" lon="-123.070307"/>
      <trkpt lat="49.277956" lon="-123.070350"/>
      <trkpt lat="49.278031" lon="-123.070446"/>
      <trkpt lat="49.278121" lon="-123.070461"/>
      <trkpt lat="49.278224" lon="-123.070471"/>
      <trkpt lat="49.278417" lon="-123.070466"/>
      <trkpt lat="49.278477" lon="-123.070462"/>
      <trkpt lat="49.278548" lon="-123.070461"/>
      <trkpt lat="49.278927" lon="-123.070452"/>
      <trkpt lat="49.279065" lon="-123.070450"/>
      <trkpt lat="49.279310" lon="-123.070445"/>
      <trkpt lat="49.279391" lon="-123.070444"/>
      <trkpt lat="49.279834" lon="-123.070433"/>
      <trkpt lat="49.279893" lon="-123.070383"/>
      <trkpt lat="49.280291" lon="-123.070359"/>
      <trkpt lat="49.280743" lon="-123.070363"/>
      <trkpt lat="49.281086" lon="-123.070350"/>
      <trkpt lat="49.281113" lon="-123.070347"/>
      <trkpt lat="49.281183" lon="-123.070345"/>
      <trkpt lat="49.281298" lon="-123.070337"/>
      <trkpt lat="49.281362" lon="-123.070334"/>
      <trkpt lat="49.281736" lon="-123.070326"/>
      <trkpt lat="49.282184" lon="-123.070326"/>
      <trkpt lat="49.282481" lon="-123.070343"/>
      <trkpt lat="49.282636" lon="-123.070374"/>
      <trkpt lat="49.283095" lon="-123.070364"/>
      <trkpt lat="49.283491" lon="-123.070356"/>
      <trkpt lat="49.283750" lon="-123.070351"/>
      <trkpt lat="49.283781" lon="-123.070351"/>
      <trkpt lat="49.283871" lon="-123.070348"/>
      <trkpt lat="49.283894" lon="-123.070217"/>
      <trkpt lat="49.283901" lon="-123.070173"/>
      <trkpt lat="49.284139" lon="-123.068782"/>
      <trkpt lat="49.284236" lon="-123.068216"/>
      <trkpt lat="49.284311" lon="-123.067878"/>
      <trkpt lat="49.284417" lon="-123.067404"/>
      <trkpt lat="49.284656" lon="-123.066339"/>
      <trkpt lat="49.284782" lon="-123.065825"/>
      <trkpt lat="49.284801" lon="-123.065711"/>
      <trkpt lat="49.284812" lon="-123.065647"/>
      <trkpt lat="49.284825" lon="-123.065524"/>
      <trkpt lat="49.284834" lon="-123.065402"/>
      <trkpt lat="49.284837" lon="-123.065361"/>
      <trkpt lat="49.284842" lon="-123.065275"/>
      <trkpt lat="49.284844" lon="-123.065136"/>
      <trkpt lat="49.284836" lon="-123.064567"/>
      <trkpt lat="49.284836" lon="-123.064446"/>
      <trkpt lat="49.284835" lon="-123.064242"/>
      <trkpt lat="49.284834" lon="-123.064118"/>
      <trkpt lat="49.284834" lon="-123.063644"/>
      <trkpt lat="49.284833" lon="-123.063586"/>
      <trkpt lat="49.284827" lon="-123.062717"/>
      <trkpt lat="49.284826" lon="-123.062088"/>
      <trkpt lat="49.284826" lon="-123.061799"/>
      <trkpt lat="49.284826" lon="-123.061761"/>
      <trkpt lat="49.284825" lon="-123.061640"/>
      <trkpt lat="49.284824" lon="-123.061546"/>
      <trkpt lat="49.284824" lon="-123.061504"/>
      <trkpt lat="49.284816" lon="-123.059885"/>
      <trkpt lat="49.284816" lon="-123.059839"/>
      <trkpt lat="49.284815" lon="-123.059711"/>
      <trkpt lat="49.284814" lon="-123.059582"/>
      <trkpt lat="49.284814" lon="-123.059545"/>
      <trkpt lat="49.284796" lon="-123.057772"/>
      <trkpt lat="49.284794" lon="-123.056719"/>
      <trkpt lat="49.284794" lon="-123.056538"/>
      <trkpt lat="49.284792" lon="-123.056371"/>
      <trkpt lat="49.284789" lon="-123.056187"/>
      <trkpt lat="49.284791" lon="-123.055810"/>
      <trkpt lat="49.284794" lon="-123.054912"/>
      <trkpt lat="49.284763" lon="-123.054843"/>
      <trkpt lat="49.284758" lon="-123.054707"/>
      <trkpt lat="49.284758" lon="-123.054594"/>
      <trkpt lat="49.284828" lon="-123.054594"/>
      <trkpt lat="49.284864" lon="-123.054592"/>
      <trkpt lat="49.284882" lon="-123.054591"/>
      <trkpt lat="49.285248" lon="-123.054591"/>
      <trkpt lat="49.285635" lon="-123.054589"/>
      <trkpt lat="49.285699" lon="-123.054589"/>
      <trkpt lat="49.285699" lon="-123.054485"/>
      <trkpt lat="49.285699" lon="-123.054468"/>
      <trkpt lat="49.285696" lon="-123.053265"/>
      <trkpt lat="49.285693" lon="-123.052075"/>
      <trkpt lat="49.285693" lon="-123.051972"/>
      <trkpt lat="49.285633" lon="-123.051972"/>
      <trkpt lat="49.285612" lon="-123.051972"/>
      <trkpt lat="49.285243" lon="-123.051971"/>
      <trkpt lat="49.284873" lon="-123.051968"/>
      <trkpt lat="49.284861" lon="-123.051968"/>
      <trkpt lat="49.284822" lon="-123.051967"/>
      <trkpt lat="49.284757" lon="-123.051968"/>
      <trkpt lat="49.284755" lon="-123.051856"/>
      <trkpt lat="49.284760" lon="-123.051730"/>
      <trkpt lat="49.284794" lon="-123.051633"/>
      <trkpt lat="49.284790" lon="-123.049449"/>
      <trkpt lat="49.284789" lon="-123.049341"/>
      <trkpt lat="49.284789" lon="-123.049230"/>
      <trkpt lat="49.284788" lon="-123.046974"/>
      <trkpt lat="49.284753" lon="-123.046893"/>
      <trkpt lat="49.284749" lon="-123.046817"/>
      <trkpt lat="49.284747" lon="-123.046710"/>
      <trkpt lat="49.284750" lon="-123.046599"/>
      <trkpt lat="49.284755" lon="-123.046504"/>
      <trkpt lat="49.284782" lon="-123.046436"/>
      <trkpt lat="49.284779" lon="-123.044860"/>
      <trkpt lat="49.284777" lon="-123.044290"/>
      <trkpt lat="49.284777" lon="-123.044256"/>
      <trkpt lat="49.284777" lon="-123.044084"/>
      <trkpt lat="49.284692" lon="-123.044083"/>
      <trkpt lat="49.284659" lon="-123.044082"/>
      <trkpt lat="49.283886" lon="-123.044084"/>
      <trkpt lat="49.283069" lon="-123.044084"/>
      <trkpt lat="49.283039" lon="-123.044084"/>
      <trkpt lat="49.282990" lon="-123.044085"/>
      <trkpt lat="49.282901" lon="-123.044085"/>
      <trkpt lat="49.282872" lon="-123.044084"/>
      <trkpt lat="49.282829" lon="-123.044084"/>
      <trkpt lat="49.282065" lon="-123.044086"/>
      <trkpt lat="49.281548" lon="-123.044087"/>
      <trkpt lat="49.281253" lon="-123.044084"/>
      <trkpt lat="49.281133" lon="-123.044085"/>
      <trkpt lat="49.281005" lon="-123.044087"/>
      <trkpt lat="49.280917" lon="-123.044088"/>
      <trkpt lat="49.280706" lon="-123.044087"/>
      <trkpt lat="49.280546" lon="-123.044082"/>
      <trkpt lat="49.280217" lon="-123.044075"/>
      <trkpt lat="49.279628" lon="-123.044089"/>
      <trkpt lat="49.279187" lon="-123.044086"/>
      <trkpt lat="49.279167" lon="-123.044086"/>
      <trkpt lat="49.279090" lon="-123.044086"/>
      <trkpt lat="49.279006" lon="-123.044086"/>
      <trkpt lat="49.278982" lon="-123.044086"/>
      <trkpt lat="49.278678" lon="-123.044086"/>
      <trkpt lat="49.278273" lon="-123.044096"/>
      <trkpt lat="49.277858" lon="-123.044100"/>
      <trkpt lat="49.277719" lon="-123.044149"/>
      <trkpt lat="49.277623" lon="-123.044150"/>
      <trkpt lat="49.277551" lon="-123.044150"/>
      <trkpt lat="49.277524" lon="-123.044150"/>
      <trkpt lat="49.277474" lon="-123.044149"/>
      <trkpt lat="49.277437" lon="-123.044150"/>
      <trkpt lat="49.277390" lon="-123.044150"/>
      <trkpt lat="49.277198" lon="-123.044152"/>
      <trkpt lat="49.277045" lon="-123.044107"/>
      <trkpt lat="49.276708" lon="-123.044109"/>
      <trkpt lat="49.276626" lon="-123.044113"/>
      <trkpt lat="49.276537" lon="-123.044114"/>
      <trkpt lat="49.276425" lon="-123.044116"/>
      <trkpt lat="49.276356" lon="-123.044117"/>
      <trkpt lat="49.276323" lon="-123.044118"/>
      <trkpt lat="49.275389" lon="-123.044135"/>
      <trkpt lat="49.274208" lon="-123.044137"/>
      <trkpt lat="49.273743" lon="-123.044144"/>
      <trkpt lat="49.273377" lon="-123.044155"/>
      <trkpt lat="49.273267" lon="-123.044158"/>
      <trkpt lat="49.273153" lon="-123.044160"/>
      <trkpt lat="49.272756" lon="-123.044166"/>
      <trkpt lat="49.272369" lon="-123.044185"/>
      <trkpt lat="49.272356" lon="-123.044186"/>
      <trkpt lat="49.272291" lon="-123.044188"/>
      <trkpt lat="49.272225" lon="-123.044190"/>
      <trkpt lat="49.272199" lon="-123.044189"/>
      <trkpt lat="49.271820" lon="-123.044190"/>
      <trkpt lat="49.271365" lon="-123.044187"/>
      <trkpt lat="49.270897" lon="-123.044210"/>
      <trkpt lat="49.270720" lon="-123.044262"/>
      <trkpt lat="49.270427" lon="-123.044291"/>
      <trkpt lat="49.270123" lon="-123.044290"/>
      <trkpt lat="49.269660" lon="-123.044290"/>
      <trkpt lat="49.269638" lon="-123.044291"/>
      <trkpt lat="49.269577" lon="-123.044294"/>
      <trkpt lat="49.269425" lon="-123.044302"/>
      <trkpt lat="49.269360" lon="-123.044307"/>
      <trkpt lat="49.268503" lon="-123.044320"/>
      <trkpt lat="49.268503" lon="-123.044179"/>
      <trkpt lat="49.268503" lon="-123.044063"/>
      <trkpt lat="49.268503" lon="-123.044032"/>
      <trkpt lat="49.268501" lon="-123.043493"/>
      <trkpt lat="49.268494" lon="-123.041617"/>
      <trkpt lat="49.268494" lon="-123.041510"/>
      <trkpt lat="49.268493" lon="-123.041418"/>
      <trkpt lat="49.268489" lon="-123.040235"/>
      <trkpt lat="49.268486" lon="-123.039121"/>
      <trkpt lat="49.268485" lon="-123.039061"/>
      <trkpt lat="49.268485" lon="-123.038986"/>
      <trkpt lat="49.268418" lon="-123.038987"/>
      <trkpt lat="49.268030" lon="-123.038995"/>
      <trkpt lat="49.267648" lon="-123.038999"/>
      <trkpt lat="49.267636" lon="-123.039000"/>
      <trkpt lat="49.267567" lon="-123.039002"/>
      <trkpt lat="49.267503" lon="-123.039004"/>
      <trkpt lat="49.267482" lon="-123.039005"/>
      <trkpt lat="49.267115" lon="-123.039008"/>
      <trkpt lat="49.266727" lon="-123.039012"/>
      <trkpt lat="49.266654" lon="-123.039013"/>
      <trkpt lat="49.266592" lon="-123.039014"/>
      <trkpt lat="49.266200" lon="-123.039017"/>
      <trkpt lat="49.265782" lon="-123.039021"/>
      <trkpt lat="49.265769" lon="-123.039022"/>
      <trkpt lat="49.265693" lon="-123.039022"/>
      <trkpt lat="49.265624" lon="-123.039023"/>
      <trkpt lat="49.265611" lon="-123.039023"/>
      <trkpt lat="49.265200" lon="-123.039027"/>
      <trkpt lat="49.264815" lon="-123.039031"/>
      <trkpt lat="49.264746" lon="-123.039032"/>
      <trkpt lat="49.264680" lon="-123.039033"/>
      <trkpt lat="49.264297" lon="-123.039037"/>
      <trkpt lat="49.263933" lon="-123.039041"/>
      <trkpt lat="49.263912" lon="-123.039041"/>
      <trkpt lat="49.263841" lon="-123.039042"/>
      <trkpt lat="49.263842" lon="-123.039143"/>
      <trkpt lat="49.263842" lon="-123.039188"/>
      <trkpt lat="49.263845" lon="-123.040289"/>
      <trkpt lat="49.263849" lon="-123.041443"/>
      <trkpt lat="49.263849" lon="-123.041458"/>
      <trkpt lat="49.263849" lon="-123.041558"/>
      <trkpt lat="49.263850" lon="-123.041665"/>
      <trkpt lat="49.263850" lon="-123.041693"/>
      <trkpt lat="49.263863" lon="-123.043516"/>
      <trkpt lat="49.263862" lon="-123.044092"/>
      <trkpt lat="49.263862" lon="-123.044144"/>
      <trkpt lat="49.263862" lon="-123.044296"/>
      <trkpt lat="49.263526" lon="-123.044294"/>
      <trkpt lat="49.263341" lon="-123.044352"/>
      <trkpt lat="49.263027" lon="-123.044370"/>
      <trkpt lat="49.262953" lon="-123.044375"/>
      <trkpt lat="49.262894" lon="-123.044374"/>
      <trkpt lat="49.262557" lon="-123.044375"/>
      <trkpt lat="49.262376" lon="-123.044377"/>
      <trkpt lat="49.262115" lon="-123.044378"/>
      <trkpt lat="49.262092" lon="-123.044378"/>
      <trkpt lat="49.262017" lon="-123.044379"/>
      <trkpt lat="49.261894" lon="-123.044379"/>
      <trkpt lat="49.261835" lon="-123.044379"/>
      <trkpt lat="49.261321" lon="-123.044385"/>
      <trkpt lat="49.261042" lon="-123.044388"/>
      <trkpt lat="49.260916" lon="-123.044386"/>
      <trkpt lat="49.260678" lon="-123.044385"/>
      <trkpt lat="49.260395" lon="-123.044385"/>
      <trkpt lat="49.259740" lon="-123.044387"/>
      <trkpt lat="49.259394" lon="-123.044373"/>
      <trkpt lat="49.259317" lon="-123.044370"/>
      <trkpt lat="49.259290" lon="-123.044369"/>
      <trkpt lat="49.259209" lon="-123.044370"/>
      <trkpt lat="49.259140" lon="-123.044370"/>
      <trkpt lat="49.258883" lon="-123.044367"/>
      <trkpt lat="49.258846" lon="-123.044368"/>
      <trkpt lat="49.258558" lon="-123.044374"/>
      <trkpt lat="49.258471" lon="-123.044378"/>
      <trkpt lat="49.258320" lon="-123.044381"/>
      <trkpt lat="49.258298" lon="-123.044381"/>
      <trkpt lat="49.258219" lon="-123.044382"/>
      <trkpt lat="49.258122" lon="-123.044382"/>
      <trkpt lat="49.258044" lon="-123.044384"/>
      <trkpt lat="49.257816" lon="-123.044380"/>
      <trkpt lat="49.257221" lon="-123.044375"/>
      <trkpt lat="49.256816" lon="-123.044383"/>
      <trkpt lat="49.256393" lon="-123.044384"/>
      <trkpt lat="49.256319" lon="-123.044330"/>
      <trkpt lat="49.255481" lon="-123.044336"/>
      <trkpt lat="49.255411" lon="-123.044336"/>
      <trkpt lat="49.255347" lon="-123.044336"/>
      <trkpt lat="49.254493" lon="-123.044350"/>
      <trkpt lat="49.254471" lon="-123.044349"/>
      <trkpt lat="49.254411" lon="-123.044350"/>
      <trkpt lat="49.254330" lon="-123.044350"/>
      <trkpt lat="49.254299" lon="-123.044349"/>
      <trkpt lat="49.254029" lon="-123.044350"/>
      <trkpt lat="49.253191" lon="-123.044348"/>
      <trkpt lat="49.253118" lon="-123.044350"/>
      <trkpt lat="49.253059" lon="-123.044350"/>
      <trkpt lat="49.252414" lon="-123.044351"/>
      <trkpt lat="49.252346" lon="-123.044351"/>
      <trkpt lat="49.252287" lon="-123.044351"/>
      <trkpt lat="49.252106" lon="-123.044350"/>
      <trkpt lat="49.251582" lon="-123.044351"/>
      <trkpt lat="49.251511" lon="-123.044352"/>
      <trkpt lat="49.251445" lon="-123.044356"/>
      <trkpt lat="49.251154" lon="-123.044345"/>
      <trkpt lat="49.251036" lon="-123.044335"/>
      <trkpt lat="49.250915" lon="-123.044309"/>
      <trkpt lat="49.250867" lon="-123.044294"/>
      <trkpt lat="49.250771" lon="-123.044258"/>
      <trkpt lat="49.250742" lon="-123.044247"/>
      <trkpt lat="49.250633" lon="-123.044175"/>
      <trkpt lat="49.250676" lon="-123.044364"/>
      <trkpt lat="49.250679" lon="-123.044693"/>
      <trkpt lat="49.250682" lon="-123.044939"/>
      <trkpt lat="49.250684" lon="-123.045097"/>
      <trkpt lat="49.250694" lon="-123.047002"/>
      <trkpt lat="49.250695" lon="-123.047104"/>
      <trkpt lat="49.250695" lon="-123.047209"/>
      <trkpt lat="49.250708" lon="-123.049018"/>
      <trkpt lat="49.250700" lon="-123.049170"/>
      <trkpt lat="49.250699" lon="-123.049481"/>
      <trkpt lat="49.250700" lon="-123.049517"/>
      <trkpt lat="49.250701" lon="-123.049638"/>
      <trkpt lat="49.250704" lon="-123.049757"/>
      <trkpt lat="49.250709" lon="-123.050235"/>
      <trkpt lat="49.250708" lon="-123.052153"/>
      <trkpt lat="49.250708" lon="-123.052246"/>
      <trkpt lat="49.250624" lon="-123.052246"/>
      <trkpt lat="49.250623" lon="-123.052154"/>
      <trkpt lat="49.250620" lon="-123.050927"/>
      <trkpt lat="49.250618" lon="-123.049815"/>
      <trkpt lat="49.250618" lon="-123.049758"/>
      <trkpt lat="49.250618" lon="-123.049634"/>
      <trkpt lat="49.250617" lon="-123.049517"/>
      <trkpt lat="49.250616" lon="-123.048904"/>
      <trkpt lat="49.250601" lon="-123.047201"/>
      <trkpt lat="49.250600" lon="-123.047103"/>
      <trkpt lat="49.250599" lon="-123.046997"/>
      <trkpt lat="49.250593" lon="-123.046391"/>
      <trkpt lat="49.250581" lon="-123.044336"/>
      <trkpt lat="49.250579" lon="-123.044292"/>
      <trkpt lat="49.250633" lon="-123.044175"/>
      <trkpt lat="49.250629" lon="-123.044027"/>
      <trkpt lat="49.250628" lon="-123.043987"/>
      <trkpt lat="49.250625" lon="-123.043403"/>
      <trkpt lat="49.250624" lon="-123.043254"/>
      <trkpt lat="49.250621" lon="-123.042639"/>
      <trkpt lat="49.250616" lon="-123.041756"/>
      <trkpt lat="49.250616" lon="-123.041730"/>
      <trkpt lat="49.250614" lon="-123.041609"/>
      <trkpt lat="49.250613" lon="-123.041505"/>
      <trkpt lat="49.250612" lon="-123.041465"/>
      <trkpt lat="49.250609" lon="-123.041125"/>
      <trkpt lat="49.250608" lon="-123.040988"/>
      <trkpt lat="49.250608" lon="-123.040973"/>
      <trkpt lat="49.250613" lon="-123.039683"/>
      <trkpt lat="49.250608" lon="-123.039071"/>
      <trkpt lat="49.250603" lon="-123.038466"/>
      <trkpt lat="49.250603" lon="-123.037144"/>
      <trkpt lat="49.250603" lon="-123.036540"/>
      <trkpt lat="49.250606" lon="-123.034573"/>
      <trkpt lat="49.250603" lon="-123.034030"/>
      <trkpt lat="49.250603" lon="-123.033987"/>
      <trkpt lat="49.250603" lon="-123.033868"/>
      <trkpt lat="49.250602" lon="-123.033758"/>
      <trkpt lat="49.250694" lon="-123.033759"/>
      <trkpt lat="49.251272" lon="-123.033755"/>
      <trkpt lat="49.251910" lon="-123.033753"/>
      <trkpt lat="49.252253" lon="-123.033748"/>
      <trkpt lat="49.252324" lon="-123.033748"/>
      <trkpt lat="49.252396" lon="-123.033748"/>
      <trkpt lat="49.252746" lon="-123.033748"/>
      <trkpt lat="49.253092" lon="-123.033752"/>
      <trkpt lat="49.253162" lon="-123.033753"/>
      <trkpt lat="49.253232" lon="-123.033754"/>
      <trkpt lat="49.254768" lon="-123.033760"/>
      <trkpt lat="49.255990" lon="-123.033743"/>
      <trkpt lat="49.255998" lon="-123.033743"/>
      <trkpt lat="49.256407" lon="-123.033751"/>
      <trkpt lat="49.256408" lon="-123.033850"/>
      <trkpt lat="49.255574" lon="-123.033868"/>
      <trkpt lat="49.254751" lon="-123.033882"/>
      <trkpt lat="49.254768" lon="-123.033760"/>
      <trkpt lat="49.255179" lon="-123.033754"/>
      <trkpt lat="49.255998" lon="-123.033743"/>
      <trkpt lat="49.256407" lon="-123.033751"/>
      <trkpt lat="49.256408" lon="-123.033850"/>
      <trkpt lat="49.255574" lon="-123.033868"/>
      <trkpt lat="49.254751" lon="-123.033882"/>
      <trkpt lat="49.253996" lon="-123.033886"/>
      <trkpt lat="49.253232" lon="-123.033890"/>
      <trkpt lat="49.253165" lon="-123.033891"/>
      <trkpt lat="49.253162" lon="-123.033753"/>
      <trkpt lat="49.253232" lon="-123.033754"/>
      <trkpt lat="49.254365" lon="-123.033758"/>
      <trkpt lat="49.254768" lon="-123.033760"/>
      <trkpt lat="49.254751" lon="-123.033882"/>
      <trkpt lat="49.253996" lon="-123.033886"/>
      <trkpt lat="49.253232" lon="-123.033890"/>
      <trkpt lat="49.253165" lon="-123.033891"/>
      <trkpt lat="49.253092" lon="-123.033890"/>
      <trkpt lat="49.252397" lon="-123.033887"/>
      <trkpt lat="49.252324" lon="-123.033886"/>
      <trkpt lat="49.252254" lon="-123.033885"/>
      <trkpt lat="49.251486" lon="-123.033879"/>
      <trkpt lat="49.251082" lon="-123.033867"/>
      <trkpt lat="49.250824" lon="-123.033868"/>
      <trkpt lat="49.250719" lon="-123.033868"/>
      <trkpt lat="49.250693" lon="-123.033870"/>
      <trkpt lat="49.250603" lon="-123.033868"/>
      <trkpt lat="49.250506" lon="-123.033870"/>
      <trkpt lat="49.249665" lon="-123.033873"/>
      <trkpt lat="49.249349" lon="-123.033874"/>
      <trkpt lat="49.248770" lon="-123.033881"/>
      <trkpt lat="49.248769" lon="-123.033730"/>
      <trkpt lat="49.249218" lon="-123.033741"/>
      <trkpt lat="49.249664" lon="-123.033752"/>
      <trkpt lat="49.249665" lon="-123.033873"/>
      <trkpt lat="49.249349" lon="-123.033874"/>
      <trkpt lat="49.248770" lon="-123.033881"/>
      <trkpt lat="49.247881" lon="-123.033902"/>
      <trkpt lat="49.247103" lon="-123.033914"/>
      <trkpt lat="49.247102" lon="-123.033738"/>
      <trkpt lat="49.247881" lon="-123.033739"/>
      <trkpt lat="49.248324" lon="-123.033735"/>
      <trkpt lat="49.248769" lon="-123.033730"/>
      <trkpt lat="49.248770" lon="-123.033881"/>
      <trkpt lat="49.247881" lon="-123.033902"/>
      <trkpt lat="49.247103" lon="-123.033914"/>
      <trkpt lat="49.247102" lon="-123.033738"/>
      <trkpt lat="49.247489" lon="-123.033738"/>
      <trkpt lat="49.247881" lon="-123.033739"/>
      <trkpt lat="49.248769" lon="-123.033730"/>
      <trkpt lat="49.248770" lon="-123.033881"/>
      <trkpt lat="49.247881" lon="-123.033902"/>
      <trkpt lat="49.247103" lon="-123.033914"/>
      <trkpt lat="49.246361" lon="-123.033916"/>
      <trkpt lat="49.246334" lon="-123.033916"/>
      <trkpt lat="49.246264" lon="-123.033917"/>
      <trkpt lat="49.246264" lon="-123.033753"/>
      <trkpt lat="49.246334" lon="-123.033752"/>
      <trkpt lat="49.246682" lon="-123.033746"/>
      <trkpt lat="49.247102" lon="-123.033738"/>
      <trkpt lat="49.247103" lon="-123.033914"/>
      <trkpt lat="49.246361" lon="-123.033916"/>
      <trkpt lat="49.246334" lon="-123.033916"/>
      <trkpt lat="49.246264" lon="-123.033917"/>
      <trkpt lat="49.246202" lon="-123.033918"/>
      <trkpt lat="49.245442" lon="-123.033925"/>
      <trkpt lat="49.245370" lon="-123.033928"/>
      <trkpt lat="49.245304" lon="-123.033926"/>
      <trkpt lat="49.245108" lon="-123.033926"/>
      <trkpt lat="49.244954" lon="-123.033948"/>
      <trkpt lat="49.244804" lon="-123.033990"/>
      <trkpt lat="49.244626" lon="-123.034066"/>
      <trkpt lat="49.244605" lon="-123.034078"/>
      <trkpt lat="49.244524" lon="-123.034130"/>
      <trkpt lat="49.244427" lon="-123.034167"/>
      <trkpt lat="49.244409" lon="-123.034185"/>
      <trkpt lat="49.244165" lon="-123.034419"/>
      <trkpt lat="49.242569" lon="-123.035945"/>
      <trkpt lat="49.242548" lon="-123.035966"/>
      <trkpt lat="49.242479" lon="-123.036032"/>
      <trkpt lat="49.242435" lon="-123.035923"/>
      <trkpt lat="49.242421" lon="-123.035887"/>
      <trkpt lat="49.242195" lon="-123.035329"/>
      <trkpt lat="49.242049" lon="-123.034967"/>
      <trkpt lat="49.241994" lon="-123.034837"/>
      <trkpt lat="49.241891" lon="-123.034588"/>
      <trkpt lat="49.241791" lon="-123.034344"/>
      <trkpt lat="49.241241" lon="-123.032994"/>
      <trkpt lat="49.240836" lon="-123.032019"/>
      <trkpt lat="49.240295" lon="-123.030676"/>
      <trkpt lat="49.240125" lon="-123.030266"/>
      <trkpt lat="49.240107" lon="-123.030225"/>
      <trkpt lat="49.240065" lon="-123.030122"/>
      <trkpt lat="49.240000" lon="-123.030184"/>
      <trkpt lat="49.239979" lon="-123.030205"/>
      <trkpt lat="49.239293" lon="-123.030879"/>
      <trkpt lat="49.239269" lon="-123.030952"/>
      <trkpt lat="49.238987" lon="-123.031245"/>
      <trkpt lat="49.238905" lon="-123.031241"/>
      <trkpt lat="49.238821" lon="-123.031322"/>
      <trkpt lat="49.238631" lon="-123.031505"/>
      <trkpt lat="49.238585" lon="-123.031550"/>
      <trkpt lat="49.238535" lon="-123.031598"/>
      <trkpt lat="49.238474" lon="-123.031658"/>
      <trkpt lat="49.238451" lon="-123.031679"/>
      <trkpt lat="49.238334" lon="-123.031793"/>
      <trkpt lat="49.238318" lon="-123.031809"/>
      <trkpt lat="49.238254" lon="-123.031877"/>
      <trkpt lat="49.238184" lon="-123.031729"/>
      <trkpt lat="49.238171" lon="-123.031704"/>
      <trkpt lat="49.237947" lon="-123.031290"/>
      <trkpt lat="49.237782" lon="-123.030972"/>
      <trkpt lat="49.237662" lon="-123.030701"/>
      <trkpt lat="49.237393" lon="-123.030064"/>
      <trkpt lat="49.237348" lon="-123.029961"/>
      <trkpt lat="49.237306" lon="-123.029856"/>
      <trkpt lat="49.236942" lon="-123.029029"/>
      <trkpt lat="49.236541" lon="-123.028168"/>
      <trkpt lat="49.236495" lon="-123.028066"/>
      <trkpt lat="49.236211" lon="-123.027434"/>
      <trkpt lat="49.236120" lon="-123.027229"/>
      <trkpt lat="49.235647" lon="-123.026212"/>
      <trkpt lat="49.235577" lon="-123.026281"/>
      <trkpt lat="49.235559" lon="-123.026299"/>
      <trkpt lat="49.235172" lon="-123.026717"/>
      <trkpt lat="49.235121" lon="-123.026768"/>
      <trkpt lat="49.235068" lon="-123.026838"/>
      <trkpt lat="49.235032" lon="-123.026904"/>
      <trkpt lat="49.235015" lon="-123.026963"/>
      <trkpt lat="49.235015" lon="-123.027030"/>
      <trkpt lat="49.235025" lon="-123.027076"/>
      <trkpt lat="49.235039" lon="-123.027125"/>
      <trkpt lat="49.235071" lon="-123.027195"/>
      <trkpt lat="49.235102" lon="-123.027261"/>
      <trkpt lat="49.235112" lon="-123.027284"/>
      <trkpt lat="49.235185" lon="-123.027444"/>
      <trkpt lat="49.235328" lon="-123.027756"/>
      <trkpt lat="49.235372" lon="-123.027854"/>
      <trkpt lat="49.235400" lon="-123.027915"/>
      <trkpt lat="49.235350" lon="-123.027972"/>
      <trkpt lat="49.235317" lon="-123.028007"/>
      <trkpt lat="49.235237" lon="-123.028098"/>
      <trkpt lat="49.235210" lon="-123.028119"/>
      <trkpt lat="49.235182" lon="-123.028132"/>
      <trkpt lat="49.235133" lon="-123.028143"/>
      <trkpt lat="49.234842" lon="-123.028146"/>
      <trkpt lat="49.234754" lon="-123.028145"/>
      <trkpt lat="49.234681" lon="-123.028144"/>
      <trkpt lat="49.234390" lon="-123.028145"/>
      <trkpt lat="49.234206" lon="-123.028142"/>
      <trkpt lat="49.234129" lon="-123.028140"/>
      <trkpt lat="49.234050" lon="-123.028141"/>
      <trkpt lat="49.233938" lon="-123.028141"/>
      <trkpt lat="49.233851" lon="-123.028141"/>
      <trkpt lat="49.233399" lon="-123.028142"/>
      <trkpt lat="49.233133" lon="-123.028144"/>
      <trkpt lat="49.232584" lon="-123.028154"/>
      <trkpt lat="49.232538" lon="-123.028153"/>
      <trkpt lat="49.232240" lon="-123.028153"/>
      <trkpt lat="49.232213" lon="-123.028151"/>
      <trkpt lat="49.232107" lon="-123.028107"/>
      <trkpt lat="49.232100" lon="-123.028250"/>
      <trkpt lat="49.232099" lon="-123.028271"/>
      <trkpt lat="49.232081" lon="-123.028634"/>
      <trkpt lat="49.232069" lon="-123.028892"/>
      <trkpt lat="49.232052" lon="-123.029122"/>
      <trkpt lat="49.232044" lon="-123.029284"/>
      <trkpt lat="49.232079" lon="-123.029480"/>
      <trkpt lat="49.232040" lon="-123.030146"/>
      <trkpt lat="49.232034" lon="-123.030328"/>
      <trkpt lat="49.232034" lon="-123.030667"/>
      <trkpt lat="49.232044" lon="-123.030807"/>
      <trkpt lat="49.232054" lon="-123.030945"/>
      <trkpt lat="49.232061" lon="-123.031001"/>
      <trkpt lat="49.232087" lon="-123.031169"/>
      <trkpt lat="49.231973" lon="-123.031314"/>
      <trkpt lat="49.231900" lon="-123.031406"/>
      <trkpt lat="49.231879" lon="-123.031434"/>
      <trkpt lat="49.231742" lon="-123.031597"/>
      <trkpt lat="49.231653" lon="-123.031679"/>
      <trkpt lat="49.231426" lon="-123.031885"/>
      <trkpt lat="49.231358" lon="-123.031950"/>
      <trkpt lat="49.231206" lon="-123.032092"/>
      <trkpt lat="49.231123" lon="-123.032147"/>
      <trkpt lat="49.231044" lon="-123.032184"/>
      <trkpt lat="49.230985" lon="-123.032200"/>
      <trkpt lat="49.230907" lon="-123.032219"/>
      <trkpt lat="49.230807" lon="-123.032240"/>
      <trkpt lat="49.230683" lon="-123.032248"/>
      <trkpt lat="49.230460" lon="-123.032246"/>
      <trkpt lat="49.230036" lon="-123.032238"/>
      <trkpt lat="49.229712" lon="-123.032239"/>
      <trkpt lat="49.229587" lon="-123.032234"/>
      <trkpt lat="49.229368" lon="-123.032190"/>
      <trkpt lat="49.229336" lon="-123.032184"/>
      <trkpt lat="49.229262" lon="-123.032154"/>
      <trkpt lat="49.229193" lon="-123.032116"/>
      <trkpt lat="49.229167" lon="-123.032110"/>
      <trkpt lat="49.228976" lon="-123.032043"/>
      <trkpt lat="49.228834" lon="-123.032027"/>
      <trkpt lat="49.228430" lon="-123.032064"/>
      <trkpt lat="49.228429" lon="-123.032189"/>
      <trkpt lat="49.228430" lon="-123.032252"/>
      <trkpt lat="49.228426" lon="-123.033472"/>
      <trkpt lat="49.228427" lon="-123.033582"/>
      <trkpt lat="49.228427" lon="-123.033694"/>
      <trkpt lat="49.228430" lon="-123.034260"/>
      <trkpt lat="49.228431" lon="-123.034905"/>
      <trkpt lat="49.228432" lon="-123.035010"/>
      <trkpt lat="49.228434" lon="-123.035129"/>
      <trkpt lat="49.228449" lon="-123.036320"/>
      <trkpt lat="49.228449" lon="-123.036368"/>
      <trkpt lat="49.228450" lon="-123.036456"/>
      <trkpt lat="49.228389" lon="-123.036459"/>
      <trkpt lat="49.228074" lon="-123.036476"/>
      <trkpt lat="49.227996" lon="-123.036481"/>
      <trkpt lat="49.227701" lon="-123.036495"/>
      <trkpt lat="49.226967" lon="-123.036534"/>
      <trkpt lat="49.226426" lon="-123.036558"/>
      <trkpt lat="49.226205" lon="-123.036569"/>
      <trkpt lat="49.225825" lon="-123.036583"/>
      <trkpt lat="49.225461" lon="-123.036600"/>
      <trkpt lat="49.225182" lon="-123.036608"/>
      <trkpt lat="49.225083" lon="-123.036615"/>
      <trkpt lat="49.224823" lon="-123.036628"/>
      <trkpt lat="49.224806" lon="-123.036629"/>
      <trkpt lat="49.224716" lon="-123.036633"/>
      <trkpt lat="49.224716" lon="-123.036745"/>
      <trkpt lat="49.224717" lon="-123.036775"/>
      <trkpt lat="49.224720" lon="-123.037315"/>
      <trkpt lat="49.224732" lon="-123.038835"/>
      <trkpt lat="49.224733" lon="-123.040252"/>
      <trkpt lat="49.224734" lon="-123.040403"/>
      <trkpt lat="49.224737" lon="-123.040715"/>
      <trkpt lat="49.224739" lon="-123.040911"/>
      <trkpt lat="49.224740" lon="-123.041054"/>
      <trkpt lat="49.224650" lon="-123.041058"/>
      <trkpt lat="49.224554" lon="-123.041064"/>
      <trkpt lat="49.224394" lon="-123.041074"/>
      <trkpt lat="49.224288" lon="-123.041080"/>
      <trkpt lat="49.224225" lon="-123.041086"/>
      <trkpt lat="49.223859" lon="-123.041108"/>
      <trkpt lat="49.223613" lon="-123.041120"/>
      <trkpt lat="49.223411" lon="-123.041127"/>
      <trkpt lat="49.223178" lon="-123.041144"/>
      <trkpt lat="49.222949" lon="-123.041156"/>
      <trkpt lat="49.222325" lon="-123.041187"/>
      <trkpt lat="49.222065" lon="-123.041204"/>
      <trkpt lat="49.221729" lon="-123.041221"/>
      <trkpt lat="49.221160" lon="-123.041249"/>
      <trkpt lat="49.220680" lon="-123.041280"/>
      <trkpt lat="49.220265" lon="-123.041298"/>
      <trkpt lat="49.220185" lon="-123.041303"/>
      <trkpt lat="49.220185" lon="-123.041445"/>
      <trkpt lat="49.220184" lon="-123.041861"/>
      <trkpt lat="49.220185" lon="-123.042210"/>
      <trkpt lat="49.220187" lon="-123.042738"/>
      <trkpt lat="49.220188" lon="-123.042846"/>
      <trkpt lat="49.220188" lon="-123.042963"/>
      <trkpt lat="49.220192" lon="-123.043831"/>
      <trkpt lat="49.220195" lon="-123.044305"/>
      <trkpt lat="49.220196" lon="-123.044408"/>
      <trkpt lat="49.220196" lon="-123.044513"/>
      <trkpt lat="49.220197" lon="-123.044702"/>
      <trkpt lat="49.220198" lon="-123.045051"/>
      <trkpt lat="49.220198" lon="-123.045158"/>
      <trkpt lat="49.220198" lon="-123.045265"/>
      <trkpt lat="49.220199" lon="-123.045849"/>
      <trkpt lat="49.220200" lon="-123.045950"/>
      <trkpt lat="49.220200" lon="-123.046052"/>
      <trkpt lat="49.220201" lon="-123.047389"/>
      <trkpt lat="49.220201" lon="-123.047495"/>
      <trkpt lat="49.220201" lon="-123.047591"/>
      <trkpt lat="49.220200" lon="-123.047956"/>
      <trkpt lat="49.220200" lon="-123.048044"/>
      <trkpt lat="49.220201" lon="-123.048136"/>
      <trkpt lat="49.220201" lon="-123.048531"/>
      <trkpt lat="49.220202" lon="-123.048930"/>
      <trkpt lat="49.220202" lon="-123.049017"/>
      <trkpt lat="49.220202" lon="-123.049136"/>
      <trkpt lat="49.220207" lon="-123.050457"/>
      <trkpt lat="49.220207" lon="-123.050567"/>
      <trkpt lat="49.220206" lon="-123.050692"/>
      <trkpt lat="49.220207" lon="-123.051281"/>
      <trkpt lat="49.220213" lon="-123.052673"/>
      <trkpt lat="49.220213" lon="-123.052773"/>
      <trkpt lat="49.220213" lon="-123.052880"/>
      <trkpt lat="49.220210" lon="-123.054261"/>
      <trkpt lat="49.220211" lon="-123.054755"/>
      <trkpt lat="49.220211" lon="-123.054793"/>
      <trkpt lat="49.220212" lon="-123.054934"/>
      <trkpt lat="49.220212" lon="-123.055059"/>
      <trkpt lat="49.220212" lon="-123.055093"/>
      <trkpt lat="49.220214" lon="-123.055600"/>
      <trkpt lat="49.220210" lon="-123.056336"/>
      <trkpt lat="49.220210" lon="-123.056440"/>
      <trkpt lat="49.220211" lon="-123.056550"/>
      <trkpt lat="49.220219" lon="-123.057800"/>
      <trkpt lat="49.220220" lon="-123.057905"/>
      <trkpt lat="49.220220" lon="-123.058020"/>
      <trkpt lat="49.220226" lon="-123.059275"/>
      <trkpt lat="49.220227" lon="-123.059374"/>
      <trkpt lat="49.220228" lon="-123.059485"/>
      <trkpt lat="49.220234" lon="-123.060066"/>
      <trkpt lat="49.220237" lon="-123.060567"/>
      <trkpt lat="49.220238" lon="-123.060675"/>
      <trkpt lat="49.220238" lon="-123.060789"/>
      <trkpt lat="49.220249" lon="-123.061939"/>
      <trkpt lat="49.220256" lon="-123.062508"/>
      <trkpt lat="49.220257" lon="-123.062616"/>
      <trkpt lat="49.220258" lon="-123.062737"/>
      <trkpt lat="49.220263" lon="-123.063294"/>
      <trkpt lat="49.220272" lon="-123.064459"/>
      <trkpt lat="49.220273" lon="-123.064563"/>
      <trkpt lat="49.220274" lon="-123.064678"/>
      <trkpt lat="49.220280" lon="-123.065193"/>
      <trkpt lat="49.220286" lon="-123.065684"/>
      <trkpt lat="49.220287" lon="-123.065728"/>
      <trkpt lat="49.220279" lon="-123.065883"/>
      <trkpt lat="49.220287" lon="-123.066003"/>
      <trkpt lat="49.220255" lon="-123.066123"/>
      <trkpt lat="49.220230" lon="-123.066196"/>
      <trkpt lat="49.220213" lon="-123.066239"/>
      <trkpt lat="49.220196" lon="-123.066281"/>
      <trkpt lat="49.220141" lon="-123.066345"/>
      <trkpt lat="49.220086" lon="-123.066515"/>
      <trkpt lat="49.219690" lon="-123.067585"/>
      <trkpt lat="49.219429" lon="-123.068313"/>
      <trkpt lat="49.219040" lon="-123.069361"/>
      <trkpt lat="49.218920" lon="-123.069664"/>
      <trkpt lat="49.218796" lon="-123.069942"/>
      <trkpt lat="49.218616" lon="-123.070281"/>
      <trkpt lat="49.218481" lon="-123.070498"/>
      <trkpt lat="49.218346" lon="-123.070698"/>
      <trkpt lat="49.218187" lon="-123.070894"/>
      <trkpt lat="49.218016" lon="-123.071096"/>
      <trkpt lat="49.217923" lon="-123.071189"/>
      <trkpt lat="49.217843" lon="-123.071264"/>
      <trkpt lat="49.217822" lon="-123.071282"/>
      <trkpt lat="49.217654" lon="-123.071425"/>
      <trkpt lat="49.217531" lon="-123.071517"/>
      <trkpt lat="49.217320" lon="-123.071659"/>
      <trkpt lat="49.217127" lon="-123.071766"/>
      <trkpt lat="49.216930" lon="-123.071856"/>
      <trkpt lat="49.216730" lon="-123.071931"/>
      <trkpt lat="49.216531" lon="-123.071981"/>
      <trkpt lat="49.216393" lon="-123.072006"/>
      <trkpt lat="49.216362" lon="-123.072010"/>
      <trkpt lat="49.216291" lon="-123.072018"/>
      <trkpt lat="49.216219" lon="-123.072024"/>
      <trkpt lat="49.216196" lon="-123.072023"/>
      <trkpt lat="49.215859" lon="-123.072023"/>
      <trkpt lat="49.215744" lon="-123.072024"/>
      <trkpt lat="49.215502" lon="-123.072028"/>
      <trkpt lat="49.215424" lon="-123.072029"/>
      <trkpt lat="49.215355" lon="-123.072030"/>
      <trkpt lat="49.214680" lon="-123.072036"/>
      <trkpt lat="49.214655" lon="-123.072036"/>
      <trkpt lat="49.214587" lon="-123.072038"/>
      <trkpt lat="49.214533" lon="-123.072039"/>
      <trkpt lat="49.214507" lon="-123.072039"/>
      <trkpt lat="49.213730" lon="-123.072048"/>
      <trkpt lat="49.213314" lon="-123.072055"/>
      <trkpt lat="49.212869" lon="-123.072055"/>
      <trkpt lat="49.212354" lon="-123.072071"/>
      <trkpt lat="49.212029" lon="-123.072077"/>
      <trkpt lat="49.211970" lon="-123.072076"/>
      <trkpt lat="49.211924" lon="-123.072077"/>
      <trkpt lat="49.211564" lon="-123.072088"/>
      <trkpt lat="49.211193" lon="-123.072105"/>
      <trkpt lat="49.211168" lon="-123.072106"/>
      <trkpt lat="49.211099" lon="-123.072111"/>
      <trkpt lat="49.211101" lon="-123.072270"/>
      <trkpt lat="49.211107" lon="-123.072792"/>
      <trkpt lat="49.211111" lon="-123.073351"/>
      <trkpt lat="49.211116" lon="-123.073832"/>
      <trkpt lat="49.211120" lon="-123.074101"/>
      <trkpt lat="49.211119" lon="-123.074236"/>
      <trkpt lat="49.211125" lon="-123.075472"/>
      <trkpt lat="49.211125" lon="-123.075524"/>
      <trkpt lat="49.211126" lon="-123.075606"/>
      <trkpt lat="49.211127" lon="-123.075717"/>
      <trkpt lat="49.211133" lon="-123.076414"/>
      <trkpt lat="49.211141" lon="-123.077010"/>
      <trkpt lat="49.211152" lon="-123.077966"/>
      <trkpt lat="49.211150" lon="-123.078189"/>
      <trkpt lat="49.211160" lon="-123.079092"/>
      <trkpt lat="49.211158" lon="-123.079755"/>
      <trkpt lat="49.211158" lon="-123.079785"/>
      <trkpt lat="49.211158" lon="-123.079877"/>
      <trkpt lat="49.211158" lon="-123.079943"/>
      <trkpt lat="49.211157" lon="-123.080016"/>
      <trkpt lat="49.211157" lon="-123.080277"/>
      <trkpt lat="49.211110" lon="-123.080401"/>
      <trkpt lat="49.211114" lon="-123.080704"/>
      <trkpt lat="49.211130" lon="-123.082111"/>
      <trkpt lat="49.211134" lon="-123.083129"/>
      <trkpt lat="49.211135" lon="-123.083163"/>
      <trkpt lat="49.211135" lon="-123.083260"/>
      <trkpt lat="49.211133" lon="-123.083371"/>
      <trkpt lat="49.211133" lon="-123.083413"/>
      <trkpt lat="49.211127" lon="-123.084067"/>
      <trkpt lat="49.211101" lon="-123.085794"/>
      <trkpt lat="49.211210" lon="-123.085796"/>
      <trkpt lat="49.211230" lon="-123.085794"/>
      <trkpt lat="49.211545" lon="-123.085768"/>
      <trkpt lat="49.211934" lon="-123.085752"/>
      <trkpt lat="49.211996" lon="-123.085748"/>
      <trkpt lat="49.211998" lon="-123.085839"/>
      <trkpt lat="49.211999" lon="-123.085906"/>
      <trkpt lat="49.212005" lon="-123.086969"/>
      <trkpt lat="49.212011" lon="-123.088065"/>
      <trkpt lat="49.212011" lon="-123.088100"/>
      <trkpt lat="49.212012" lon="-123.088194"/>
      <trkpt lat="49.212486" lon="-123.088173"/>
      <trkpt lat="49.212897" lon="-123.088151"/>
      <trkpt lat="49.212958" lon="-123.088151"/>
      <trkpt lat="49.212959" lon="-123.088257"/>
      <trkpt lat="49.212959" lon="-123.088273"/>
      <trkpt lat="49.212966" lon="-123.088691"/>
      <trkpt lat="49.212967" lon="-123.088847"/>
      <trkpt lat="49.212984" lon="-123.089529"/>
      <trkpt lat="49.212995" lon="-123.090284"/>
      <trkpt lat="49.212997" lon="-123.090419"/>
      <trkpt lat="49.213005" lon="-123.090863"/>
      <trkpt lat="49.213006" lon="-123.090886"/>
      <trkpt lat="49.213008" lon="-123.091052"/>
      <trkpt lat="49.213012" lon="-123.091194"/>
      <trkpt lat="49.213016" lon="-123.091251"/>
      <trkpt lat="49.213045" lon="-123.091682"/>
      <trkpt lat="49.213068" lon="-123.091987"/>
      <trkpt lat="49.213145" lon="-123.093288"/>
      <trkpt lat="49.213179" lon="-123.093855"/>
      <trkpt lat="49.213200" lon="-123.094161"/>
      <trkpt lat="49.213207" lon="-123.094253"/>
      <trkpt lat="49.213232" lon="-123.094707"/>
      <trkpt lat="49.213267" lon="-123.095313"/>
      <trkpt lat="49.213428" lon="-123.097830"/>
      <trkpt lat="49.213435" lon="-123.097932"/>
      <trkpt lat="49.213503" lon="-123.097931"/>
      <trkpt lat="49.213530" lon="-123.097931"/>
      <trkpt lat="49.213868" lon="-123.097925"/>
      <trkpt lat="49.214225" lon="-123.097921"/>
      <trkpt lat="49.214291" lon="-123.097918"/>
      <trkpt lat="49.214360" lon="-123.097915"/>
      <trkpt lat="49.214544" lon="-123.097906"/>
      <trkpt lat="49.214629" lon="-123.097902"/>
      <trkpt lat="49.214782" lon="-123.097896"/>
      <trkpt lat="49.214915" lon="-123.097890"/>
      <trkpt lat="49.214937" lon="-123.097890"/>
      <trkpt lat="49.214979" lon="-123.097888"/>
      <trkpt lat="49.214981" lon="-123.097993"/>
      <trkpt lat="49.214988" lon="-123.098502"/>
      <trkpt lat="49.215043" lon="-123.101372"/>
      <trkpt lat="49.215046" lon="-123.101856"/>
      <trkpt lat="49.215046" lon="-123.101891"/>
      <trkpt lat="49.215032" lon="-123.102044"/>
      <trkpt lat="49.215020" lon="-123.102204"/>
      <trkpt lat="49.215019" lon="-123.102233"/>
      <trkpt lat="49.215027" lon="-123.102705"/>
      <trkpt lat="49.215028" lon="-123.102731"/>
      <trkpt lat="49.215050" lon="-123.104198"/>
      <trkpt lat="49.215073" lon="-123.105741"/>
      <trkpt lat="49.215077" lon="-123.106244"/>
      <trkpt lat="49.215077" lon="-123.106272"/>
      <trkpt lat="49.215078" lon="-123.106378"/>
      <trkpt lat="49.215079" lon="-123.106495"/>
      <trkpt lat="49.215079" lon="-123.106536"/>
      <trkpt lat="49.215085" lon="-123.107028"/>
      <trkpt lat="49.215125" lon="-123.109762"/>
      <trkpt lat="49.215125" lon="-123.109887"/>
      <trkpt lat="49.214688" lon="-123.109906"/>
      <trkpt lat="49.214337" lon="-123.109921"/>
      <trkpt lat="49.214255" lon="-123.109924"/>
      <trkpt lat="49.214255" lon="-123.109994"/>
      <trkpt lat="49.214286" lon="-123.112572"/>
      <trkpt lat="49.214286" lon="-123.112605"/>
      <trkpt lat="49.214288" lon="-123.112719"/>
      <trkpt lat="49.214126" lon="-123.112730"/>
      <trkpt lat="49.214055" lon="-123.112736"/>
      <trkpt lat="49.214056" lon="-123.112855"/>
      <trkpt lat="49.214080" lon="-123.114514"/>
      <trkpt lat="49.214081" lon="-123.114607"/>
      <trkpt lat="49.214093" lon="-123.115475"/>
      <trkpt lat="49.214165" lon="-123.115471"/>
      <trkpt lat="49.214177" lon="-123.115470"/>
      <trkpt lat="49.214665" lon="-123.115452"/>
      <trkpt lat="49.215260" lon="-123.115430"/>
      <trkpt lat="49.215505" lon="-123.115421"/>
      <trkpt lat="49.215857" lon="-123.115409"/>
      <trkpt lat="49.216465" lon="-123.115387"/>
      <trkpt lat="49.216838" lon="-123.115374"/>
      <trkpt lat="49.216855" lon="-123.115373"/>
      <trkpt lat="49.216918" lon="-123.115371"/>
      <trkpt lat="49.216927" lon="-123.116012"/>
      <trkpt lat="49.216934" lon="-123.116540"/>
      <trkpt lat="49.216935" lon="-123.116595"/>
      <trkpt lat="49.216937" lon="-123.116736"/>
      <trkpt lat="49.216996" lon="-123.116735"/>
      <trkpt lat="49.217025" lon="-123.116734"/>
      <trkpt lat="49.217768" lon="-123.116716"/>
      <trkpt lat="49.217840" lon="-123.116714"/>
      <trkpt lat="49.217920" lon="-123.116712"/>
      <trkpt lat="49.218426" lon="-123.116692"/>
      <trkpt lat="49.218932" lon="-123.116671"/>
      <trkpt lat="49.218962" lon="-123.116669"/>
      <trkpt lat="49.219056" lon="-123.116666"/>
      <trkpt lat="49.219127" lon="-123.116663"/>
      <trkpt lat="49.221756" lon="-123.116534"/>
      <trkpt lat="49.221825" lon="-123.116531"/>
      <trkpt lat="49.223827" lon="-123.116453"/>
      <trkpt lat="49.224590" lon="-123.116429"/>
      <trkpt lat="49.225209" lon="-123.116407"/>
      <trkpt lat="49.225665" lon="-123.116412"/>
      <trkpt lat="49.225972" lon="-123.116393"/>
      <trkpt lat="49.225992" lon="-123.116391"/>
      <trkpt lat="49.226014" lon="-123.116390"/>
      <trkpt lat="49.226074" lon="-123.116386"/>
      <trkpt lat="49.226153" lon="-123.116380"/>
      <trkpt lat="49.226211" lon="-123.116375"/>
      <trkpt lat="49.226548" lon="-123.116357"/>
      <trkpt lat="49.227000" lon="-123.116340"/>
      <trkpt lat="49.227073" lon="-123.116337"/>
      <trkpt lat="49.228809" lon="-123.116275"/>
      <trkpt lat="49.228885" lon="-123.116273"/>
      <trkpt lat="49.228952" lon="-123.116270"/>
      <trkpt lat="49.229701" lon="-123.116243"/>
      <trkpt lat="49.229724" lon="-123.116242"/>
      <trkpt lat="49.229816" lon="-123.116239"/>
      <trkpt lat="49.230735" lon="-123.116199"/>
      <trkpt lat="49.231212" lon="-123.116178"/>
      <trkpt lat="49.231643" lon="-123.116160"/>
      <trkpt lat="49.232206" lon="-123.116135"/>
      <trkpt lat="49.232518" lon="-123.116122"/>
      <trkpt lat="49.233082" lon="-123.116097"/>
      <trkpt lat="49.233322" lon="-123.116086"/>
      <trkpt lat="49.233348" lon="-123.116085"/>
      <trkpt lat="49.233361" lon="-123.116083"/>
      <trkpt lat="49.233395" lon="-123.116083"/>
      <trkpt lat="49.233485" lon="-123.116079"/>
      <trkpt lat="49.233596" lon="-123.116075"/>
      <trkpt lat="49.233682" lon="-123.116071"/>
      <trkpt lat="49.234489" lon="-123.116034"/>
      <trkpt lat="49.235325" lon="-123.115996"/>
      <trkpt lat="49.235393" lon="-123.115993"/>
      <trkpt lat="49.235387" lon="-123.115859"/>
      <trkpt lat="49.235386" lon="-123.115836"/>
      <trkpt lat="49.235362" lon="-123.115257"/>
      <trkpt lat="49.235295" lon="-123.113501"/>
      <trkpt lat="49.235294" lon="-123.113467"/>
      <trkpt lat="49.235294" lon="-123.113369"/>
      <trkpt lat="49.235294" lon="-123.113272"/>
      <trkpt lat="49.235296" lon="-123.113253"/>
      <trkpt lat="49.235315" lon="-123.113061"/>
      <trkpt lat="49.235409" lon="-123.112683"/>
      <trkpt lat="49.235622" lon="-123.112076"/>
      <trkpt lat="49.235653" lon="-123.111970"/>
      <trkpt lat="49.235684" lon="-123.111866"/>
      <trkpt lat="49.235706" lon="-123.111664"/>
      <trkpt lat="49.235712" lon="-123.111486"/>
      <trkpt lat="49.235710" lon="-123.111300"/>
      <trkpt lat="49.235784" lon="-123.111296"/>
      <trkpt lat="49.237113" lon="-123.111236"/>
      <trkpt lat="49.237124" lon="-123.111236"/>
      <trkpt lat="49.237106" lon="-123.111418"/>
      <trkpt lat="49.237065" lon="-123.111816"/>
      <trkpt lat="49.237057" lon="-123.111909"/>
      <trkpt lat="49.237048" lon="-123.112010"/>
      <trkpt lat="49.237013" lon="-123.112471"/>
      <trkpt lat="49.237003" lon="-123.112596"/>
      <trkpt lat="49.236997" lon="-123.112806"/>
      <trkpt lat="49.237023" lon="-123.113184"/>
      <trkpt lat="49.237031" lon="-123.113284"/>
      <trkpt lat="49.237039" lon="-123.113392"/>
      <trkpt lat="49.237060" lon="-123.113644"/>
      <trkpt lat="49.237130" lon="-123.114480"/>
      <trkpt lat="49.237200" lon="-123.114483"/>
      <trkpt lat="49.237222" lon="-123.114483"/>
      <trkpt lat="49.237752" lon="-123.114485"/>
      <trkpt lat="49.237761" lon="-123.114485"/>
      <trkpt lat="49.238496" lon="-123.114505"/>
      <trkpt lat="49.238638" lon="-123.114513"/>
      <trkpt lat="49.238863" lon="-123.114596"/>
      <trkpt lat="49.239004" lon="-123.114698"/>
      <trkpt lat="49.239352" lon="-123.115077"/>
      <trkpt lat="49.239642" lon="-123.115390"/>
      <trkpt lat="49.239692" lon="-123.115445"/>
      <trkpt lat="49.240949" lon="-123.116854"/>
      <trkpt lat="49.240961" lon="-123.116867"/>
      <trkpt lat="49.241029" lon="-123.116941"/>
      <trkpt lat="49.241021" lon="-123.116724"/>
      <trkpt lat="49.240998" lon="-123.116527"/>
      <trkpt lat="49.240987" lon="-123.116380"/>
      <trkpt lat="49.240984" lon="-123.116354"/>
      <trkpt lat="49.240969" lon="-123.116223"/>
      <trkpt lat="49.240931" lon="-123.116067"/>
      <trkpt lat="49.240895" lon="-123.115958"/>
      <trkpt lat="49.240890" lon="-123.115836"/>
      <trkpt lat="49.241027" lon="-123.116094"/>
      <trkpt lat="49.241185" lon="-123.116409"/>
      <trkpt lat="49.241150" lon="-123.116455"/>
      <trkpt lat="49.241063" lon="-123.116571"/>
      <trkpt lat="49.241034" lon="-123.116629"/>
      <trkpt lat="49.241021" lon="-123.116724"/>
      <trkpt lat="49.241029" lon="-123.116941"/>
      <trkpt lat="49.241051" lon="-123.117514"/>
      <trkpt lat="49.241073" lon="-123.118124"/>
      <trkpt lat="49.241075" lon="-123.118177"/>
      <trkpt lat="49.241080" lon="-123.118307"/>
      <trkpt lat="49.241091" lon="-123.118579"/>
      <trkpt lat="49.241095" lon="-123.118703"/>
      <trkpt lat="49.241096" lon="-123.118732"/>
      <trkpt lat="49.241117" lon="-123.119294"/>
      <trkpt lat="49.241132" lon="-123.119695"/>
      <trkpt lat="49.241163" lon="-123.120498"/>
      <trkpt lat="49.241164" lon="-123.120547"/>
      <trkpt lat="49.241169" lon="-123.120661"/>
      <trkpt lat="49.241173" lon="-123.120794"/>
      <trkpt lat="49.241175" lon="-123.120847"/>
      <trkpt lat="49.241180" lon="-123.120985"/>
      <trkpt lat="49.241203" lon="-123.121613"/>
      <trkpt lat="49.241226" lon="-123.122243"/>
      <trkpt lat="49.241244" lon="-123.122758"/>
      <trkpt lat="49.241250" lon="-123.122910"/>
      <trkpt lat="49.241270" lon="-123.123462"/>
      <trkpt lat="49.241272" lon="-123.123519"/>
      <trkpt lat="49.241276" lon="-123.123621"/>
      <trkpt lat="49.241280" lon="-123.123735"/>
      <trkpt lat="49.241282" lon="-123.123791"/>
      <trkpt lat="49.241283" lon="-123.123817"/>
      <trkpt lat="49.241294" lon="-123.124096"/>
      <trkpt lat="49.241328" lon="-123.124999"/>
      <trkpt lat="49.241411" lon="-123.127116"/>
      <trkpt lat="49.241444" lon="-123.127688"/>
      <trkpt lat="49.241451" lon="-123.127833"/>
      <trkpt lat="49.241456" lon="-123.127974"/>
      <trkpt lat="49.241477" lon="-123.128535"/>
      <trkpt lat="49.241511" lon="-123.129443"/>
      <trkpt lat="49.241536" lon="-123.130124"/>
      <trkpt lat="49.241562" lon="-123.130834"/>
      <trkpt lat="49.241613" lon="-123.132195"/>
      <trkpt lat="49.241617" lon="-123.132299"/>
      <trkpt lat="49.241621" lon="-123.132422"/>
      <trkpt lat="49.241698" lon="-123.134483"/>
      <trkpt lat="49.241701" lon="-123.134576"/>
      <trkpt lat="49.241705" lon="-123.134688"/>
      <trkpt lat="49.241789" lon="-123.136946"/>
      <trkpt lat="49.241844" lon="-123.138417"/>
      <trkpt lat="49.241850" lon="-123.138586"/>
      <trkpt lat="49.241871" lon="-123.139203"/>
      <trkpt lat="49.241876" lon="-123.139349"/>
      <trkpt lat="49.241882" lon="-123.139513"/>
      <trkpt lat="49.241894" lon="-123.140283"/>
      <trkpt lat="49.241924" lon="-123.142236"/>
      <trkpt lat="49.241925" lon="-123.142360"/>
      <trkpt lat="49.241927" lon="-123.142488"/>
      <trkpt lat="49.241938" lon="-123.143278"/>
      <trkpt lat="49.241947" lon="-123.144028"/>
      <trkpt lat="49.241949" lon="-123.144129"/>
      <trkpt lat="49.241950" lon="-123.144239"/>
      <trkpt lat="49.241960" lon="-123.144834"/>
      <trkpt lat="49.241971" lon="-123.145418"/>
      <trkpt lat="49.241974" lon="-123.145549"/>
      <trkpt lat="49.241977" lon="-123.145685"/>
      <trkpt lat="49.241989" lon="-123.146273"/>
      <trkpt lat="49.241996" lon="-123.146743"/>
      <trkpt lat="49.241997" lon="-123.146818"/>
      <trkpt lat="49.242001" lon="-123.147022"/>
      <trkpt lat="49.242003" lon="-123.147174"/>
      <trkpt lat="49.242004" lon="-123.147272"/>
      <trkpt lat="49.242037" lon="-123.149331"/>
      <trkpt lat="49.242039" lon="-123.149458"/>
      <trkpt lat="49.242042" lon="-123.149581"/>
      <trkpt lat="49.242055" lon="-123.150552"/>
      <trkpt lat="49.242071" lon="-123.151596"/>
      <trkpt lat="49.242085" lon="-123.152258"/>
      <trkpt lat="49.242098" lon="-123.153354"/>
      <trkpt lat="49.242104" lon="-123.153480"/>
      <trkpt lat="49.242016" lon="-123.153484"/>
      <trkpt lat="49.241910" lon="-123.153514"/>
      <trkpt lat="49.241766" lon="-123.153577"/>
      <trkpt lat="49.241644" lon="-123.153693"/>
      <trkpt lat="49.241128" lon="-123.154414"/>
      <trkpt lat="49.240987" lon="-123.154608"/>
      <trkpt lat="49.240636" lon="-123.155085"/>
      <trkpt lat="49.240535" lon="-123.155200"/>
      <trkpt lat="49.240410" lon="-123.155296"/>
      <trkpt lat="49.240241" lon="-123.155361"/>
      <trkpt lat="49.240109" lon="-123.155373"/>
      <trkpt lat="49.239766" lon="-123.155390"/>
      <trkpt lat="49.239343" lon="-123.155406"/>
      <trkpt lat="49.239285" lon="-123.155408"/>
      <trkpt lat="49.238795" lon="-123.155436"/>
      <trkpt lat="49.238379" lon="-123.155455"/>
      <trkpt lat="49.238306" lon="-123.155458"/>
      <trkpt lat="49.238235" lon="-123.155461"/>
      <trkpt lat="49.238072" lon="-123.155464"/>
      <trkpt lat="49.237344" lon="-123.155488"/>
      <trkpt lat="49.237328" lon="-123.155489"/>
      <trkpt lat="49.236534" lon="-123.155519"/>
      <trkpt lat="49.236442" lon="-123.155523"/>
      <trkpt lat="49.235550" lon="-123.155546"/>
      <trkpt lat="49.235180" lon="-123.155546"/>
      <trkpt lat="49.235127" lon="-123.155546"/>
      <trkpt lat="49.235056" lon="-123.155547"/>
      <trkpt lat="49.234668" lon="-123.155555"/>
      <trkpt lat="49.234572" lon="-123.155558"/>
      <trkpt lat="49.234571" lon="-123.155693"/>
      <trkpt lat="49.234580" lon="-123.156285"/>
      <trkpt lat="49.234604" lon="-123.157613"/>
      <trkpt lat="49.234605" lon="-123.157660"/>
      <trkpt lat="49.234607" lon="-123.157761"/>
      <trkpt lat="49.234609" lon="-123.157875"/>
      <trkpt lat="49.234610" lon="-123.157927"/>
      <trkpt lat="49.234616" lon="-123.158379"/>
      <trkpt lat="49.234617" lon="-123.158426"/>
      <trkpt lat="49.234619" lon="-123.158530"/>
      <trkpt lat="49.234621" lon="-123.158650"/>
      <trkpt lat="49.234622" lon="-123.158691"/>
      <trkpt lat="49.234627" lon="-123.159225"/>
      <trkpt lat="49.234632" lon="-123.159788"/>
      <trkpt lat="49.234632" lon="-123.159831"/>
      <trkpt lat="49.234634" lon="-123.159931"/>
      <trkpt lat="49.234636" lon="-123.160054"/>
      <trkpt lat="49.234637" lon="-123.160105"/>
      <trkpt lat="49.234659" lon="-123.161201"/>
      <trkpt lat="49.234660" lon="-123.161242"/>
      <trkpt lat="49.234661" lon="-123.161345"/>
      <trkpt lat="49.234664" lon="-123.161458"/>
      <trkpt lat="49.234664" lon="-123.161510"/>
      <trkpt lat="49.234671" lon="-123.162042"/>
      <trkpt lat="49.234680" lon="-123.162655"/>
      <trkpt lat="49.234682" lon="-123.162745"/>
      <trkpt lat="49.234683" lon="-123.162870"/>
      <trkpt lat="49.234705" lon="-123.164062"/>
      <trkpt lat="49.234707" lon="-123.164168"/>
      <trkpt lat="49.234708" lon="-123.164278"/>
      <trkpt lat="49.234725" lon="-123.165779"/>
      <trkpt lat="49.234726" lon="-123.165888"/>
      <trkpt lat="49.234726" lon="-123.165982"/>
      <trkpt lat="49.234727" lon="-123.166511"/>
      <trkpt lat="49.234729" lon="-123.167286"/>
      <trkpt lat="49.234729" lon="-123.167383"/>
      <trkpt lat="49.234729" lon="-123.167502"/>
      <trkpt lat="49.234729" lon="-123.167626"/>
      <trkpt lat="49.234730" lon="-123.168081"/>
      <trkpt lat="49.234729" lon="-123.169040"/>
      <trkpt lat="49.234728" lon="-123.170176"/>
      <trkpt lat="49.234729" lon="-123.170291"/>
      <trkpt lat="49.234832" lon="-123.170280"/>
      <trkpt lat="49.235299" lon="-123.170268"/>
      <trkpt lat="49.236550" lon="-123.170294"/>
      <trkpt lat="49.236621" lon="-123.170296"/>
      <trkpt lat="49.236699" lon="-123.170295"/>
      <trkpt lat="49.237093" lon="-123.170286"/>
      <trkpt lat="49.237502" lon="-123.170279"/>
      <trkpt lat="49.237574" lon="-123.170279"/>
      <trkpt lat="49.237650" lon="-123.170279"/>
      <trkpt lat="49.238050" lon="-123.170286"/>
      <trkpt lat="49.238454" lon="-123.170279"/>
      <trkpt lat="49.238530" lon="-123.170278"/>
      <trkpt lat="49.238601" lon="-123.170281"/>
      <trkpt lat="49.238995" lon="-123.170278"/>
      <trkpt lat="49.239402" lon="-123.170267"/>
      <trkpt lat="49.239474" lon="-123.170266"/>
      <trkpt lat="49.239552" lon="-123.170264"/>
      <trkpt lat="49.239953" lon="-123.170269"/>
      <trkpt lat="49.240348" lon="-123.170264"/>
      <trkpt lat="49.240421" lon="-123.170264"/>
      <trkpt lat="49.240497" lon="-123.170263"/>
      <trkpt lat="49.240896" lon="-123.170261"/>
      <trkpt lat="49.241297" lon="-123.170262"/>
      <trkpt lat="49.241365" lon="-123.170262"/>
      <trkpt lat="49.241443" lon="-123.170259"/>
      <trkpt lat="49.241850" lon="-123.170255"/>
      <trkpt lat="49.242218" lon="-123.170256"/>
      <trkpt lat="49.242250" lon="-123.170256"/>
      <trkpt lat="49.242317" lon="-123.170254"/>
      <trkpt lat="49.242394" lon="-123.170253"/>
      <trkpt lat="49.242422" lon="-123.170253"/>
      <trkpt lat="49.242793" lon="-123.170246"/>
      <trkpt lat="49.243197" lon="-123.170242"/>
      <trkpt lat="49.243275" lon="-123.170242"/>
      <trkpt lat="49.243342" lon="-123.170241"/>
      <trkpt lat="49.243744" lon="-123.170241"/>
      <trkpt lat="49.244143" lon="-123.170237"/>
      <trkpt lat="49.244213" lon="-123.170236"/>
      <trkpt lat="49.244285" lon="-123.170235"/>
      <trkpt lat="49.244689" lon="-123.170227"/>
      <trkpt lat="49.245093" lon="-123.170225"/>
      <trkpt lat="49.245162" lon="-123.170225"/>
      <trkpt lat="49.245163" lon="-123.170335"/>
      <trkpt lat="49.245163" lon="-123.170361"/>
      <trkpt lat="49.245168" lon="-123.171590"/>
      <trkpt lat="49.245174" lon="-123.172854"/>
      <trkpt lat="49.245174" lon="-123.172878"/>
      <trkpt lat="49.245174" lon="-123.172982"/>
      <trkpt lat="49.245252" lon="-123.172980"/>
      <trkpt lat="49.245464" lon="-123.172977"/>
      <trkpt lat="49.245653" lon="-123.172973"/>
      <trkpt lat="49.246043" lon="-123.172967"/>
      <trkpt lat="49.246054" lon="-123.172966"/>
      <trkpt lat="49.246129" lon="-123.172966"/>
      <trkpt lat="49.246129" lon="-123.173088"/>
      <trkpt lat="49.246130" lon="-123.173246"/>
      <trkpt lat="49.246133" lon="-123.174052"/>
      <trkpt lat="49.246136" lon="-123.174915"/>
      <trkpt lat="49.246138" lon="-123.175587"/>
      <trkpt lat="49.246138" lon="-123.175621"/>
      <trkpt lat="49.246139" lon="-123.175735"/>
      <trkpt lat="49.246064" lon="-123.175734"/>
      <trkpt lat="49.245669" lon="-123.175732"/>
      <trkpt lat="49.245421" lon="-123.175732"/>
      <trkpt lat="49.245265" lon="-123.175732"/>
      <trkpt lat="49.245234" lon="-123.175740"/>
      <trkpt lat="49.245212" lon="-123.175757"/>
      <trkpt lat="49.245195" lon="-123.175802"/>
      <trkpt lat="49.245189" lon="-123.175864"/>
      <trkpt lat="49.245200" lon="-123.177953"/>
      <trkpt lat="49.245203" lon="-123.178487"/>
      <trkpt lat="49.245203" lon="-123.178538"/>
      <trkpt lat="49.245204" lon="-123.178650"/>
      <trkpt lat="49.244330" lon="-123.178653"/>
      <trkpt lat="49.244255" lon="-123.178653"/>
      <trkpt lat="49.244182" lon="-123.178654"/>
      <trkpt lat="49.243303" lon="-123.178654"/>
      <trkpt lat="49.242445" lon="-123.178662"/>
      <trkpt lat="49.242425" lon="-123.178662"/>
      <trkpt lat="49.242347" lon="-123.178663"/>
      <trkpt lat="49.242348" lon="-123.178784"/>
      <trkpt lat="49.242348" lon="-123.178819"/>
      <trkpt lat="49.242349" lon="-123.179376"/>
      <trkpt lat="49.242355" lon="-123.181339"/>
      <trkpt lat="49.242359" lon="-123.181873"/>
      <trkpt lat="49.242359" lon="-123.181974"/>
      <trkpt lat="49.242360" lon="-123.182093"/>
      <trkpt lat="49.242362" lon="-123.182696"/>
      <trkpt lat="49.242367" lon="-123.184535"/>
      <trkpt lat="49.242367" lon="-123.184634"/>
      <trkpt lat="49.242369" lon="-123.185116"/>
      <trkpt lat="49.242370" lon="-123.185152"/>
      <trkpt lat="49.242371" lon="-123.185263"/>
      <trkpt lat="49.242302" lon="-123.185264"/>
      <trkpt lat="49.241902" lon="-123.185267"/>
      <trkpt lat="49.241500" lon="-123.185271"/>
      <trkpt lat="49.241431" lon="-123.185271"/>
      <trkpt lat="49.241358" lon="-123.185272"/>
      <trkpt lat="49.240956" lon="-123.185278"/>
      <trkpt lat="49.240551" lon="-123.185280"/>
      <trkpt lat="49.240473" lon="-123.185280"/>
      <trkpt lat="49.240403" lon="-123.185281"/>
      <trkpt lat="49.240000" lon="-123.185285"/>
      <trkpt lat="49.239601" lon="-123.185289"/>
      <trkpt lat="49.239530" lon="-123.185290"/>
      <trkpt lat="49.239529" lon="-123.185408"/>
      <trkpt lat="49.239530" lon="-123.185454"/>
      <trkpt lat="49.239539" lon="-123.188059"/>
      <trkpt lat="49.239539" lon="-123.188087"/>
      <trkpt lat="49.239539" lon="-123.188194"/>
      <trkpt lat="49.239540" lon="-123.188310"/>
      <trkpt lat="49.239540" lon="-123.188351"/>
      <trkpt lat="49.239554" lon="-123.190868"/>
      <trkpt lat="49.239554" lon="-123.190958"/>
      <trkpt lat="49.239555" lon="-123.191064"/>
      <trkpt lat="49.239562" lon="-123.193592"/>
      <trkpt lat="49.239562" lon="-123.193624"/>
      <trkpt lat="49.239562" lon="-123.193721"/>
      <trkpt lat="49.239562" lon="-123.193825"/>
      <trkpt lat="49.239563" lon="-123.193886"/>
      <trkpt lat="49.239568" lon="-123.195284"/>
    </trkseg>
  </trk>
</gpx>
