<?xml version="1.0" encoding="UTF-8"?>
<gpx xmlns="http://www.topografix.com/GPX/1/1" xmlns:xsi="http://www.w3.org/2001/XMLSchema-instance" version="1.1" creator="yvr-cherry-blossoms" xsi:schemaLocation="http://www.topografix.com/GPX/1/1 http://www.topografix.com/GPX/1/1/gpx.xsd">
  <metadata>
    <name>Vancouver Cherry Blossom Marathon — Cycling (Top 10)</name>
    <desc>Top 10 cherry blossom streets by density. Bike-routing via OSRM.</desc>
    <time>2026-03-30T05:17:25Z</time>
  </metadata>
  <wpt lat="49.272268" lon="-123.126195">
    <name>Stop 1 — 1400 HOMER ST</name>
    <desc>27.5 trees/100m · 53 total trees</desc>
  </wpt>
  <wpt lat="49.273080" lon="-123.123137">
    <name>Stop 2 — 100 DRAKE ST</name>
    <desc>22.0 trees/100m · 25 total trees</desc>
  </wpt>
  <wpt lat="49.293802" lon="-123.135037">
    <name>Stop 3 — 600 GILFORD ST</name>
    <desc>22.4 trees/100m · 13 total trees</desc>
  </wpt>
  <wpt lat="49.294297" lon="-123.137007">
    <name>Stop 4 — 600 CHILCO ST</name>
    <desc>24.6 trees/100m · 16 total trees</desc>
  </wpt>
  <wpt lat="49.245421" lon="-123.175725">
    <name>Stop 5 — 4500 BALACLAVA ST</name>
    <desc>22.7 trees/100m · 12 total trees</desc>
  </wpt>
  <wpt lat="49.234676" lon="-123.162042">
    <name>Stop 6 — 2400 W 41ST AV</name>
    <desc>24.4 trees/100m · 25 total trees</desc>
  </wpt>
  <wpt lat="49.241014" lon="-123.116346">
    <name>Stop 7 — 400 W 33RD AV</name>
    <desc>20.5 trees/100m · 18 total trees</desc>
  </wpt>
  <wpt lat="49.237113" lon="-123.111229">
    <name>Stop 8 — 200 W 37TH AV</name>
    <desc>21.6 trees/100m · 21 total trees</desc>
  </wpt>
  <wpt lat="49.277315" lon="-123.068362">
    <name>Stop 9 — 800 SALSBURY DRIVE</name>
    <desc>22.0 trees/100m · 11 total trees</desc>
  </wpt>
  <wpt lat="49.255990" lon="-123.033784">
    <name>Stop 10 — 3100 RUPERT ST</name>
    <desc>19.3 trees/100m · 18 total trees</desc>
  </wpt>
  <trk>
    <name>Vancouver Cherry Blossom Marathon — Cycling (Top 10)</name>
    <trkseg>
      <trkpt lat="49.272235" lon="-123.126068"/>
      <trkpt lat="49.272268" lon="-123.126048"/>
      <trkpt lat="49.272355" lon="-123.126006"/>
      <trkpt lat="49.272425" lon="-123.125980"/>
      <trkpt lat="49.272503" lon="-123.125957"/>
      <trkpt lat="49.272574" lon="-123.125944"/>
      <trkpt lat="49.272666" lon="-123.125939"/>
      <trkpt lat="49.272911" lon="-123.125942"/>
      <trkpt lat="49.272935" lon="-123.125940"/>
      <trkpt lat="49.273033" lon="-123.125930"/>
      <trkpt lat="49.273010" lon="-123.125803"/>
      <trkpt lat="49.273002" lon="-123.125632"/>
      <trkpt lat="49.273004" lon="-123.125371"/>
      <trkpt lat="49.273022" lon="-123.125143"/>
      <trkpt lat="49.273050" lon="-123.124944"/>
      <trkpt lat="49.273084" lon="-123.124763"/>
      <trkpt lat="49.273164" lon="-123.124462"/>
      <trkpt lat="49.273198" lon="-123.124325"/>
      <trkpt lat="49.273247" lon="-123.124125"/>
      <trkpt lat="49.273338" lon="-123.123759"/>
      <trkpt lat="49.273345" lon="-123.123731"/>
      <trkpt lat="49.273379" lon="-123.123601"/>
      <trkpt lat="49.273317" lon="-123.123505"/>
      <trkpt lat="49.273301" lon="-123.123482"/>
      <trkpt lat="49.273162" lon="-123.123273"/>
      <trkpt lat="49.273077" lon="-123.123141"/>
      <trkpt lat="49.272787" lon="-123.122687"/>
      <trkpt lat="49.272741" lon="-123.122613"/>
      <trkpt lat="49.272780" lon="-123.122552"/>
      <trkpt lat="49.272795" lon="-123.122528"/>
      <trkpt lat="49.272959" lon="-123.122272"/>
      <trkpt lat="49.273278" lon="-123.122457"/>
      <trkpt lat="49.273554" lon="-123.122624"/>
      <trkpt lat="49.273580" lon="-123.122638"/>
      <trkpt lat="49.273633" lon="-123.122667"/>
      <trkpt lat="49.273938" lon="-123.121510"/>
      <trkpt lat="49.273948" lon="-123.121469"/>
      <trkpt lat="49.273973" lon="-123.121379"/>
      <trkpt lat="49.274007" lon="-123.121252"/>
      <trkpt lat="49.274035" lon="-123.121152"/>
      <trkpt lat="49.274296" lon="-123.120167"/>
      <trkpt lat="49.274334" lon="-123.120021"/>
      <trkpt lat="49.274360" lon="-123.119914"/>
      <trkpt lat="49.274386" lon="-123.119798"/>
      <trkpt lat="49.274401" lon="-123.119718"/>
      <trkpt lat="49.274424" lon="-123.119581"/>
      <trkpt lat="49.274444" lon="-123.119439"/>
      <trkpt lat="49.274448" lon="-123.119390"/>
      <trkpt lat="49.274456" lon="-123.119283"/>
      <trkpt lat="49.274460" lon="-123.119138"/>
      <trkpt lat="49.274588" lon="-123.119155"/>
      <trkpt lat="49.274688" lon="-123.119166"/>
      <trkpt lat="49.274724" lon="-123.119158"/>
      <trkpt lat="49.274798" lon="-123.119117"/>
      <trkpt lat="49.274864" lon="-123.119066"/>
      <trkpt lat="49.275630" lon="-123.118460"/>
      <trkpt lat="49.275778" lon="-123.118337"/>
      <trkpt lat="49.275909" lon="-123.118229"/>
      <trkpt lat="49.275962" lon="-123.118178"/>
      <trkpt lat="49.275988" lon="-123.118152"/>
      <trkpt lat="49.276019" lon="-123.118124"/>
      <trkpt lat="49.276110" lon="-123.118113"/>
      <trkpt lat="49.276158" lon="-123.118040"/>
      <trkpt lat="49.276180" lon="-123.118007"/>
      <trkpt lat="49.276391" lon="-123.117690"/>
      <trkpt lat="49.276687" lon="-123.117247"/>
      <trkpt lat="49.277073" lon="-123.116667"/>
      <trkpt lat="49.277094" lon="-123.116635"/>
      <trkpt lat="49.277150" lon="-123.116551"/>
      <trkpt lat="49.277201" lon="-123.116631"/>
      <trkpt lat="49.277221" lon="-123.116662"/>
      <trkpt lat="49.277481" lon="-123.117052"/>
      <trkpt lat="49.277665" lon="-123.117324"/>
      <trkpt lat="49.277700" lon="-123.117376"/>
      <trkpt lat="49.277764" lon="-123.117485"/>
      <trkpt lat="49.277822" lon="-123.117570"/>
      <trkpt lat="49.278104" lon="-123.118020"/>
      <trkpt lat="49.278182" lon="-123.118146"/>
      <trkpt lat="49.278325" lon="-123.118375"/>
      <trkpt lat="49.278359" lon="-123.118429"/>
      <trkpt lat="49.278418" lon="-123.118518"/>
      <trkpt lat="49.278466" lon="-123.118594"/>
      <trkpt lat="49.278722" lon="-123.119000"/>
      <trkpt lat="49.278967" lon="-123.119387"/>
      <trkpt lat="49.278979" lon="-123.119406"/>
      <trkpt lat="49.279012" lon="-123.119457"/>
      <trkpt lat="49.279058" lon="-123.119527"/>
      <trkpt lat="49.279091" lon="-123.119575"/>
      <trkpt lat="49.279345" lon="-123.119961"/>
      <trkpt lat="49.279586" lon="-123.120338"/>
      <trkpt lat="49.279611" lon="-123.120378"/>
      <trkpt lat="49.279655" lon="-123.120447"/>
      <trkpt lat="49.279720" lon="-123.120546"/>
      <trkpt lat="49.279976" lon="-123.120942"/>
      <trkpt lat="49.280227" lon="-123.121328"/>
      <trkpt lat="49.280247" lon="-123.121358"/>
      <trkpt lat="49.280303" lon="-123.121445"/>
      <trkpt lat="49.280367" lon="-123.121543"/>
      <trkpt lat="49.280633" lon="-123.121955"/>
      <trkpt lat="49.280706" lon="-123.122068"/>
      <trkpt lat="49.280876" lon="-123.122331"/>
      <trkpt lat="49.280896" lon="-123.122362"/>
      <trkpt lat="49.280948" lon="-123.122442"/>
      <trkpt lat="49.281002" lon="-123.122526"/>
      <trkpt lat="49.281085" lon="-123.122660"/>
      <trkpt lat="49.281139" lon="-123.122749"/>
      <trkpt lat="49.281394" lon="-123.123143"/>
      <trkpt lat="49.281492" lon="-123.123294"/>
      <trkpt lat="49.281513" lon="-123.123323"/>
      <trkpt lat="49.281539" lon="-123.123357"/>
      <trkpt lat="49.281586" lon="-123.123412"/>
      <trkpt lat="49.281640" lon="-123.123496"/>
      <trkpt lat="49.281894" lon="-123.123885"/>
      <trkpt lat="49.281971" lon="-123.124006"/>
      <trkpt lat="49.282132" lon="-123.124261"/>
      <trkpt lat="49.282160" lon="-123.124302"/>
      <trkpt lat="49.282231" lon="-123.124411"/>
      <trkpt lat="49.282266" lon="-123.124359"/>
      <trkpt lat="49.282297" lon="-123.124311"/>
      <trkpt lat="49.282312" lon="-123.124289"/>
      <trkpt lat="49.282548" lon="-123.123932"/>
      <trkpt lat="49.282596" lon="-123.123860"/>
      <trkpt lat="49.282715" lon="-123.123680"/>
      <trkpt lat="49.282945" lon="-123.123342"/>
      <trkpt lat="49.283240" lon="-123.122898"/>
      <trkpt lat="49.283294" lon="-123.122807"/>
      <trkpt lat="49.283357" lon="-123.122713"/>
      <trkpt lat="49.283659" lon="-123.122264"/>
      <trkpt lat="49.283788" lon="-123.122063"/>
      <trkpt lat="49.284004" lon="-123.121737"/>
      <trkpt lat="49.284089" lon="-123.121870"/>
      <trkpt lat="49.284653" lon="-123.122739"/>
      <trkpt lat="49.284797" lon="-123.122960"/>
      <trkpt lat="49.284902" lon="-123.123126"/>
      <trkpt lat="49.285243" lon="-123.123660"/>
      <trkpt lat="49.285260" lon="-123.123685"/>
      <trkpt lat="49.285311" lon="-123.123767"/>
      <trkpt lat="49.285367" lon="-123.123853"/>
      <trkpt lat="49.285386" lon="-123.123883"/>
      <trkpt lat="49.286102" lon="-123.124983"/>
      <trkpt lat="49.286661" lon="-123.125837"/>
      <trkpt lat="49.286714" lon="-123.125918"/>
      <trkpt lat="49.286776" lon="-123.126013"/>
      <trkpt lat="49.287605" lon="-123.127297"/>
      <trkpt lat="49.287701" lon="-123.127446"/>
      <trkpt lat="49.287740" lon="-123.127505"/>
      <trkpt lat="49.287779" lon="-123.127565"/>
      <trkpt lat="49.288108" lon="-123.128070"/>
      <trkpt lat="49.288231" lon="-123.128260"/>
      <trkpt lat="49.288592" lon="-123.128816"/>
      <trkpt lat="49.288628" lon="-123.128877"/>
      <trkpt lat="49.288671" lon="-123.128944"/>
      <trkpt lat="49.289024" lon="-123.129488"/>
      <trkpt lat="49.289224" lon="-123.129796"/>
      <trkpt lat="49.289342" lon="-123.129978"/>
      <trkpt lat="49.289390" lon="-123.130052"/>
      <trkpt lat="49.289446" lon="-123.130137"/>
      <trkpt lat="49.289725" lon="-123.130574"/>
      <trkpt lat="49.290110" lon="-123.131177"/>
      <trkpt lat="49.290157" lon="-123.131249"/>
      <trkpt lat="49.290200" lon="-123.131315"/>
      <trkpt lat="49.291119" lon="-123.132728"/>
      <trkpt lat="49.291170" lon="-123.132805"/>
      <trkpt lat="49.291220" lon="-123.132878"/>
      <trkpt lat="49.291832" lon="-123.133817"/>
      <trkpt lat="49.291853" lon="-123.133850"/>
      <trkpt lat="49.291934" lon="-123.133975"/>
      <trkpt lat="49.291959" lon="-123.134014"/>
      <trkpt lat="49.292133" lon="-123.134285"/>
      <trkpt lat="49.292192" lon="-123.134379"/>
      <trkpt lat="49.292251" lon="-123.134291"/>
      <trkpt lat="49.292476" lon="-123.133926"/>
      <trkpt lat="49.292495" lon="-123.133895"/>
      <trkpt lat="49.292604" lon="-123.133737"/>
      <trkpt lat="49.292687" lon="-123.133864"/>
      <trkpt lat="49.292709" lon="-123.133899"/>
      <trkpt lat="49.293498" lon="-123.135135"/>
      <trkpt lat="49.293549" lon="-123.135216"/>
      <trkpt lat="49.293565" lon="-123.135240"/>
      <trkpt lat="49.293614" lon="-123.135317"/>
      <trkpt lat="49.293631" lon="-123.135344"/>
      <trkpt lat="49.293656" lon="-123.135382"/>
      <trkpt lat="49.293698" lon="-123.135449"/>
      <trkpt lat="49.293875" lon="-123.135726"/>
      <trkpt lat="49.293982" lon="-123.135761"/>
      <trkpt lat="49.294047" lon="-123.135852"/>
      <trkpt lat="49.294138" lon="-123.135919"/>
      <trkpt lat="49.294225" lon="-123.136038"/>
      <trkpt lat="49.294309" lon="-123.136157"/>
      <trkpt lat="49.294400" lon="-123.136286"/>
      <trkpt lat="49.294436" lon="-123.136338"/>
      <trkpt lat="49.294475" lon="-123.136393"/>
      <trkpt lat="49.294507" lon="-123.136436"/>
      <trkpt lat="49.294540" lon="-123.136475"/>
      <trkpt lat="49.294578" lon="-123.136515"/>
      <trkpt lat="49.294619" lon="-123.136552"/>
      <trkpt lat="49.294654" lon="-123.136578"/>
      <trkpt lat="49.294698" lon="-123.136606"/>
      <trkpt lat="49.294728" lon="-123.136622"/>
      <trkpt lat="49.294758" lon="-123.136636"/>
      <trkpt lat="49.294791" lon="-123.136648"/>
      <trkpt lat="49.294826" lon="-123.136659"/>
      <trkpt lat="49.294859" lon="-123.136666"/>
      <trkpt lat="49.294892" lon="-123.136671"/>
      <trkpt lat="49.294932" lon="-123.136674"/>
      <trkpt lat="49.294968" lon="-123.136674"/>
      <trkpt lat="49.295005" lon="-123.136672"/>
      <trkpt lat="49.295040" lon="-123.136667"/>
      <trkpt lat="49.295075" lon="-123.136659"/>
      <trkpt lat="49.295110" lon="-123.136649"/>
      <trkpt lat="49.295171" lon="-123.136626"/>
      <trkpt lat="49.295233" lon="-123.136595"/>
      <trkpt lat="49.295283" lon="-123.136566"/>
      <trkpt lat="49.295909" lon="-123.136201"/>
      <trkpt lat="49.295997" lon="-123.136151"/>
      <trkpt lat="49.296053" lon="-123.136123"/>
      <trkpt lat="49.296113" lon="-123.136098"/>
      <trkpt lat="49.296165" lon="-123.136083"/>
      <trkpt lat="49.296218" lon="-123.136070"/>
      <trkpt lat="49.296275" lon="-123.136061"/>
      <trkpt lat="49.296326" lon="-123.136055"/>
      <trkpt lat="49.296388" lon="-123.136051"/>
      <trkpt lat="49.296458" lon="-123.136053"/>
      <trkpt lat="49.296539" lon="-123.136063"/>
      <trkpt lat="49.296602" lon="-123.136077"/>
      <trkpt lat="49.296682" lon="-123.136101"/>
      <trkpt lat="49.296952" lon="-123.136179"/>
      <trkpt lat="49.297020" lon="-123.136192"/>
      <trkpt lat="49.297069" lon="-123.136200"/>
      <trkpt lat="49.297136" lon="-123.136202"/>
      <trkpt lat="49.297187" lon="-123.136194"/>
      <trkpt lat="49.297235" lon="-123.136180"/>
      <trkpt lat="49.297273" lon="-123.136156"/>
      <trkpt lat="49.297300" lon="-123.136128"/>
      <trkpt lat="49.297331" lon="-123.136085"/>
      <trkpt lat="49.297359" lon="-123.136036"/>
      <trkpt lat="49.297366" lon="-123.136001"/>
      <trkpt lat="49.297377" lon="-123.135971"/>
      <trkpt lat="49.297392" lon="-123.135944"/>
      <trkpt lat="49.297411" lon="-123.135922"/>
      <trkpt lat="49.297432" lon="-123.135907"/>
      <trkpt lat="49.297454" lon="-123.135898"/>
      <trkpt lat="49.297477" lon="-123.135896"/>
      <trkpt lat="49.297500" lon="-123.135902"/>
      <trkpt lat="49.297522" lon="-123.135915"/>
      <trkpt lat="49.297542" lon="-123.135934"/>
      <trkpt lat="49.297555" lon="-123.135954"/>
      <trkpt lat="49.297567" lon="-123.135977"/>
      <trkpt lat="49.297575" lon="-123.136002"/>
      <trkpt lat="49.297582" lon="-123.136031"/>
      <trkpt lat="49.297584" lon="-123.136060"/>
      <trkpt lat="49.297584" lon="-123.136089"/>
      <trkpt lat="49.297581" lon="-123.136116"/>
      <trkpt lat="49.297574" lon="-123.136144"/>
      <trkpt lat="49.297563" lon="-123.136173"/>
      <trkpt lat="49.297549" lon="-123.136197"/>
      <trkpt lat="49.297531" lon="-123.136218"/>
      <trkpt lat="49.297512" lon="-123.136233"/>
      <trkpt lat="49.297476" lon="-123.136326"/>
      <trkpt lat="49.297430" lon="-123.136420"/>
      <trkpt lat="49.297339" lon="-123.136547"/>
      <trkpt lat="49.297261" lon="-123.136729"/>
      <trkpt lat="49.297199" lon="-123.136841"/>
      <trkpt lat="49.297180" lon="-123.136875"/>
      <trkpt lat="49.297146" lon="-123.136946"/>
      <trkpt lat="49.297054" lon="-123.136959"/>
      <trkpt lat="49.296983" lon="-123.136950"/>
      <trkpt lat="49.296932" lon="-123.136927"/>
      <trkpt lat="49.296885" lon="-123.136887"/>
      <trkpt lat="49.296705" lon="-123.136708"/>
      <trkpt lat="49.296656" lon="-123.136662"/>
      <trkpt lat="49.296608" lon="-123.136621"/>
      <trkpt lat="49.296553" lon="-123.136580"/>
      <trkpt lat="49.296489" lon="-123.136538"/>
      <trkpt lat="49.296432" lon="-123.136503"/>
      <trkpt lat="49.296378" lon="-123.136476"/>
      <trkpt lat="49.296327" lon="-123.136456"/>
      <trkpt lat="49.296254" lon="-123.136438"/>
      <trkpt lat="49.296184" lon="-123.136433"/>
      <trkpt lat="49.296104" lon="-123.136437"/>
      <trkpt lat="49.295873" lon="-123.136475"/>
      <trkpt lat="49.295317" lon="-123.136802"/>
      <trkpt lat="49.295278" lon="-123.136823"/>
      <trkpt lat="49.295240" lon="-123.136843"/>
      <trkpt lat="49.295202" lon="-123.136861"/>
      <trkpt lat="49.295163" lon="-123.136875"/>
      <trkpt lat="49.295125" lon="-123.136885"/>
      <trkpt lat="49.295087" lon="-123.136895"/>
      <trkpt lat="49.295046" lon="-123.136902"/>
      <trkpt lat="49.295006" lon="-123.136908"/>
      <trkpt lat="49.294965" lon="-123.136908"/>
      <trkpt lat="49.294927" lon="-123.136909"/>
      <trkpt lat="49.294888" lon="-123.136906"/>
      <trkpt lat="49.294850" lon="-123.136901"/>
      <trkpt lat="49.294811" lon="-123.136893"/>
      <trkpt lat="49.294770" lon="-123.136882"/>
      <trkpt lat="49.294732" lon="-123.136869"/>
      <trkpt lat="49.294694" lon="-123.136854"/>
      <trkpt lat="49.294657" lon="-123.136837"/>
      <trkpt lat="49.294619" lon="-123.136816"/>
      <trkpt lat="49.294582" lon="-123.136791"/>
      <trkpt lat="49.294566" lon="-123.136780"/>
      <trkpt lat="49.294532" lon="-123.136753"/>
      <trkpt lat="49.294497" lon="-123.136722"/>
      <trkpt lat="49.294463" lon="-123.136690"/>
      <trkpt lat="49.294430" lon="-123.136655"/>
      <trkpt lat="49.294399" lon="-123.136619"/>
      <trkpt lat="49.294366" lon="-123.136576"/>
      <trkpt lat="49.294338" lon="-123.136537"/>
      <trkpt lat="49.294311" lon="-123.136496"/>
      <trkpt lat="49.293925" lon="-123.135904"/>
      <trkpt lat="49.293875" lon="-123.135726"/>
      <trkpt lat="49.293698" lon="-123.135449"/>
      <trkpt lat="49.293656" lon="-123.135382"/>
      <trkpt lat="49.293631" lon="-123.135344"/>
      <trkpt lat="49.293565" lon="-123.135240"/>
      <trkpt lat="49.293549" lon="-123.135216"/>
      <trkpt lat="49.293498" lon="-123.135135"/>
      <trkpt lat="49.292709" lon="-123.133899"/>
      <trkpt lat="49.292687" lon="-123.133864"/>
      <trkpt lat="49.292604" lon="-123.133737"/>
      <trkpt lat="49.292495" lon="-123.133895"/>
      <trkpt lat="49.292476" lon="-123.133926"/>
      <trkpt lat="49.292251" lon="-123.134291"/>
      <trkpt lat="49.292192" lon="-123.134379"/>
      <trkpt lat="49.292251" lon="-123.134466"/>
      <trkpt lat="49.292403" lon="-123.134701"/>
      <trkpt lat="49.292452" lon="-123.134777"/>
      <trkpt lat="49.292801" lon="-123.135319"/>
      <trkpt lat="49.292863" lon="-123.135414"/>
      <trkpt lat="49.292872" lon="-123.135429"/>
      <trkpt lat="49.293170" lon="-123.135892"/>
      <trkpt lat="49.293207" lon="-123.135950"/>
      <trkpt lat="49.293249" lon="-123.136020"/>
      <trkpt lat="49.293512" lon="-123.136421"/>
      <trkpt lat="49.293540" lon="-123.136464"/>
      <trkpt lat="49.293665" lon="-123.136655"/>
      <trkpt lat="49.293863" lon="-123.136958"/>
      <trkpt lat="49.293940" lon="-123.137077"/>
      <trkpt lat="49.293950" lon="-123.137092"/>
      <trkpt lat="49.293990" lon="-123.137153"/>
      <trkpt lat="49.294035" lon="-123.137086"/>
      <trkpt lat="49.294072" lon="-123.137031"/>
      <trkpt lat="49.294072" lon="-123.137031"/>
      <trkpt lat="49.294035" lon="-123.137086"/>
      <trkpt lat="49.293990" lon="-123.137153"/>
      <trkpt lat="49.293950" lon="-123.137092"/>
      <trkpt lat="49.293940" lon="-123.137077"/>
      <trkpt lat="49.293863" lon="-123.136958"/>
      <trkpt lat="49.293665" lon="-123.136655"/>
      <trkpt lat="49.293540" lon="-123.136464"/>
      <trkpt lat="49.293512" lon="-123.136421"/>
      <trkpt lat="49.293249" lon="-123.136020"/>
      <trkpt lat="49.293207" lon="-123.135950"/>
      <trkpt lat="49.293170" lon="-123.135892"/>
      <trkpt lat="49.292872" lon="-123.135429"/>
      <trkpt lat="49.292863" lon="-123.135414"/>
      <trkpt lat="49.292801" lon="-123.135319"/>
      <trkpt lat="49.292452" lon="-123.134777"/>
      <trkpt lat="49.292403" lon="-123.134701"/>
      <trkpt lat="49.292251" lon="-123.134466"/>
      <trkpt lat="49.292192" lon="-123.134379"/>
      <trkpt lat="49.292133" lon="-123.134285"/>
      <trkpt lat="49.291959" lon="-123.134014"/>
      <trkpt lat="49.291934" lon="-123.133975"/>
      <trkpt lat="49.291853" lon="-123.133850"/>
      <trkpt lat="49.291832" lon="-123.133817"/>
      <trkpt lat="49.291220" lon="-123.132878"/>
      <trkpt lat="49.291170" lon="-123.132805"/>
      <trkpt lat="49.291119" lon="-123.132728"/>
      <trkpt lat="49.290200" lon="-123.131315"/>
      <trkpt lat="49.290157" lon="-123.131249"/>
      <trkpt lat="49.290110" lon="-123.131177"/>
      <trkpt lat="49.289725" lon="-123.130574"/>
      <trkpt lat="49.289446" lon="-123.130137"/>
      <trkpt lat="49.289390" lon="-123.130052"/>
      <trkpt lat="49.289342" lon="-123.129978"/>
      <trkpt lat="49.289224" lon="-123.129796"/>
      <trkpt lat="49.289024" lon="-123.129488"/>
      <trkpt lat="49.288671" lon="-123.128944"/>
      <trkpt lat="49.288628" lon="-123.128877"/>
      <trkpt lat="49.288592" lon="-123.128816"/>
      <trkpt lat="49.288231" lon="-123.128260"/>
      <trkpt lat="49.288108" lon="-123.128070"/>
      <trkpt lat="49.287779" lon="-123.127565"/>
      <trkpt lat="49.287740" lon="-123.127505"/>
      <trkpt lat="49.287701" lon="-123.127446"/>
      <trkpt lat="49.287605" lon="-123.127297"/>
      <trkpt lat="49.286776" lon="-123.126013"/>
      <trkpt lat="49.286714" lon="-123.125918"/>
      <trkpt lat="49.286661" lon="-123.125837"/>
      <trkpt lat="49.286102" lon="-123.124983"/>
      <trkpt lat="49.285386" lon="-123.123883"/>
      <trkpt lat="49.285367" lon="-123.123853"/>
      <trkpt lat="49.285311" lon="-123.123767"/>
      <trkpt lat="49.285248" lon="-123.123864"/>
      <trkpt lat="49.284966" lon="-123.124302"/>
      <trkpt lat="49.284808" lon="-123.124539"/>
      <trkpt lat="49.284672" lon="-123.124745"/>
      <trkpt lat="49.284611" lon="-123.124837"/>
      <trkpt lat="49.284550" lon="-123.124928"/>
      <trkpt lat="49.284259" lon="-123.125368"/>
      <trkpt lat="49.283988" lon="-123.125787"/>
      <trkpt lat="49.283973" lon="-123.125809"/>
      <trkpt lat="49.283945" lon="-123.125854"/>
      <trkpt lat="49.283915" lon="-123.125899"/>
      <trkpt lat="49.283908" lon="-123.125910"/>
      <trkpt lat="49.283858" lon="-123.125989"/>
      <trkpt lat="49.283564" lon="-123.126435"/>
      <trkpt lat="49.283275" lon="-123.126858"/>
      <trkpt lat="49.283248" lon="-123.126897"/>
      <trkpt lat="49.283204" lon="-123.126963"/>
      <trkpt lat="49.283154" lon="-123.127040"/>
      <trkpt lat="49.283141" lon="-123.127059"/>
      <trkpt lat="49.282858" lon="-123.127502"/>
      <trkpt lat="49.282778" lon="-123.127621"/>
      <trkpt lat="49.282554" lon="-123.127950"/>
      <trkpt lat="49.282507" lon="-123.128020"/>
      <trkpt lat="49.282454" lon="-123.128101"/>
      <trkpt lat="49.282153" lon="-123.128558"/>
      <trkpt lat="49.281864" lon="-123.128979"/>
      <trkpt lat="49.281842" lon="-123.129012"/>
      <trkpt lat="49.281808" lon="-123.129064"/>
      <trkpt lat="49.281782" lon="-123.129100"/>
      <trkpt lat="49.281745" lon="-123.129154"/>
      <trkpt lat="49.281433" lon="-123.129634"/>
      <trkpt lat="49.281141" lon="-123.130073"/>
      <trkpt lat="49.281097" lon="-123.130138"/>
      <trkpt lat="49.281038" lon="-123.130224"/>
      <trkpt lat="49.280736" lon="-123.130664"/>
      <trkpt lat="49.280466" lon="-123.131084"/>
      <trkpt lat="49.280446" lon="-123.131115"/>
      <trkpt lat="49.280389" lon="-123.131205"/>
      <trkpt lat="49.280328" lon="-123.131294"/>
      <trkpt lat="49.280041" lon="-123.131736"/>
      <trkpt lat="49.279736" lon="-123.132204"/>
      <trkpt lat="49.279691" lon="-123.132274"/>
      <trkpt lat="49.279641" lon="-123.132352"/>
      <trkpt lat="49.279338" lon="-123.132802"/>
      <trkpt lat="49.279208" lon="-123.132996"/>
      <trkpt lat="49.279031" lon="-123.133260"/>
      <trkpt lat="49.278977" lon="-123.133343"/>
      <trkpt lat="49.278935" lon="-123.133410"/>
      <trkpt lat="49.278631" lon="-123.133871"/>
      <trkpt lat="49.278556" lon="-123.133984"/>
      <trkpt lat="49.278533" lon="-123.134018"/>
      <trkpt lat="49.278363" lon="-123.134277"/>
      <trkpt lat="49.278340" lon="-123.134312"/>
      <trkpt lat="49.278324" lon="-123.134335"/>
      <trkpt lat="49.278285" lon="-123.134394"/>
      <trkpt lat="49.278240" lon="-123.134324"/>
      <trkpt lat="49.278220" lon="-123.134295"/>
      <trkpt lat="49.277839" lon="-123.133718"/>
      <trkpt lat="49.277689" lon="-123.133491"/>
      <trkpt lat="49.277411" lon="-123.133050"/>
      <trkpt lat="49.277297" lon="-123.132869"/>
      <trkpt lat="49.277114" lon="-123.132580"/>
      <trkpt lat="49.277100" lon="-123.132558"/>
      <trkpt lat="49.277065" lon="-123.132509"/>
      <trkpt lat="49.276987" lon="-123.132402"/>
      <trkpt lat="49.276930" lon="-123.132506"/>
      <trkpt lat="49.276879" lon="-123.132599"/>
      <trkpt lat="49.276687" lon="-123.133193"/>
      <trkpt lat="49.274861" lon="-123.138853"/>
      <trkpt lat="49.273243" lon="-123.143869"/>
      <trkpt lat="49.273151" lon="-123.144143"/>
      <trkpt lat="49.273145" lon="-123.144273"/>
      <trkpt lat="49.273096" lon="-123.144439"/>
      <trkpt lat="49.273020" lon="-123.144592"/>
      <trkpt lat="49.272950" lon="-123.144719"/>
      <trkpt lat="49.272858" lon="-123.144871"/>
      <trkpt lat="49.272699" lon="-123.145065"/>
      <trkpt lat="49.272547" lon="-123.145212"/>
      <trkpt lat="49.272434" lon="-123.145281"/>
      <trkpt lat="49.272310" lon="-123.145284"/>
      <trkpt lat="49.272258" lon="-123.145311"/>
      <trkpt lat="49.272205" lon="-123.145335"/>
      <trkpt lat="49.272140" lon="-123.145364"/>
      <trkpt lat="49.271983" lon="-123.145418"/>
      <trkpt lat="49.271809" lon="-123.145449"/>
      <trkpt lat="49.271561" lon="-123.145463"/>
      <trkpt lat="49.270782" lon="-123.145487"/>
      <trkpt lat="49.270748" lon="-123.145488"/>
      <trkpt lat="49.270662" lon="-123.145493"/>
      <trkpt lat="49.270587" lon="-123.145501"/>
      <trkpt lat="49.270556" lon="-123.145504"/>
      <trkpt lat="49.270309" lon="-123.145522"/>
      <trkpt lat="49.270221" lon="-123.145529"/>
      <trkpt lat="49.270122" lon="-123.145537"/>
      <trkpt lat="49.269961" lon="-123.145544"/>
      <trkpt lat="49.269787" lon="-123.145556"/>
      <trkpt lat="49.269418" lon="-123.145584"/>
      <trkpt lat="49.269351" lon="-123.145587"/>
      <trkpt lat="49.269238" lon="-123.145592"/>
      <trkpt lat="49.268911" lon="-123.145609"/>
      <trkpt lat="49.268687" lon="-123.145618"/>
      <trkpt lat="49.268464" lon="-123.145621"/>
      <trkpt lat="49.268169" lon="-123.145631"/>
      <trkpt lat="49.268129" lon="-123.145631"/>
      <trkpt lat="49.268022" lon="-123.145632"/>
      <trkpt lat="49.268024" lon="-123.145788"/>
      <trkpt lat="49.268025" lon="-123.145835"/>
      <trkpt lat="49.268026" lon="-123.145872"/>
      <trkpt lat="49.268053" lon="-123.147375"/>
      <trkpt lat="49.268058" lon="-123.147641"/>
      <trkpt lat="49.268061" lon="-123.147833"/>
      <trkpt lat="49.268062" lon="-123.147873"/>
      <trkpt lat="49.268063" lon="-123.147981"/>
      <trkpt lat="49.268064" lon="-123.148080"/>
      <trkpt lat="49.268065" lon="-123.148127"/>
      <trkpt lat="49.268093" lon="-123.150201"/>
      <trkpt lat="49.268094" lon="-123.150251"/>
      <trkpt lat="49.268096" lon="-123.150384"/>
      <trkpt lat="49.268098" lon="-123.150504"/>
      <trkpt lat="49.268099" lon="-123.150559"/>
      <trkpt lat="49.268136" lon="-123.152685"/>
      <trkpt lat="49.268138" lon="-123.152795"/>
      <trkpt lat="49.268039" lon="-123.152787"/>
      <trkpt lat="49.267717" lon="-123.152801"/>
      <trkpt lat="49.267365" lon="-123.152815"/>
      <trkpt lat="49.267281" lon="-123.152818"/>
      <trkpt lat="49.267197" lon="-123.152821"/>
      <trkpt lat="49.266491" lon="-123.152848"/>
      <trkpt lat="49.266422" lon="-123.152850"/>
      <trkpt lat="49.266358" lon="-123.152851"/>
      <trkpt lat="49.265821" lon="-123.152877"/>
      <trkpt lat="49.265651" lon="-123.152937"/>
      <trkpt lat="49.265604" lon="-123.152943"/>
      <trkpt lat="49.265578" lon="-123.152942"/>
      <trkpt lat="49.265554" lon="-123.152941"/>
      <trkpt lat="49.265519" lon="-123.152933"/>
      <trkpt lat="49.265423" lon="-123.152917"/>
      <trkpt lat="49.265370" lon="-123.152887"/>
      <trkpt lat="49.264812" lon="-123.152907"/>
      <trkpt lat="49.264742" lon="-123.152911"/>
      <trkpt lat="49.264263" lon="-123.152929"/>
      <trkpt lat="49.264066" lon="-123.152935"/>
      <trkpt lat="49.263989" lon="-123.152938"/>
      <trkpt lat="49.263963" lon="-123.152939"/>
      <trkpt lat="49.263844" lon="-123.152941"/>
      <trkpt lat="49.263704" lon="-123.152948"/>
      <trkpt lat="49.263668" lon="-123.152949"/>
      <trkpt lat="49.263325" lon="-123.152963"/>
      <trkpt lat="49.263285" lon="-123.152965"/>
      <trkpt lat="49.262974" lon="-123.152978"/>
      <trkpt lat="49.262948" lon="-123.152979"/>
      <trkpt lat="49.262866" lon="-123.152982"/>
      <trkpt lat="49.262807" lon="-123.152985"/>
      <trkpt lat="49.262772" lon="-123.152987"/>
      <trkpt lat="49.262606" lon="-123.152998"/>
      <trkpt lat="49.262528" lon="-123.153054"/>
      <trkpt lat="49.262060" lon="-123.153084"/>
      <trkpt lat="49.262031" lon="-123.153087"/>
      <trkpt lat="49.261952" lon="-123.153090"/>
      <trkpt lat="49.261869" lon="-123.153090"/>
      <trkpt lat="49.261764" lon="-123.153098"/>
      <trkpt lat="49.261694" lon="-123.153041"/>
      <trkpt lat="49.261560" lon="-123.153047"/>
      <trkpt lat="49.261093" lon="-123.153067"/>
      <trkpt lat="49.261006" lon="-123.153065"/>
      <trkpt lat="49.260926" lon="-123.153067"/>
      <trkpt lat="49.260530" lon="-123.153088"/>
      <trkpt lat="49.260066" lon="-123.153096"/>
      <trkpt lat="49.259606" lon="-123.153109"/>
      <trkpt lat="49.259546" lon="-123.153110"/>
      <trkpt lat="49.259430" lon="-123.153113"/>
      <trkpt lat="49.259144" lon="-123.153121"/>
      <trkpt lat="49.258687" lon="-123.153115"/>
      <trkpt lat="49.258615" lon="-123.153171"/>
      <trkpt lat="49.258224" lon="-123.153136"/>
      <trkpt lat="49.258223" lon="-123.153242"/>
      <trkpt lat="49.258225" lon="-123.153315"/>
      <trkpt lat="49.258234" lon="-123.153870"/>
      <trkpt lat="49.258262" lon="-123.155424"/>
      <trkpt lat="49.258262" lon="-123.155466"/>
      <trkpt lat="49.258274" lon="-123.155469"/>
      <trkpt lat="49.258286" lon="-123.155477"/>
      <trkpt lat="49.258296" lon="-123.155490"/>
      <trkpt lat="49.258302" lon="-123.155508"/>
      <trkpt lat="49.258305" lon="-123.155527"/>
      <trkpt lat="49.258304" lon="-123.155548"/>
      <trkpt lat="49.258298" lon="-123.155567"/>
      <trkpt lat="49.258289" lon="-123.155582"/>
      <trkpt lat="49.258276" lon="-123.155592"/>
      <trkpt lat="49.258264" lon="-123.155594"/>
      <trkpt lat="49.258250" lon="-123.155592"/>
      <trkpt lat="49.258238" lon="-123.155583"/>
      <trkpt lat="49.258229" lon="-123.155568"/>
      <trkpt lat="49.258223" lon="-123.155550"/>
      <trkpt lat="49.258221" lon="-123.155530"/>
      <trkpt lat="49.258196" lon="-123.155531"/>
      <trkpt lat="49.257802" lon="-123.155545"/>
      <trkpt lat="49.257427" lon="-123.155554"/>
      <trkpt lat="49.257398" lon="-123.155555"/>
      <trkpt lat="49.257328" lon="-123.155558"/>
      <trkpt lat="49.257247" lon="-123.155562"/>
      <trkpt lat="49.257217" lon="-123.155564"/>
      <trkpt lat="49.256776" lon="-123.155587"/>
      <trkpt lat="49.256314" lon="-123.155602"/>
      <trkpt lat="49.256250" lon="-123.155604"/>
      <trkpt lat="49.256182" lon="-123.155606"/>
      <trkpt lat="49.255799" lon="-123.155620"/>
      <trkpt lat="49.255430" lon="-123.155630"/>
      <trkpt lat="49.255411" lon="-123.155631"/>
      <trkpt lat="49.255346" lon="-123.155632"/>
      <trkpt lat="49.255278" lon="-123.155634"/>
      <trkpt lat="49.255261" lon="-123.155635"/>
      <trkpt lat="49.254893" lon="-123.155650"/>
      <trkpt lat="49.254507" lon="-123.155661"/>
      <trkpt lat="49.254443" lon="-123.155663"/>
      <trkpt lat="49.254374" lon="-123.155666"/>
      <trkpt lat="49.253989" lon="-123.155687"/>
      <trkpt lat="49.253618" lon="-123.155697"/>
      <trkpt lat="49.253607" lon="-123.155697"/>
      <trkpt lat="49.253604" lon="-123.155698"/>
      <trkpt lat="49.253537" lon="-123.155699"/>
      <trkpt lat="49.253469" lon="-123.155701"/>
      <trkpt lat="49.253448" lon="-123.155702"/>
      <trkpt lat="49.253085" lon="-123.155724"/>
      <trkpt lat="49.252699" lon="-123.155731"/>
      <trkpt lat="49.252632" lon="-123.155733"/>
      <trkpt lat="49.252565" lon="-123.155735"/>
      <trkpt lat="49.252181" lon="-123.155754"/>
      <trkpt lat="49.251801" lon="-123.155771"/>
      <trkpt lat="49.251733" lon="-123.155773"/>
      <trkpt lat="49.251527" lon="-123.155775"/>
      <trkpt lat="49.251361" lon="-123.155773"/>
      <trkpt lat="49.251341" lon="-123.155773"/>
      <trkpt lat="49.251274" lon="-123.155756"/>
      <trkpt lat="49.249918" lon="-123.159233"/>
      <trkpt lat="49.249900" lon="-123.159283"/>
      <trkpt lat="49.249867" lon="-123.159366"/>
      <trkpt lat="49.249830" lon="-123.159461"/>
      <trkpt lat="49.248629" lon="-123.162500"/>
      <trkpt lat="49.248600" lon="-123.162576"/>
      <trkpt lat="49.248581" lon="-123.162635"/>
      <trkpt lat="49.248512" lon="-123.162840"/>
      <trkpt lat="49.248452" lon="-123.163016"/>
      <trkpt lat="49.248402" lon="-123.163181"/>
      <trkpt lat="49.248334" lon="-123.163434"/>
      <trkpt lat="49.248278" lon="-123.163696"/>
      <trkpt lat="49.248234" lon="-123.163957"/>
      <trkpt lat="49.248207" lon="-123.164190"/>
      <trkpt lat="49.248185" lon="-123.164438"/>
      <trkpt lat="49.248174" lon="-123.164686"/>
      <trkpt lat="49.248173" lon="-123.165081"/>
      <trkpt lat="49.248171" lon="-123.165333"/>
      <trkpt lat="49.248170" lon="-123.165401"/>
      <trkpt lat="49.248171" lon="-123.165514"/>
      <trkpt lat="49.248183" lon="-123.167330"/>
      <trkpt lat="49.248185" lon="-123.167548"/>
      <trkpt lat="49.248198" lon="-123.167723"/>
      <trkpt lat="49.248202" lon="-123.167764"/>
      <trkpt lat="49.248222" lon="-123.167872"/>
      <trkpt lat="49.248251" lon="-123.167991"/>
      <trkpt lat="49.248301" lon="-123.168136"/>
      <trkpt lat="49.248382" lon="-123.168307"/>
      <trkpt lat="49.248393" lon="-123.168327"/>
      <trkpt lat="49.248634" lon="-123.168761"/>
      <trkpt lat="49.249332" lon="-123.170017"/>
      <trkpt lat="49.249559" lon="-123.170456"/>
      <trkpt lat="49.249780" lon="-123.170855"/>
      <trkpt lat="49.249925" lon="-123.171141"/>
      <trkpt lat="49.250034" lon="-123.171436"/>
      <trkpt lat="49.250092" lon="-123.171713"/>
      <trkpt lat="49.250108" lon="-123.171842"/>
      <trkpt lat="49.250120" lon="-123.172056"/>
      <trkpt lat="49.250122" lon="-123.172116"/>
      <trkpt lat="49.250124" lon="-123.172214"/>
      <trkpt lat="49.250123" lon="-123.172354"/>
      <trkpt lat="49.250130" lon="-123.175583"/>
      <trkpt lat="49.250130" lon="-123.175704"/>
      <trkpt lat="49.249929" lon="-123.175706"/>
      <trkpt lat="49.249863" lon="-123.175705"/>
      <trkpt lat="49.249846" lon="-123.175705"/>
      <trkpt lat="49.249464" lon="-123.175705"/>
      <trkpt lat="49.249062" lon="-123.175708"/>
      <trkpt lat="49.249037" lon="-123.175708"/>
      <trkpt lat="49.249034" lon="-123.175738"/>
      <trkpt lat="49.249023" lon="-123.175763"/>
      <trkpt lat="49.249007" lon="-123.175780"/>
      <trkpt lat="49.248988" lon="-123.175786"/>
      <trkpt lat="49.248969" lon="-123.175780"/>
      <trkpt lat="49.248953" lon="-123.175763"/>
      <trkpt lat="49.248942" lon="-123.175738"/>
      <trkpt lat="49.248939" lon="-123.175709"/>
      <trkpt lat="49.248911" lon="-123.175708"/>
      <trkpt lat="49.248516" lon="-123.175713"/>
      <trkpt lat="49.248115" lon="-123.175719"/>
      <trkpt lat="49.248038" lon="-123.175720"/>
      <trkpt lat="49.247968" lon="-123.175720"/>
      <trkpt lat="49.247558" lon="-123.175726"/>
      <trkpt lat="49.247161" lon="-123.175731"/>
      <trkpt lat="49.247134" lon="-123.175731"/>
      <trkpt lat="49.247130" lon="-123.175760"/>
      <trkpt lat="49.247120" lon="-123.175784"/>
      <trkpt lat="49.247104" lon="-123.175800"/>
      <trkpt lat="49.247085" lon="-123.175806"/>
      <trkpt lat="49.247067" lon="-123.175800"/>
      <trkpt lat="49.247051" lon="-123.175784"/>
      <trkpt lat="49.247041" lon="-123.175759"/>
      <trkpt lat="49.247037" lon="-123.175731"/>
      <trkpt lat="49.247015" lon="-123.175730"/>
      <trkpt lat="49.246616" lon="-123.175732"/>
      <trkpt lat="49.246214" lon="-123.175734"/>
      <trkpt lat="49.246139" lon="-123.175735"/>
      <trkpt lat="49.246064" lon="-123.175734"/>
      <trkpt lat="49.245669" lon="-123.175732"/>
      <trkpt lat="49.245421" lon="-123.175732"/>
      <trkpt lat="49.245265" lon="-123.175732"/>
      <trkpt lat="49.245234" lon="-123.175740"/>
      <trkpt lat="49.245212" lon="-123.175757"/>
      <trkpt lat="49.245195" lon="-123.175802"/>
      <trkpt lat="49.245189" lon="-123.175864"/>
      <trkpt lat="49.245200" lon="-123.177953"/>
      <trkpt lat="49.245203" lon="-123.178487"/>
      <trkpt lat="49.245203" lon="-123.178538"/>
      <trkpt lat="49.245204" lon="-123.178650"/>
      <trkpt lat="49.244330" lon="-123.178653"/>
      <trkpt lat="49.244255" lon="-123.178653"/>
      <trkpt lat="49.244182" lon="-123.178654"/>
      <trkpt lat="49.243303" lon="-123.178654"/>
      <trkpt lat="49.242445" lon="-123.178662"/>
      <trkpt lat="49.242425" lon="-123.178662"/>
      <trkpt lat="49.242347" lon="-123.178663"/>
      <trkpt lat="49.242347" lon="-123.178564"/>
      <trkpt lat="49.242347" lon="-123.178533"/>
      <trkpt lat="49.242344" lon="-123.177972"/>
      <trkpt lat="49.242337" lon="-123.175889"/>
      <trkpt lat="49.242337" lon="-123.175772"/>
      <trkpt lat="49.242337" lon="-123.175663"/>
      <trkpt lat="49.242331" lon="-123.173124"/>
      <trkpt lat="49.242330" lon="-123.173014"/>
      <trkpt lat="49.242317" lon="-123.170414"/>
      <trkpt lat="49.242317" lon="-123.170360"/>
      <trkpt lat="49.242317" lon="-123.170254"/>
      <trkpt lat="49.242316" lon="-123.170142"/>
      <trkpt lat="49.242316" lon="-123.170104"/>
      <trkpt lat="49.242314" lon="-123.168003"/>
      <trkpt lat="49.242313" lon="-123.167896"/>
      <trkpt lat="49.242306" lon="-123.165729"/>
      <trkpt lat="49.242306" lon="-123.165620"/>
      <trkpt lat="49.242305" lon="-123.165513"/>
      <trkpt lat="49.242294" lon="-123.164092"/>
      <trkpt lat="49.242268" lon="-123.162650"/>
      <trkpt lat="49.242267" lon="-123.162598"/>
      <trkpt lat="49.242265" lon="-123.162495"/>
      <trkpt lat="49.242173" lon="-123.162498"/>
      <trkpt lat="49.242156" lon="-123.162499"/>
      <trkpt lat="49.241793" lon="-123.162511"/>
      <trkpt lat="49.241387" lon="-123.162524"/>
      <trkpt lat="49.241312" lon="-123.162527"/>
      <trkpt lat="49.241236" lon="-123.162529"/>
      <trkpt lat="49.240841" lon="-123.162542"/>
      <trkpt lat="49.240437" lon="-123.162555"/>
      <trkpt lat="49.240366" lon="-123.162558"/>
      <trkpt lat="49.240289" lon="-123.162560"/>
      <trkpt lat="49.239880" lon="-123.162574"/>
      <trkpt lat="49.239394" lon="-123.162590"/>
      <trkpt lat="49.238908" lon="-123.162606"/>
      <trkpt lat="49.238511" lon="-123.162619"/>
      <trkpt lat="49.238484" lon="-123.162620"/>
      <trkpt lat="49.238416" lon="-123.162622"/>
      <trkpt lat="49.238349" lon="-123.162624"/>
      <trkpt lat="49.238321" lon="-123.162625"/>
      <trkpt lat="49.237943" lon="-123.162638"/>
      <trkpt lat="49.237215" lon="-123.162662"/>
      <trkpt lat="49.236624" lon="-123.162681"/>
      <trkpt lat="49.236549" lon="-123.162684"/>
      <trkpt lat="49.236479" lon="-123.162686"/>
      <trkpt lat="49.235156" lon="-123.162729"/>
      <trkpt lat="49.234778" lon="-123.162742"/>
      <trkpt lat="49.234682" lon="-123.162745"/>
      <trkpt lat="49.234680" lon="-123.162655"/>
      <trkpt lat="49.234671" lon="-123.162042"/>
      <trkpt lat="49.234664" lon="-123.161510"/>
      <trkpt lat="49.234664" lon="-123.161458"/>
      <trkpt lat="49.234661" lon="-123.161345"/>
      <trkpt lat="49.234761" lon="-123.161341"/>
      <trkpt lat="49.234783" lon="-123.161339"/>
      <trkpt lat="49.235137" lon="-123.161325"/>
      <trkpt lat="49.235778" lon="-123.161300"/>
      <trkpt lat="49.236458" lon="-123.161275"/>
      <trkpt lat="49.236532" lon="-123.161272"/>
      <trkpt lat="49.236530" lon="-123.161173"/>
      <trkpt lat="49.236529" lon="-123.161138"/>
      <trkpt lat="49.236517" lon="-123.160561"/>
      <trkpt lat="49.236509" lon="-123.159989"/>
      <trkpt lat="49.236507" lon="-123.159879"/>
      <trkpt lat="49.236505" lon="-123.159763"/>
      <trkpt lat="49.236496" lon="-123.159155"/>
      <trkpt lat="49.236488" lon="-123.158581"/>
      <trkpt lat="49.236486" lon="-123.158465"/>
      <trkpt lat="49.236484" lon="-123.158356"/>
      <trkpt lat="49.236476" lon="-123.157824"/>
      <trkpt lat="49.236451" lon="-123.156161"/>
      <trkpt lat="49.236444" lon="-123.155699"/>
      <trkpt lat="49.236443" lon="-123.155630"/>
      <trkpt lat="49.236442" lon="-123.155523"/>
      <trkpt lat="49.236534" lon="-123.155519"/>
      <trkpt lat="49.237328" lon="-123.155489"/>
      <trkpt lat="49.237344" lon="-123.155488"/>
      <trkpt lat="49.238072" lon="-123.155464"/>
      <trkpt lat="49.238235" lon="-123.155461"/>
      <trkpt lat="49.238306" lon="-123.155458"/>
      <trkpt lat="49.238379" lon="-123.155455"/>
      <trkpt lat="49.238795" lon="-123.155436"/>
      <trkpt lat="49.239285" lon="-123.155408"/>
      <trkpt lat="49.239343" lon="-123.155406"/>
      <trkpt lat="49.239766" lon="-123.155390"/>
      <trkpt lat="49.240109" lon="-123.155373"/>
      <trkpt lat="49.240241" lon="-123.155361"/>
      <trkpt lat="49.240410" lon="-123.155296"/>
      <trkpt lat="49.240535" lon="-123.155200"/>
      <trkpt lat="49.240636" lon="-123.155085"/>
      <trkpt lat="49.240987" lon="-123.154608"/>
      <trkpt lat="49.241128" lon="-123.154414"/>
      <trkpt lat="49.241644" lon="-123.153693"/>
      <trkpt lat="49.241766" lon="-123.153577"/>
      <trkpt lat="49.241910" lon="-123.153514"/>
      <trkpt lat="49.242016" lon="-123.153484"/>
      <trkpt lat="49.242104" lon="-123.153480"/>
      <trkpt lat="49.242098" lon="-123.153354"/>
      <trkpt lat="49.242085" lon="-123.152258"/>
      <trkpt lat="49.242071" lon="-123.151596"/>
      <trkpt lat="49.242055" lon="-123.150552"/>
      <trkpt lat="49.242042" lon="-123.149581"/>
      <trkpt lat="49.242039" lon="-123.149458"/>
      <trkpt lat="49.242037" lon="-123.149331"/>
      <trkpt lat="49.242004" lon="-123.147272"/>
      <trkpt lat="49.242003" lon="-123.147174"/>
      <trkpt lat="49.242001" lon="-123.147022"/>
      <trkpt lat="49.241997" lon="-123.146818"/>
      <trkpt lat="49.241996" lon="-123.146743"/>
      <trkpt lat="49.241989" lon="-123.146273"/>
      <trkpt lat="49.241977" lon="-123.145685"/>
      <trkpt lat="49.241974" lon="-123.145549"/>
      <trkpt lat="49.241971" lon="-123.145418"/>
      <trkpt lat="49.241960" lon="-123.144834"/>
      <trkpt lat="49.241950" lon="-123.144239"/>
      <trkpt lat="49.241949" lon="-123.144129"/>
      <trkpt lat="49.241947" lon="-123.144028"/>
      <trkpt lat="49.241938" lon="-123.143278"/>
      <trkpt lat="49.241927" lon="-123.142488"/>
      <trkpt lat="49.241925" lon="-123.142360"/>
      <trkpt lat="49.241924" lon="-123.142236"/>
      <trkpt lat="49.241894" lon="-123.140283"/>
      <trkpt lat="49.241882" lon="-123.139513"/>
      <trkpt lat="49.241876" lon="-123.139349"/>
      <trkpt lat="49.241871" lon="-123.139203"/>
      <trkpt lat="49.241850" lon="-123.138586"/>
      <trkpt lat="49.241844" lon="-123.138417"/>
      <trkpt lat="49.241789" lon="-123.136946"/>
      <trkpt lat="49.241705" lon="-123.134688"/>
      <trkpt lat="49.241701" lon="-123.134576"/>
      <trkpt lat="49.241698" lon="-123.134483"/>
      <trkpt lat="49.241621" lon="-123.132422"/>
      <trkpt lat="49.241617" lon="-123.132299"/>
      <trkpt lat="49.241613" lon="-123.132195"/>
      <trkpt lat="49.241562" lon="-123.130834"/>
      <trkpt lat="49.241536" lon="-123.130124"/>
      <trkpt lat="49.241511" lon="-123.129443"/>
      <trkpt lat="49.241477" lon="-123.128535"/>
      <trkpt lat="49.241456" lon="-123.127974"/>
      <trkpt lat="49.241451" lon="-123.127833"/>
      <trkpt lat="49.241444" lon="-123.127688"/>
      <trkpt lat="49.241411" lon="-123.127116"/>
      <trkpt lat="49.241328" lon="-123.124999"/>
      <trkpt lat="49.241294" lon="-123.124096"/>
      <trkpt lat="49.241283" lon="-123.123817"/>
      <trkpt lat="49.241282" lon="-123.123791"/>
      <trkpt lat="49.241280" lon="-123.123735"/>
      <trkpt lat="49.241276" lon="-123.123621"/>
      <trkpt lat="49.241272" lon="-123.123519"/>
      <trkpt lat="49.241270" lon="-123.123462"/>
      <trkpt lat="49.241250" lon="-123.122910"/>
      <trkpt lat="49.241244" lon="-123.122758"/>
      <trkpt lat="49.241226" lon="-123.122243"/>
      <trkpt lat="49.241203" lon="-123.121613"/>
      <trkpt lat="49.241180" lon="-123.120985"/>
      <trkpt lat="49.241175" lon="-123.120847"/>
      <trkpt lat="49.241173" lon="-123.120794"/>
      <trkpt lat="49.241169" lon="-123.120661"/>
      <trkpt lat="49.241164" lon="-123.120547"/>
      <trkpt lat="49.241163" lon="-123.120498"/>
      <trkpt lat="49.241132" lon="-123.119695"/>
      <trkpt lat="49.241117" lon="-123.119294"/>
      <trkpt lat="49.241096" lon="-123.118732"/>
      <trkpt lat="49.241095" lon="-123.118703"/>
      <trkpt lat="49.241091" lon="-123.118579"/>
      <trkpt lat="49.241080" lon="-123.118307"/>
      <trkpt lat="49.241075" lon="-123.118177"/>
      <trkpt lat="49.241073" lon="-123.118124"/>
      <trkpt lat="49.241051" lon="-123.117514"/>
      <trkpt lat="49.241029" lon="-123.116941"/>
      <trkpt lat="49.241021" lon="-123.116724"/>
      <trkpt lat="49.240998" lon="-123.116527"/>
      <trkpt lat="49.240987" lon="-123.116380"/>
      <trkpt lat="49.240984" lon="-123.116354"/>
      <trkpt lat="49.240969" lon="-123.116223"/>
      <trkpt lat="49.240931" lon="-123.116067"/>
      <trkpt lat="49.240895" lon="-123.115958"/>
      <trkpt lat="49.240890" lon="-123.115836"/>
      <trkpt lat="49.241027" lon="-123.116094"/>
      <trkpt lat="49.241185" lon="-123.116409"/>
      <trkpt lat="49.241150" lon="-123.116455"/>
      <trkpt lat="49.241063" lon="-123.116571"/>
      <trkpt lat="49.241034" lon="-123.116629"/>
      <trkpt lat="49.241021" lon="-123.116724"/>
      <trkpt lat="49.241029" lon="-123.116941"/>
      <trkpt lat="49.240961" lon="-123.116867"/>
      <trkpt lat="49.240949" lon="-123.116854"/>
      <trkpt lat="49.239692" lon="-123.115445"/>
      <trkpt lat="49.239642" lon="-123.115390"/>
      <trkpt lat="49.239352" lon="-123.115077"/>
      <trkpt lat="49.239004" lon="-123.114698"/>
      <trkpt lat="49.238863" lon="-123.114596"/>
      <trkpt lat="49.238638" lon="-123.114513"/>
      <trkpt lat="49.238496" lon="-123.114505"/>
      <trkpt lat="49.237761" lon="-123.114485"/>
      <trkpt lat="49.237752" lon="-123.114485"/>
      <trkpt lat="49.237222" lon="-123.114483"/>
      <trkpt lat="49.237200" lon="-123.114483"/>
      <trkpt lat="49.237130" lon="-123.114480"/>
      <trkpt lat="49.237060" lon="-123.113644"/>
      <trkpt lat="49.237039" lon="-123.113392"/>
      <trkpt lat="49.237031" lon="-123.113284"/>
      <trkpt lat="49.237023" lon="-123.113184"/>
      <trkpt lat="49.236997" lon="-123.112806"/>
      <trkpt lat="49.237003" lon="-123.112596"/>
      <trkpt lat="49.237013" lon="-123.112471"/>
      <trkpt lat="49.237048" lon="-123.112010"/>
      <trkpt lat="49.237057" lon="-123.111909"/>
      <trkpt lat="49.237065" lon="-123.111816"/>
      <trkpt lat="49.237106" lon="-123.111418"/>
      <trkpt lat="49.237124" lon="-123.111236"/>
      <trkpt lat="49.237113" lon="-123.111236"/>
      <trkpt lat="49.235784" lon="-123.111296"/>
      <trkpt lat="49.235710" lon="-123.111300"/>
      <trkpt lat="49.235695" lon="-123.110777"/>
      <trkpt lat="49.235695" lon="-123.110755"/>
      <trkpt lat="49.235691" lon="-123.110651"/>
      <trkpt lat="49.235687" lon="-123.110550"/>
      <trkpt lat="49.235687" lon="-123.110531"/>
      <trkpt lat="49.235664" lon="-123.109996"/>
      <trkpt lat="49.235648" lon="-123.109449"/>
      <trkpt lat="49.235645" lon="-123.109326"/>
      <trkpt lat="49.235642" lon="-123.109242"/>
      <trkpt lat="49.235606" lon="-123.108139"/>
      <trkpt lat="49.235602" lon="-123.108035"/>
      <trkpt lat="49.235599" lon="-123.107930"/>
      <trkpt lat="49.235532" lon="-123.106194"/>
      <trkpt lat="49.235517" lon="-123.105710"/>
      <trkpt lat="49.235516" lon="-123.105681"/>
      <trkpt lat="49.235513" lon="-123.105572"/>
      <trkpt lat="49.235511" lon="-123.105464"/>
      <trkpt lat="49.235510" lon="-123.105439"/>
      <trkpt lat="49.235474" lon="-123.103739"/>
      <trkpt lat="49.235472" lon="-123.103621"/>
      <trkpt lat="49.235470" lon="-123.103533"/>
      <trkpt lat="49.235447" lon="-123.102257"/>
      <trkpt lat="49.235440" lon="-123.101793"/>
      <trkpt lat="49.235439" lon="-123.101757"/>
      <trkpt lat="49.235440" lon="-123.101604"/>
      <trkpt lat="49.235512" lon="-123.101604"/>
      <trkpt lat="49.236342" lon="-123.101636"/>
      <trkpt lat="49.236763" lon="-123.101654"/>
      <trkpt lat="49.237144" lon="-123.101653"/>
      <trkpt lat="49.237170" lon="-123.101651"/>
      <trkpt lat="49.237185" lon="-123.101650"/>
      <trkpt lat="49.237225" lon="-123.101648"/>
      <trkpt lat="49.237245" lon="-123.101647"/>
      <trkpt lat="49.237273" lon="-123.101646"/>
      <trkpt lat="49.237310" lon="-123.101644"/>
      <trkpt lat="49.237327" lon="-123.101643"/>
      <trkpt lat="49.237356" lon="-123.101641"/>
      <trkpt lat="49.237576" lon="-123.101632"/>
      <trkpt lat="49.238055" lon="-123.101611"/>
      <trkpt lat="49.238083" lon="-123.101610"/>
      <trkpt lat="49.238153" lon="-123.101607"/>
      <trkpt lat="49.238229" lon="-123.101605"/>
      <trkpt lat="49.238257" lon="-123.101604"/>
      <trkpt lat="49.239060" lon="-123.101569"/>
      <trkpt lat="49.240169" lon="-123.101503"/>
      <trkpt lat="49.240396" lon="-123.101490"/>
      <trkpt lat="49.240419" lon="-123.101489"/>
      <trkpt lat="49.240507" lon="-123.101486"/>
      <trkpt lat="49.240505" lon="-123.101316"/>
      <trkpt lat="49.240504" lon="-123.101284"/>
      <trkpt lat="49.240494" lon="-123.100852"/>
      <trkpt lat="49.240478" lon="-123.100117"/>
      <trkpt lat="49.240465" lon="-123.099493"/>
      <trkpt lat="49.240464" lon="-123.099420"/>
      <trkpt lat="49.240453" lon="-123.098935"/>
      <trkpt lat="49.240452" lon="-123.098812"/>
      <trkpt lat="49.240418" lon="-123.097082"/>
      <trkpt lat="49.240418" lon="-123.097037"/>
      <trkpt lat="49.240416" lon="-123.096925"/>
      <trkpt lat="49.240413" lon="-123.096834"/>
      <trkpt lat="49.240413" lon="-123.096806"/>
      <trkpt lat="49.240348" lon="-123.093401"/>
      <trkpt lat="49.240346" lon="-123.093299"/>
      <trkpt lat="49.240344" lon="-123.093154"/>
      <trkpt lat="49.240325" lon="-123.091619"/>
      <trkpt lat="49.240312" lon="-123.090563"/>
      <trkpt lat="49.240312" lon="-123.090523"/>
      <trkpt lat="49.240307" lon="-123.090351"/>
      <trkpt lat="49.240306" lon="-123.090210"/>
      <trkpt lat="49.240305" lon="-123.090160"/>
      <trkpt lat="49.240300" lon="-123.089748"/>
      <trkpt lat="49.240296" lon="-123.089240"/>
      <trkpt lat="49.240295" lon="-123.089151"/>
      <trkpt lat="49.240294" lon="-123.089064"/>
      <trkpt lat="49.240285" lon="-123.088077"/>
      <trkpt lat="49.240284" lon="-123.087964"/>
      <trkpt lat="49.240284" lon="-123.087857"/>
      <trkpt lat="49.240278" lon="-123.086924"/>
      <trkpt lat="49.240277" lon="-123.086835"/>
      <trkpt lat="49.240277" lon="-123.086757"/>
      <trkpt lat="49.240274" lon="-123.086173"/>
      <trkpt lat="49.240273" lon="-123.086064"/>
      <trkpt lat="49.240273" lon="-123.085954"/>
      <trkpt lat="49.240272" lon="-123.085809"/>
      <trkpt lat="49.240271" lon="-123.085719"/>
      <trkpt lat="49.240271" lon="-123.085642"/>
      <trkpt lat="49.240271" lon="-123.084746"/>
      <trkpt lat="49.240271" lon="-123.084705"/>
      <trkpt lat="49.240270" lon="-123.084614"/>
      <trkpt lat="49.240269" lon="-123.084523"/>
      <trkpt lat="49.240269" lon="-123.084477"/>
      <trkpt lat="49.240268" lon="-123.084245"/>
      <trkpt lat="49.240267" lon="-123.084103"/>
      <trkpt lat="49.240266" lon="-123.084012"/>
      <trkpt lat="49.240263" lon="-123.083590"/>
      <trkpt lat="49.240263" lon="-123.083498"/>
      <trkpt lat="49.240262" lon="-123.083420"/>
      <trkpt lat="49.240257" lon="-123.082962"/>
      <trkpt lat="49.240257" lon="-123.082840"/>
      <trkpt lat="49.240256" lon="-123.082735"/>
      <trkpt lat="49.240253" lon="-123.082487"/>
      <trkpt lat="49.240252" lon="-123.082383"/>
      <trkpt lat="49.240252" lon="-123.082291"/>
      <trkpt lat="49.240246" lon="-123.081679"/>
      <trkpt lat="49.240246" lon="-123.081559"/>
      <trkpt lat="49.240244" lon="-123.081454"/>
      <trkpt lat="49.240244" lon="-123.081360"/>
      <trkpt lat="49.240243" lon="-123.081270"/>
      <trkpt lat="49.240242" lon="-123.081185"/>
      <trkpt lat="49.240240" lon="-123.080381"/>
      <trkpt lat="49.240239" lon="-123.080275"/>
      <trkpt lat="49.240238" lon="-123.080155"/>
      <trkpt lat="49.240238" lon="-123.080111"/>
      <trkpt lat="49.240232" lon="-123.079125"/>
      <trkpt lat="49.240232" lon="-123.079009"/>
      <trkpt lat="49.240231" lon="-123.078905"/>
      <trkpt lat="49.240222" lon="-123.077817"/>
      <trkpt lat="49.240221" lon="-123.077710"/>
      <trkpt lat="49.240220" lon="-123.077598"/>
      <trkpt lat="49.240215" lon="-123.077206"/>
      <trkpt lat="49.240214" lon="-123.077063"/>
      <trkpt lat="49.240211" lon="-123.076713"/>
      <trkpt lat="49.240210" lon="-123.076646"/>
      <trkpt lat="49.240210" lon="-123.076608"/>
      <trkpt lat="49.240209" lon="-123.076486"/>
      <trkpt lat="49.240205" lon="-123.076297"/>
      <trkpt lat="49.240291" lon="-123.076296"/>
      <trkpt lat="49.240655" lon="-123.076290"/>
      <trkpt lat="49.241486" lon="-123.076319"/>
      <trkpt lat="49.241671" lon="-123.076362"/>
      <trkpt lat="49.242504" lon="-123.076338"/>
      <trkpt lat="49.243047" lon="-123.076322"/>
      <trkpt lat="49.243678" lon="-123.076303"/>
      <trkpt lat="49.244477" lon="-123.076282"/>
      <trkpt lat="49.244509" lon="-123.076281"/>
      <trkpt lat="49.244566" lon="-123.076278"/>
      <trkpt lat="49.244640" lon="-123.076276"/>
      <trkpt lat="49.244661" lon="-123.076275"/>
      <trkpt lat="49.245409" lon="-123.076254"/>
      <trkpt lat="49.245987" lon="-123.076236"/>
      <trkpt lat="49.246430" lon="-123.076224"/>
      <trkpt lat="49.246926" lon="-123.076204"/>
      <trkpt lat="49.247006" lon="-123.076134"/>
      <trkpt lat="49.247474" lon="-123.076088"/>
      <trkpt lat="49.248027" lon="-123.076056"/>
      <trkpt lat="49.248385" lon="-123.076042"/>
      <trkpt lat="49.248413" lon="-123.076040"/>
      <trkpt lat="49.248481" lon="-123.076036"/>
      <trkpt lat="49.248564" lon="-123.076032"/>
      <trkpt lat="49.248633" lon="-123.076028"/>
      <trkpt lat="49.249252" lon="-123.076015"/>
      <trkpt lat="49.249860" lon="-123.076005"/>
      <trkpt lat="49.249892" lon="-123.076003"/>
      <trkpt lat="49.250010" lon="-123.075995"/>
      <trkpt lat="49.250130" lon="-123.075986"/>
      <trkpt lat="49.250227" lon="-123.075979"/>
      <trkpt lat="49.250428" lon="-123.075972"/>
      <trkpt lat="49.250717" lon="-123.075965"/>
      <trkpt lat="49.251015" lon="-123.075972"/>
      <trkpt lat="49.251183" lon="-123.075983"/>
      <trkpt lat="49.251694" lon="-123.075993"/>
      <trkpt lat="49.252154" lon="-123.075986"/>
      <trkpt lat="49.252600" lon="-123.075965"/>
      <trkpt lat="49.253053" lon="-123.075945"/>
      <trkpt lat="49.253423" lon="-123.075933"/>
      <trkpt lat="49.253448" lon="-123.075932"/>
      <trkpt lat="49.253508" lon="-123.075931"/>
      <trkpt lat="49.253573" lon="-123.075929"/>
      <trkpt lat="49.253948" lon="-123.075919"/>
      <trkpt lat="49.254405" lon="-123.075898"/>
      <trkpt lat="49.254856" lon="-123.075900"/>
      <trkpt lat="49.254875" lon="-123.075898"/>
      <trkpt lat="49.255330" lon="-123.075884"/>
      <trkpt lat="49.256036" lon="-123.075849"/>
      <trkpt lat="49.256209" lon="-123.075834"/>
      <trkpt lat="49.256501" lon="-123.075820"/>
      <trkpt lat="49.256532" lon="-123.075818"/>
      <trkpt lat="49.256601" lon="-123.075814"/>
      <trkpt lat="49.256675" lon="-123.075808"/>
      <trkpt lat="49.256804" lon="-123.075816"/>
      <trkpt lat="49.256915" lon="-123.075836"/>
      <trkpt lat="49.257026" lon="-123.075874"/>
      <trkpt lat="49.257147" lon="-123.075939"/>
      <trkpt lat="49.257251" lon="-123.076016"/>
      <trkpt lat="49.257353" lon="-123.076113"/>
      <trkpt lat="49.257451" lon="-123.076222"/>
      <trkpt lat="49.257518" lon="-123.076317"/>
      <trkpt lat="49.257626" lon="-123.076513"/>
      <trkpt lat="49.257804" lon="-123.076919"/>
      <trkpt lat="49.257857" lon="-123.077014"/>
      <trkpt lat="49.257910" lon="-123.077099"/>
      <trkpt lat="49.257964" lon="-123.077163"/>
      <trkpt lat="49.258012" lon="-123.077216"/>
      <trkpt lat="49.258081" lon="-123.077283"/>
      <trkpt lat="49.258170" lon="-123.077358"/>
      <trkpt lat="49.258270" lon="-123.077412"/>
      <trkpt lat="49.258400" lon="-123.077459"/>
      <trkpt lat="49.258483" lon="-123.077476"/>
      <trkpt lat="49.258576" lon="-123.077479"/>
      <trkpt lat="49.258722" lon="-123.077478"/>
      <trkpt lat="49.258950" lon="-123.077453"/>
      <trkpt lat="49.259039" lon="-123.077443"/>
      <trkpt lat="49.259177" lon="-123.077428"/>
      <trkpt lat="49.259511" lon="-123.077424"/>
      <trkpt lat="49.259539" lon="-123.077423"/>
      <trkpt lat="49.259625" lon="-123.077422"/>
      <trkpt lat="49.259720" lon="-123.077420"/>
      <trkpt lat="49.259959" lon="-123.077418"/>
      <trkpt lat="49.260085" lon="-123.077419"/>
      <trkpt lat="49.260467" lon="-123.077445"/>
      <trkpt lat="49.260532" lon="-123.077448"/>
      <trkpt lat="49.260599" lon="-123.077453"/>
      <trkpt lat="49.260975" lon="-123.077474"/>
      <trkpt lat="49.261354" lon="-123.077479"/>
      <trkpt lat="49.261369" lon="-123.077480"/>
      <trkpt lat="49.261433" lon="-123.077480"/>
      <trkpt lat="49.261499" lon="-123.077480"/>
      <trkpt lat="49.261647" lon="-123.077479"/>
      <trkpt lat="49.262223" lon="-123.077469"/>
      <trkpt lat="49.262251" lon="-123.077469"/>
      <trkpt lat="49.262328" lon="-123.077468"/>
      <trkpt lat="49.262446" lon="-123.077466"/>
      <trkpt lat="49.262519" lon="-123.077464"/>
      <trkpt lat="49.262886" lon="-123.077454"/>
      <trkpt lat="49.263048" lon="-123.077450"/>
      <trkpt lat="49.263118" lon="-123.077526"/>
      <trkpt lat="49.263329" lon="-123.077517"/>
      <trkpt lat="49.263653" lon="-123.077510"/>
      <trkpt lat="49.264130" lon="-123.077500"/>
      <trkpt lat="49.264156" lon="-123.077499"/>
      <trkpt lat="49.264241" lon="-123.077495"/>
      <trkpt lat="49.264322" lon="-123.077492"/>
      <trkpt lat="49.264340" lon="-123.077492"/>
      <trkpt lat="49.264774" lon="-123.077485"/>
      <trkpt lat="49.265026" lon="-123.077476"/>
      <trkpt lat="49.265065" lon="-123.077475"/>
      <trkpt lat="49.265187" lon="-123.077468"/>
      <trkpt lat="49.265370" lon="-123.077458"/>
      <trkpt lat="49.265414" lon="-123.077456"/>
      <trkpt lat="49.266034" lon="-123.077437"/>
      <trkpt lat="49.266303" lon="-123.077435"/>
      <trkpt lat="49.266853" lon="-123.077425"/>
      <trkpt lat="49.266956" lon="-123.077423"/>
      <trkpt lat="49.267031" lon="-123.077422"/>
      <trkpt lat="49.267757" lon="-123.077410"/>
      <trkpt lat="49.267781" lon="-123.077410"/>
      <trkpt lat="49.267857" lon="-123.077409"/>
      <trkpt lat="49.267938" lon="-123.077407"/>
      <trkpt lat="49.267963" lon="-123.077407"/>
      <trkpt lat="49.268763" lon="-123.077398"/>
      <trkpt lat="49.269572" lon="-123.077389"/>
      <trkpt lat="49.269668" lon="-123.077388"/>
      <trkpt lat="49.269765" lon="-123.077384"/>
      <trkpt lat="49.270118" lon="-123.077370"/>
      <trkpt lat="49.270566" lon="-123.077354"/>
      <trkpt lat="49.271036" lon="-123.077348"/>
      <trkpt lat="49.271420" lon="-123.077342"/>
      <trkpt lat="49.271510" lon="-123.077339"/>
      <trkpt lat="49.271599" lon="-123.077337"/>
      <trkpt lat="49.273060" lon="-123.077309"/>
      <trkpt lat="49.273139" lon="-123.077307"/>
      <trkpt lat="49.273237" lon="-123.077304"/>
      <trkpt lat="49.273529" lon="-123.077300"/>
      <trkpt lat="49.273943" lon="-123.077295"/>
      <trkpt lat="49.273969" lon="-123.077295"/>
      <trkpt lat="49.274047" lon="-123.077293"/>
      <trkpt lat="49.274126" lon="-123.077291"/>
      <trkpt lat="49.274146" lon="-123.077290"/>
      <trkpt lat="49.274498" lon="-123.077287"/>
      <trkpt lat="49.274865" lon="-123.077275"/>
      <trkpt lat="49.274946" lon="-123.077276"/>
      <trkpt lat="49.275043" lon="-123.077274"/>
      <trkpt lat="49.275772" lon="-123.077255"/>
      <trkpt lat="49.275855" lon="-123.077253"/>
      <trkpt lat="49.275943" lon="-123.077251"/>
      <trkpt lat="49.276297" lon="-123.077242"/>
      <trkpt lat="49.276649" lon="-123.077234"/>
      <trkpt lat="49.276674" lon="-123.077233"/>
      <trkpt lat="49.276765" lon="-123.077231"/>
      <trkpt lat="49.276762" lon="-123.077065"/>
      <trkpt lat="49.276761" lon="-123.077011"/>
      <trkpt lat="49.276743" lon="-123.075823"/>
      <trkpt lat="49.276726" lon="-123.074590"/>
      <trkpt lat="49.276724" lon="-123.074426"/>
      <trkpt lat="49.276723" lon="-123.074321"/>
      <trkpt lat="49.276722" lon="-123.074211"/>
      <trkpt lat="49.276721" lon="-123.074126"/>
      <trkpt lat="49.276711" lon="-123.073371"/>
      <trkpt lat="49.276705" lon="-123.072780"/>
      <trkpt lat="49.276704" lon="-123.072676"/>
      <trkpt lat="49.276689" lon="-123.071447"/>
      <trkpt lat="49.276678" lon="-123.070502"/>
      <trkpt lat="49.276671" lon="-123.069929"/>
      <trkpt lat="49.276669" lon="-123.069687"/>
      <trkpt lat="49.276668" lon="-123.069640"/>
      <trkpt lat="49.276666" lon="-123.069504"/>
      <trkpt lat="49.276753" lon="-123.069507"/>
      <trkpt lat="49.276780" lon="-123.069509"/>
      <trkpt lat="49.276899" lon="-123.069521"/>
      <trkpt lat="49.277020" lon="-123.069557"/>
      <trkpt lat="49.277109" lon="-123.069597"/>
      <trkpt lat="49.277109" lon="-123.069455"/>
      <trkpt lat="49.277096" lon="-123.068427"/>
      <trkpt lat="49.277096" lon="-123.068366"/>
      <trkpt lat="49.277096" lon="-123.068366"/>
      <trkpt lat="49.276751" lon="-123.068371"/>
      <trkpt lat="49.276729" lon="-123.068371"/>
      <trkpt lat="49.276647" lon="-123.068372"/>
      <trkpt lat="49.276641" lon="-123.067561"/>
      <trkpt lat="49.276624" lon="-123.066201"/>
      <trkpt lat="49.276625" lon="-123.065801"/>
      <trkpt lat="49.276626" lon="-123.065760"/>
      <trkpt lat="49.276628" lon="-123.065636"/>
      <trkpt lat="49.276553" lon="-123.065638"/>
      <trkpt lat="49.276525" lon="-123.065639"/>
      <trkpt lat="49.276179" lon="-123.065647"/>
      <trkpt lat="49.275795" lon="-123.065654"/>
      <trkpt lat="49.275738" lon="-123.065657"/>
      <trkpt lat="49.275670" lon="-123.065658"/>
      <trkpt lat="49.275276" lon="-123.065664"/>
      <trkpt lat="49.274890" lon="-123.065670"/>
      <trkpt lat="49.274823" lon="-123.065673"/>
      <trkpt lat="49.274764" lon="-123.065674"/>
      <trkpt lat="49.274368" lon="-123.065681"/>
      <trkpt lat="49.273987" lon="-123.065689"/>
      <trkpt lat="49.273922" lon="-123.065690"/>
      <trkpt lat="49.273850" lon="-123.065692"/>
      <trkpt lat="49.273792" lon="-123.065694"/>
      <trkpt lat="49.273747" lon="-123.065694"/>
      <trkpt lat="49.273079" lon="-123.065704"/>
      <trkpt lat="49.273019" lon="-123.065705"/>
      <trkpt lat="49.272955" lon="-123.065706"/>
      <trkpt lat="49.272560" lon="-123.065714"/>
      <trkpt lat="49.272183" lon="-123.065721"/>
      <trkpt lat="49.272110" lon="-123.065722"/>
      <trkpt lat="49.272047" lon="-123.065723"/>
      <trkpt lat="49.271690" lon="-123.065730"/>
      <trkpt lat="49.271330" lon="-123.065734"/>
      <trkpt lat="49.271272" lon="-123.065737"/>
      <trkpt lat="49.271207" lon="-123.065737"/>
      <trkpt lat="49.270846" lon="-123.065739"/>
      <trkpt lat="49.270549" lon="-123.065748"/>
      <trkpt lat="49.270484" lon="-123.065750"/>
      <trkpt lat="49.270420" lon="-123.065751"/>
      <trkpt lat="49.270026" lon="-123.065757"/>
      <trkpt lat="49.269655" lon="-123.065761"/>
      <trkpt lat="49.269576" lon="-123.065764"/>
      <trkpt lat="49.269575" lon="-123.065649"/>
      <trkpt lat="49.269556" lon="-123.063936"/>
      <trkpt lat="49.269555" lon="-123.063833"/>
      <trkpt lat="49.269555" lon="-123.063733"/>
      <trkpt lat="49.269546" lon="-123.062058"/>
      <trkpt lat="49.269545" lon="-123.062003"/>
      <trkpt lat="49.269544" lon="-123.061898"/>
      <trkpt lat="49.269544" lon="-123.061798"/>
      <trkpt lat="49.269543" lon="-123.061768"/>
      <trkpt lat="49.269532" lon="-123.060124"/>
      <trkpt lat="49.269531" lon="-123.060072"/>
      <trkpt lat="49.269530" lon="-123.059964"/>
      <trkpt lat="49.269529" lon="-123.059867"/>
      <trkpt lat="49.269529" lon="-123.059815"/>
      <trkpt lat="49.269513" lon="-123.058143"/>
      <trkpt lat="49.269480" lon="-123.058031"/>
      <trkpt lat="49.269477" lon="-123.057928"/>
      <trkpt lat="49.269460" lon="-123.057367"/>
      <trkpt lat="49.269457" lon="-123.057216"/>
      <trkpt lat="49.269449" lon="-123.056936"/>
      <trkpt lat="49.269446" lon="-123.056802"/>
      <trkpt lat="49.269446" lon="-123.056774"/>
      <trkpt lat="49.269441" lon="-123.056595"/>
      <trkpt lat="49.269437" lon="-123.056421"/>
      <trkpt lat="49.269431" lon="-123.056259"/>
      <trkpt lat="49.269426" lon="-123.055925"/>
      <trkpt lat="49.269418" lon="-123.054704"/>
      <trkpt lat="49.269365" lon="-123.054701"/>
      <trkpt lat="49.269346" lon="-123.054702"/>
      <trkpt lat="49.268942" lon="-123.054689"/>
      <trkpt lat="49.268570" lon="-123.054692"/>
      <trkpt lat="49.268552" lon="-123.054692"/>
      <trkpt lat="49.268485" lon="-123.054690"/>
      <trkpt lat="49.268416" lon="-123.054690"/>
      <trkpt lat="49.268392" lon="-123.054690"/>
      <trkpt lat="49.268030" lon="-123.054691"/>
      <trkpt lat="49.267653" lon="-123.054695"/>
      <trkpt lat="49.267582" lon="-123.054696"/>
      <trkpt lat="49.267520" lon="-123.054696"/>
      <trkpt lat="49.267131" lon="-123.054700"/>
      <trkpt lat="49.266752" lon="-123.054703"/>
      <trkpt lat="49.266682" lon="-123.054704"/>
      <trkpt lat="49.266617" lon="-123.054705"/>
      <trkpt lat="49.266235" lon="-123.054709"/>
      <trkpt lat="49.265818" lon="-123.054703"/>
      <trkpt lat="49.265807" lon="-123.054703"/>
      <trkpt lat="49.265729" lon="-123.054703"/>
      <trkpt lat="49.265661" lon="-123.054702"/>
      <trkpt lat="49.265643" lon="-123.054703"/>
      <trkpt lat="49.265223" lon="-123.054707"/>
      <trkpt lat="49.264848" lon="-123.054709"/>
      <trkpt lat="49.264778" lon="-123.054709"/>
      <trkpt lat="49.264716" lon="-123.054710"/>
      <trkpt lat="49.264332" lon="-123.054707"/>
      <trkpt lat="49.263955" lon="-123.054714"/>
      <trkpt lat="49.263941" lon="-123.054714"/>
      <trkpt lat="49.263875" lon="-123.054715"/>
      <trkpt lat="49.263814" lon="-123.054715"/>
      <trkpt lat="49.263791" lon="-123.054715"/>
      <trkpt lat="49.263429" lon="-123.054714"/>
      <trkpt lat="49.263043" lon="-123.054708"/>
      <trkpt lat="49.262975" lon="-123.054710"/>
      <trkpt lat="49.262911" lon="-123.054713"/>
      <trkpt lat="49.262523" lon="-123.054704"/>
      <trkpt lat="49.262165" lon="-123.054704"/>
      <trkpt lat="49.262135" lon="-123.054704"/>
      <trkpt lat="49.262051" lon="-123.054704"/>
      <trkpt lat="49.261943" lon="-123.054703"/>
      <trkpt lat="49.261958" lon="-123.053261"/>
      <trkpt lat="49.262019" lon="-123.053011"/>
      <trkpt lat="49.262018" lon="-123.052361"/>
      <trkpt lat="49.262017" lon="-123.052323"/>
      <trkpt lat="49.262017" lon="-123.052216"/>
      <trkpt lat="49.262017" lon="-123.052102"/>
      <trkpt lat="49.262017" lon="-123.052059"/>
      <trkpt lat="49.262011" lon="-123.049752"/>
      <trkpt lat="49.262011" lon="-123.049711"/>
      <trkpt lat="49.262011" lon="-123.049586"/>
      <trkpt lat="49.262011" lon="-123.049477"/>
      <trkpt lat="49.262011" lon="-123.049429"/>
      <trkpt lat="49.262006" lon="-123.048444"/>
      <trkpt lat="49.261997" lon="-123.047150"/>
      <trkpt lat="49.261997" lon="-123.047037"/>
      <trkpt lat="49.261996" lon="-123.046946"/>
      <trkpt lat="49.261989" lon="-123.046199"/>
      <trkpt lat="49.261945" lon="-123.046036"/>
      <trkpt lat="49.261931" lon="-123.045202"/>
      <trkpt lat="49.261924" lon="-123.045059"/>
      <trkpt lat="49.261901" lon="-123.044538"/>
      <trkpt lat="49.261899" lon="-123.044495"/>
      <trkpt lat="49.261894" lon="-123.044379"/>
      <trkpt lat="49.261887" lon="-123.044222"/>
      <trkpt lat="49.261882" lon="-123.044103"/>
      <trkpt lat="49.261853" lon="-123.043456"/>
      <trkpt lat="49.261853" lon="-123.043213"/>
      <trkpt lat="49.261868" lon="-123.042705"/>
      <trkpt lat="49.261921" lon="-123.042567"/>
      <trkpt lat="49.261918" lon="-123.041579"/>
      <trkpt lat="49.261915" lon="-123.040339"/>
      <trkpt lat="49.261915" lon="-123.040289"/>
      <trkpt lat="49.261915" lon="-123.040170"/>
      <trkpt lat="49.261915" lon="-123.040064"/>
      <trkpt lat="49.261914" lon="-123.040024"/>
      <trkpt lat="49.261913" lon="-123.039274"/>
      <trkpt lat="49.261913" lon="-123.039064"/>
      <trkpt lat="49.261908" lon="-123.037927"/>
      <trkpt lat="49.261905" lon="-123.036526"/>
      <trkpt lat="49.261905" lon="-123.036158"/>
      <trkpt lat="49.261857" lon="-123.036001"/>
      <trkpt lat="49.261842" lon="-123.035176"/>
      <trkpt lat="49.261841" lon="-123.034790"/>
      <trkpt lat="49.261841" lon="-123.034711"/>
      <trkpt lat="49.261838" lon="-123.034009"/>
      <trkpt lat="49.261838" lon="-123.033971"/>
      <trkpt lat="49.261838" lon="-123.033848"/>
      <trkpt lat="49.261767" lon="-123.033848"/>
      <trkpt lat="49.261333" lon="-123.033850"/>
      <trkpt lat="49.261114" lon="-123.033845"/>
      <trkpt lat="49.260712" lon="-123.033853"/>
      <trkpt lat="49.260666" lon="-123.033854"/>
      <trkpt lat="49.260355" lon="-123.033861"/>
      <trkpt lat="49.260340" lon="-123.033861"/>
      <trkpt lat="49.260297" lon="-123.033862"/>
      <trkpt lat="49.259962" lon="-123.033869"/>
      <trkpt lat="49.259675" lon="-123.033875"/>
      <trkpt lat="49.259488" lon="-123.033872"/>
      <trkpt lat="49.259454" lon="-123.033872"/>
      <trkpt lat="49.259363" lon="-123.033873"/>
      <trkpt lat="49.259262" lon="-123.033874"/>
      <trkpt lat="49.258749" lon="-123.033874"/>
      <trkpt lat="49.258623" lon="-123.033875"/>
      <trkpt lat="49.258319" lon="-123.033869"/>
      <trkpt lat="49.258291" lon="-123.033868"/>
      <trkpt lat="49.258214" lon="-123.033869"/>
      <trkpt lat="49.258107" lon="-123.033871"/>
      <trkpt lat="49.258022" lon="-123.033871"/>
      <trkpt lat="49.257752" lon="-123.033875"/>
      <trkpt lat="49.257258" lon="-123.033871"/>
      <trkpt lat="49.256951" lon="-123.033865"/>
      <trkpt lat="49.256485" lon="-123.033850"/>
      <trkpt lat="49.256408" lon="-123.033850"/>
      <trkpt lat="49.255574" lon="-123.033868"/>
      <trkpt lat="49.254751" lon="-123.033882"/>
      <trkpt lat="49.254768" lon="-123.033760"/>
      <trkpt lat="49.255990" lon="-123.033743"/>
    </trkseg>
  </trk>
</gpx>
